X;Y;OBJECTID;id;airport_ident;type;name;elevation_ft;continent;iso_country;iso_region;municipality;scheduled_service;gps_code;iata_code;local_code;description;frequency_mhz;runway_length_ft;runway_width_ft;runway_surface;runway_lighted;runway_closed
-130.116.153.055;42.121.940.021;1;6528;00CA;small_airport;Goldstone (GTS) Airport;3038;NA;US;US-CA;Barstow;no;00CA;;00CA;CTAF;122.9;6000;80;ASPH;0;0
-90.346.011.039;33.479.160.217;2;6589;01FL;small_airport;Cedar Knoll Flying Ranch Airport;19;NA;US;US-FL;Geneva;no;01FL;;01FL;;122.9;3000;50;TURF;1;0
-130.995.214.131;41.047.736.945;3;6756;04CA;small_airport;Gray Butte Field;3020;NA;US;US-CA;Palmdale;no;KGXA;;04CA;CTAF;122.9;5000;150;ASPH;0;0
-101.118.932.969;38.874.139.018;4;6779;04MS;small_airport;Nick's Flying Service Inc Airport;100;NA;US;US-MS;Rolling Fork;no;04MS;;04MS;UNICOM;122.8;3400;100;ASPH-TURF;0;0
-128.757.690.046;42.670.306.017;5;6784;04NV;small_airport;Kingston Ranch Airport;2620;NA;US;US-NV;Sandy Valley;no;04NV;;04NV;UNICOM;123;3240;45;ASPH;1;0
-136.245.036.685;46.660.599.263;6;6812;05CL;small_airport;Pope Valley Airport;618;NA;US;US-CA;Pope Valley;no;05CL;;05CL;CTAF;122.9;3700;60;ASPH-G;1;0
-122.802.962.334;4.443.794.855;7;6853;05UT;closed;Oljato Airport;4838;NA;US;US-UT;Oljato-Monument Valley;no;;;;UNICOM;122.8;3950;50;ASPH-P;0;0
-8942172.6;31.120.321.412;8;6868;06FA;small_airport;William P Gwinn Airport;28;NA;US;US-FL;Jupiter;no;06FA;;06FA;PALM BEACH APP;124.6;7003;150;ASPH;1;0
-105.535.772.639;47.547.568.554;9;6887;06MO;small_airport;Noahs Ark Airport;755;NA;US;US-MO;Waldron;no;06MO;;06MO;CTAF;122.9;3000;30;ASPH;1;0
-89.361.502.115;29.157.658.414;10;6924;07FA;small_airport;Ocean Reef Club Airport;8;NA;US;US-FL;Key Largo;no;07FA;OCA;07FA;UNICOM;122.7;4500;70;ASPH;1;0
-118.586.427.016;6.177.199.094;11;6943;07MT;small_airport;Glasgow Industrial Airport;2762;NA;US;US-MT;Glasgow;no;07MT;;07MT;SALT LAKE CITY CNTR;126.85;13500;300;CONC-G;1;0
-108.550.754.783;32.138.561.499;12;6954;07TE;small_airport;Cuddihy Field;39;NA;US;US-TX;Corpus Christi;no;07TE;;07TE;HOUSTON CNTR;126.625;5000;100;ASPH;0;0
-10.991.959.365;35.003.792.675;13;7008;08TE;closed;B J McCombs Sisterdale Airport;1447;NA;US;US-TX;Comfort;no;;;;UNICOM;122.8;3100;50;ASPH;0;0
-134.760.035.087;4.737.985.587;14;7019;09CL;small_airport;Alta Sierra Airport;2275;NA;US;US-CA;Grass Valley;no;09CL;;09CL;CTAF;122.9;3000;50;ASPH-F;0;0
-9.062.864.969;31.541.898.439;15;7021;09FA;small_airport;Placid Lakes Airport;130;NA;US;US-FL;Lake Placid;no;09FA;;09FA;UNICOM;122.8;4800;50;ASPH-E;1;0
-114.842.753.697;34.371.893.104;16;7054;09TS;small_airport;Pitcock Rosillos Mountain Ranch Airport;3100;NA;US;US-TX;Marathon;no;09TS;;09TS;ALBUQUERQUE CNTR;132.65;4200;42;ASPH;0;0
-126.504.165.084;39.990.538.925;17;7094;0AZ2;small_airport;Western Sky Airport;1930;NA;US;US-AZ;Salome;no;0AZ2;;0AZ2;UNICOM;122.95;1500;100;GRVL;0;0
-98.744.172.816;51.267.230.224;18;7102;0C2;small_airport;Hinckley Airport;760;NA;US;US-IL;Hinckley;no;0C2;;0C2;;122.9;2640;100;TURF-G;0;0
-133.959.713.396;4.244.734.561;19;7116;0CA9;small_airport;Blech Ranch Airport;1140;NA;US;US-CA;Shandon;no;0CA9;;0CA9;CTAF;122.9;3300;60;ASPH;0;0
-126.651.527.182;5.534.240.018;20;7213;0ID2;small_airport;Flying Joseph Ranch Airport;5600;NA;US;US-ID;May;no;0ID2;;0ID2;SALT LAKE CITY CNTR;128.35;6507;75;ASPH;0;0
-107.106.273.302;36.432.729.278;21;7542;0TE4;small_airport;Hilltop Lakes Airport;501;NA;US;US-TX;Hilltop Lakes;no;0TE4;;0TE4;CTAF/UNICOM;122.8;3000;40;ASPH;0;0
-11041323.64;31.777.746.244;22;7543;0TE5;small_airport;Santa Maria Ranch Airport;516;NA;US;US-TX;Laredo;no;0TE5;;0TE5;HOUSTON CNTR;126.625;5992;77;ASPH;0;0
-10.978.606.209;35.359.576.909;23;7545;0TE7;small_airport;LBJ Ranch Airport;1515;NA;US;US-TX;Johnson City;no;0TE7;JCY;0TE7;UNICOM;122.8;6291;60;ASPH;0;0
-108.732.676.296;3.809.779.908;24;7569;0TX1;small_airport;Pecan Plantation Airport;710;NA;US;US-TX;Granbury;no;0TX1;;0TX1;UNICOM;123.05;3500;50;ASPH;1;0
-95.768.717.108;4.770.736.245;25;7712;11II;small_airport;Atterbury Field (Camp Atterbury);710;NA;US;US-IN;Nineveh;no;11II;;11II;INDIANAPOLIS CNTR;134.85;4220;72;ASPH;0;0
-84.991.350.308;41.492.274.799;26;7781;12NC;small_airport;Atlantic Field Marine Corps Outlying Field;20;NA;US;US-NC;Atlantic;no;12NC;;12NC;CHERRY POINT APP;119.75;3575;150;ASPH;0;0
-108.484.296.909;42.376.874.156;27;7789;12OK;closed;Expressway Airpark;1070;NA;US;US-OK;Oklahoma City;no;;;;UNICOM;123;3350;50;ASPH-P;1;0
-86.000.924.582;4.167.279.879;28;7838;13NC;small_airport;Oak Grove Marine Corps Outlying Field;27;NA;US;US-NC;Pollocksville;no;13NC;;13NC;CHERRY POINT APP;119.35;4000;150;ASPH;0;0
-86.328.268.508;40.983.951.327;29;7898;14NC;small_airport;Camp Davis Mcolf Airport;60;NA;US;US-NC;Holly Ridge;no;14NC;;14NC;CHERRY POINT APP;119.35;5000;150;CONC;0;0
-109.766.027.096;31.762.570.469;30;7917;14TS;small_airport;O S Wyatt Airport;532;NA;US;US-TX;Realitos;no;14TS;;14TS;HOUSTON CNTR;126.625;6044;70;ASPH;0;0
-100.794.563.558;41.404.471.778;31;7928;15AR;small_airport;Taylor Airport;220;NA;US;US-AR;Brickeys;no;15AR;;15AR;RDO CTL;122.725;2500;120;ASPH-TURF;1;0
-9.202.542.967;35.229.207.352;32;7934;15FL;small_airport;Cannon Creek Airpark;125;NA;US;US-FL;Lake City;no;15FL;;15FL;UNICOM;123;2292;50;TURF;0;0
-108.379.433.924;39.060.204.335;33;8028;16X;small_airport;Propwash Airport;800;NA;US;US-TX;Justin;no;16X;;16X;FORT WORTH CNTR;127.45;3000;60;ASPH-F;1;0
-124.564.647.823;40.044.617.932;34;8082;18AZ;small_airport;Sky Ranch At Carefree Airport;2568;NA;US;US-AZ;Carefree;no;18AZ;;18AZ;UNICOM;122.975;4037;50;ASPH;1;0
-111.034.176.846;35.210.818.851;35;8117;18TA;small_airport;West Kerr Ranch Airport;2330;NA;US;US-TX;Junction;no;18TA;;18TA;HOUSTON CNTR;126.625;4500;48;ASPH;0;0
-105.824.653.648;38.403.749.117;36;8118;18TE;small_airport;Alert Field;390;NA;US;US-TX;Big Sandy;no;18TE;;18TE;UNICOM;122.8;5093;40;ASPH-G;1;0
-124.977.275.779;39.101.662.532;37;8205;1AZ0;small_airport;Bishop Airfield;1261;NA;US;US-AZ;Mobile;no;1AZ0;;1AZ0;UNICOM;122.725;4500;75;ASPH;1;0
-133.273.954.163;42.276.507.735;38;8222;1CA1;small_airport;Belridge Strip;575;NA;US;US-CA;McKittrick;no;;;;CTAF;122.9;5600;85;ASPH-TRTD;1;0
-116.661.240.049;4.890.294.943;39;8233;1CD2;small_airport;Tonga Airport;4925;NA;US;US-CO;Platteville;no;1CD2;;1CD2;DENVER APP;119.3;3000;24;ASPH;0;0
-90.535.031.317;37.160.688.586;40;8297;1GA0;small_airport;Eagle Neck Airport;10;NA;US;US-GA;Shellman Bluff;no;1GA0;;1GA0;UNICOM;122.725;3744;41;ASPH;1;0
-127.886.458.163;42.054.816.763;41;8402;1L4;small_airport;Kidwell Airport;2605;NA;US;US-NV;Cal Nev Ari;no;K1L4;;1L4;Kidwell traffic;122.9;4140;65;DIRT-F;1;0
-98.605.915.502;38.873.562.018;42;8486;1MS8;small_airport;Columbus Air Force Base Auxiliary Field (Gunshy);260;NA;US;US-MS;Shuqualak;no;1MS8;;1MS8;MERIDIAN APP;31.48;6300;150;ASPH-CONC;0;0
-135.658.382.494;60.338.819.871;43;8732;1WA6;small_airport;Fall City Airport;140;NA;US;US-WA;Fall City;no;1WA6;;1WA6;Fall City Traffic;122.9;3000;25;ASPH-TURF;0;0
-111.737.750.403;34.565.684.069;44;8769;1XS8;small_airport;Pinon Ranch Airport;1640;NA;US;US-TX;Brackettville;no;1XS8;;1XS8;HOUSTON CNTR;126.625;4500;50;ASPH;0;0
-94.493.212.417;39.961.526.336;45;8787;20GA;small_airport;Earl L. Small Jr. Field/Stockmar Airport;1110;NA;US;US-GA;Villa Rica;no;20GA;;20GA;MULT;122.9;4500;50;ASPH;1;0
-108.722.021.908;36.813.759.827;46;8924;22XS;small_airport;Longhorn Auxiliary Landing Strip;720;NA;US;US-TX;Fort Hood;no;22XS;;22XS;TWR;143.35;3488;75;ASPH;0;0
-10.872.894.264;36.796.855.564;47;8982;23XS;small_airport;Shorthorn Auxiliary Landing Strip;720;NA;US;US-TX;Fort Hood;no;23XS;;23XS;LONGHORN AUX TWR;143.35;2200;50;ASPH;0;0
-133.072.868.862;43.127.979.643;48;8990;24CL;small_airport;Boswell Airport;205;NA;US;US-CA;Corcoran;no;24CL;;24CL;CTAF;122.9;7000;80;ASPH;0;0
-8.873.473.424;42.502.007.751;49;9068;25NC;small_airport;Smith Air Strip;560;NA;US;US-NC;Asheboro;no;25NC;;25NC;MULTICOM;122.9;3100;60;TURF-G;1;0
-105.717.225.651;34.825.634.577;50;9078;25TA;small_airport;Ferris Airport;35;NA;US;US-TX;Baytown;no;25TA;;25TA;HOUSTON CNTR;126.625;3600;75;CONC;0;0
-114.010.604.974;43.136.089.473;51;9080;25TS;small_airport;Miller Airfield;3961;NA;US;US-TX;Dalhart;no;25TS;;25TS;ALBUQUERQUE CNTR;132.65;6500;75;CONC-P;0;0
-125.977.813.136;40.179.679.087;52;9138;27AZ;small_airport;Eagle Roost Airpark;2206;NA;US;US-AZ;Aguila;no;27AZ;;27AZ;CTAF;122.9;3906;40;ASPH;1;0
-131.031.946.223;41.680.264.732;53;9191;28CL;closed;Borax Heliport;2400;NA;US;US-CA;Boron;no;;;;CTAF;122.8;60;60;ASPH;0;0
-109.891.264.921;32.280.105.941;54;9223;28TA;small_airport;Duval County Ranch Co Airport;665;NA;US;US-TX;Freer;no;28TA;;28TA;HOUSTON CNTR;126.625;10280;34;ASPH;0;0
-125.679.707.332;38.827.809.003;55;9236;29AZ;small_airport;Paloma Ranch Airport;737;NA;US;US-AZ;Paloma;no;29AZ;;29AZ;UNICOM;122.8;5500;60;ASPH;1;0
-110.612.732.252;40.415.394.052;56;9277;29TX;small_airport;Lockett Airport;1282;NA;US;US-TX;Vernon;no;29TX;;29TX;FORT WORTH CNTR;127.45;3000;30;ASPH;0;0
-135.034.996.063;46.267.736.442;57;9354;2CL9;small_airport;Mustang Airport;45;NA;US;US-CA;Galt;no;2CL9;;2CL9;CTAF;122.9;4000;40;ASPH;0;0
-133.464.853.732;42.545.716.016;58;14060;2CN4;small_airport;Wonderful Pistachios & Almonds Airport;617;NA;US;US-CA;Lost Hills;no;2CN4;;2CN4;CTAF;122.9;5002;60;ASPH;1;0
-90.787.834.049;49.603.539.895;59;9368;2D7;small_airport;Beach City Airport;984;NA;US;US-OH;Beach City;no;2D7;;2D7;CLEVELAND APP/DEP;125.5;3175;115;TURF-G;1;0
-97.404.409.729;47.004.627.988;60;20770;2IG4;small_airport;Ed-Air Airport;426;NA;US;US-IN;Oaktown;no;KI20;OTN;I20;UNICOM;122.8;5800;100;ASPH;1;0
-134.134.423.771;55.945.624.511;61;9696;2OR1;small_airport;Big Muddy Ranch Airport;1641;NA;US;US-OR;Fossil;no;2OR1;;2OR1;UNICOM;122.8;4185;70;ASPH-G;1;0
-107.086.569.534;37.453.012.672;62;9772;2TA6;small_airport;Pyramid Ranch Airport;362;NA;US;US-TX;Fairfield;no;2TA6;;2TA6;FORT WORTH CNTR;127.45;4700;72;CONC-G;0;0
-109.340.230.381;3.105.791.854;63;9774;2TA8;small_airport;El Coyote Ranch Airport;196;NA;US;US-TX;Encino;no;2TA8;;2TA8;HOUSTON CNTR;126.625;5500;75;ASPH;1;0
-111.097.112.299;33.348.520.084;64;9784;2TE8;closed;Wagner-Braxdale Airport;570;NA;US;US-TX;Crystal City;no;;;;HOUSTON CNTR;126.625;3600;38;ASP;0;0
-11.200.632.845;34.032.815.999;65;9809;2TX3;small_airport;La Fonda Ranch Airport;1020;NA;US;US-TX;Brackettville;no;2TX3;;2TX3;HOUSTON CNTR;126.625;5280;50;ASPH;1;0
-110.625.637.916;32.469.063.598;66;9810;2TX4;small_airport;Lewis Ranch Airport;540;NA;US;US-TX;Encinal;no;2TX4;;2TX4;HOUSTON CNTR;126.625;4800;60;ASPH;1;0
-86.684.150.818;47.176.332.209;67;9835;2VG2;small_airport;Upperville Airport;551;NA;US;US-VA;Upperville;no;2VG2;;2VG2;UNICOM;122.725;5100;100;ASP;1;0
-110.999.890.592;40.260.230.555;68;9880;2XA0;small_airport;Foard County Airport;1479;NA;US;US-TX;Crowell;no;2XA0;;2XA0;FORT WORTH CNTR;127.45;3200;39;ASPH-P;1;0
-106.527.225.676;37.659.146.921;69;9891;2XS3;small_airport;Glad Oaks Airport;487;NA;US;US-TX;Palestine;no;2XS3;;2XS3;FORT WORTH CNTR;127.45;4250;75;ASPH-P;0;0
-109.566.543.437;35.048.995.861;70;9893;2XS5;small_airport;Cross Triangle Ranch Airport;1420;NA;US;US-TX;Twin Sisters;no;2XS5;;2XS5;HOUSTON CNTR;126.625;3000;50;ASPH;0;0
-85.258.039.703;44.424.247.052;71;9985;31VA;small_airport;Aberdeen Field;33;NA;US;US-VA;Smithfield;no;31VA;;31VA;UNICOM;122.75;5921;60;ASPH;1;0
-124.580.983.958;39.276.561.193;72;10080;34AZ;closed;Gila River Memorial Airport;1185;NA;US;US-AZ;Chandler;no;;;;UNICOM;122.8;5200;200;ASPH-P;0;0
-133.567.804.291;4.318.785.928;73;10175;36CA;small_airport;Stone Land County Airport;265;NA;US;US-CA;Stratford;no;36CA;;36CA;CTAF;122.9;3300;30;ASPH;0;0
-133.593.446.668;42.506.750.896;74;10177;36CN;closed;Blackwell Land Company Airport;760;NA;US;US-CA;Lost Hills;no;;;;CTAF;122.9;4200;40;ASPH-TRTD;0;0
-101.634.248.362;54.704.265.387;75;10214;36WI;small_airport;Holland Air Park;730;NA;US;US-WI;Holmen;no;36WI;;36WI;CTAF;122.9;3200;60;ASPH;1;0
-122.916.754.231;4.365.722.055;76;10265;38AZ;closed;Peabody Bedard Field;6564;NA;US;US-AZ;Kayenta;no;;;;AWOS 2;119.225;7500;75;ASPH;1;0
-133.014.544.128;42.582.687.008;77;10268;38CA;closed;Cashen Airport;225;NA;US;US-CA;Wasco;no;;;;UNICOM;122.8;4000;100;ASPH;0;0
-109.626.656.914;31.004.024.428;78;10312;38XS;small_airport;San Rafael Ranch Airport;312;NA;US;US-TX;Santa Elena;no;38XS;;38XS;UNICOM;122.8;6000;75;ASPH;1;0
-7991949.08;5.224.992.174;79;18674;3B3;small_airport;Sterling Airport;459;NA;US;US-MA;Sterling;no;3B3;;3B3;CTAF;122.9;3086;40;ASPH-G;1;0
-99.773.542.301;43.628.016.935;80;10626;3MO4;small_airport;Penman Airport;287;NA;US;US-MO;Portageville;no;3MO4;;3MO4;CTAF;122.9;2600;100;TURF;0;0
-93.523.321.361;48.558.212.968;81;10702;3OH0;small_airport;Andy Barnhart Memorial Airport;895;NA;US;US-OH;New Carlisle;no;3OH0;;3OH0;;122.9;2000;30;ASPH;1;0
-111.770.333.372;35.160.116.469;82;10788;3TA0;small_airport;Four Square Ranch Airport;2250;NA;US;US-TX;Rocksprings;no;3TA0;;3TA0;HOUSTON CNTR;126.625;4000;30;ASPH;1;0
-109.510.307.505;35.193.015.677;83;10793;3TA5;small_airport;Blanco Landing Airport;1460;NA;US;US-TX;Blanco;no;3TA5;;3TA5;HOUSTON CNTR;126.625;3450;30;ASPH;0;0
-11.160.112.727;34.448.003.094;84;10794;3TA6;small_airport;Spring Ranch Airport;1440;NA;US;US-TX;Brackettville;no;3TA6;;3TA6;HOUSTON CNTR;126.625;4280;36;ASPH;0;0
-109.138.181.838;35.050.153.201;85;10820;3TS1;small_airport;White Wings Airport;1083;NA;US;US-TX;Wimberley;no;3TS1;;3TS1;HOUSTON CNTR;126.625;3000;50;ASPH-F;0;0
-106.775.031.769;35.211.764.759;86;10899;3XS8;small_airport;Ken Ada Ranch Airport;250;NA;US;US-TX;Waller;no;3XS8;;3XS8;HOUSTON CNTR;126.625;4200;100;ASPH;1;0
-83.415.703.488;48.762.361.964;87;6523;00A;heliport;Total Rf Heliport;11;NA;US;US-PA;Bensalem;no;00A;;00A;;;80;80;ASPH-G;1;0
-168.863.345.288;8388110.4;88;6524;00AK;small_airport;Lowell Field;450;NA;US;US-AK;Anchor Point;no;00AK;;00AK;;;2500;70;GRVL;0;0
-96.592.258.145;41.455.230.812;89;6525;00AL;small_airport;Epps Airpark;820;NA;US;US-AL;Harvest;no;00AL;;00AL;;;2300;200;TURF;0;0
-174.166.800.639;82.005.771.625;90;506791;00AN;small_airport;Katmai Lodge Airport;80;NA;US;US-AK;King Salmon;no;00AN;;00AN;;;4517;60;GVL;0;0
-101.584.487.778;42.469.118.194;91;6526;00AR;closed;Newport Hospital & Clinic Heliport;237;NA;US;US-AR;Newport;no;;;;;;40;40;GRASS;0;0
-10889052.11;41.561.109.871;92;322127;00AS;small_airport;Fulton Airport;1100;NA;US;US-OK;Alex;no;00AS;;00AS;;;1450;60;Turf;0;0
-124.861.507.868;40.699.107.205;93;6527;00AZ;small_airport;Cordes Airport;3810;NA;US;US-AZ;Cordes;no;00AZ;;00AZ;;;1700;60;GRAVEL;0;0
-11615521.17;49.567.752.424;94;6529;00CO;closed;Cass Field;4830;NA;US;US-CO;Briggsdale;no;;;;;;3900;20;TURF-G;0;0
-91.525.774.106;33.306.030.604;95;6531;00FA;small_airport;Grass Patch Airport;53;NA;US;US-FL;Bushnell;no;00FA;;00FA;;;3200;100;TURF;0;0
-91.666.477.745;33.561.361.024;96;6532;00FD;closed;Ringhaver Heliport;25;NA;US;US-FL;Riverview;no;;;;;;74;74;TURF;0;0
-90.134.501.289;31.523.493.658;97;6533;00FL;small_airport;River Oak Airport;35;NA;US;US-FL;Okeechobee;no;00FL;;00FL;;;4090;100;TURF;0;0
-93.584.401.631;39.976.257.632;98;6534;00GA;small_airport;Lt World Airport;700;NA;US;US-GA;Lithonia;no;00GA;;00GA;;;2600;80;TURF;0;0
-94.328.777.989;40.137.706.449;99;6535;00GE;heliport;Caffrey Heliport;957;NA;US;US-GA;Hiram;no;00GE;;00GE;;;125;95;ASPH;1;0
-173.634.301.628;22.532.438.605;100;6536;00HI;heliport;Kaupulehu Heliport;43;OC;US;US-HI;Kailua-Kona;no;00HI;;00HI;;;1155;45;ASPH-G;0;0
-129.368.829.565;61.310.620.121;101;6537;00ID;small_airport;Delta Shores Airport;2064;NA;US;US-ID;Clark Fork;no;00ID;;00ID;;;3300;40;TURF;0;0
-99.698.183.459;51.577.445.675;102;6539;00IL;small_airport;Hammer Airport;840;NA;US;US-IL;Polo;no;00IL;;00IL;;;2500;75;TURF-F;0;0
-97.138.052.498;50.880.679.635;103;6540;00IN;heliport;St Mary Medical Center Heliport;634;NA;US;US-IN;Hobart;no;00IN;;00IN;;;40;40;MATS;1;0
-99.211.160.594;48.696.631.623;104;6541;00IS;small_airport;Hayenga's Cant Find Farms Airport;820;NA;US;US-IL;Kings;no;00IS;;00IS;;;1600;70;TURF;0;0
-105.676.144.995;46.827.557.009;105;6542;00KS;small_airport;Hayden Farm Airport;1100;NA;US;US-KS;Gardner;no;00KS;;00KS;;;2600;85;TURF;0;0
-94.198.216.447;44.963.266.733;106;6543;00KY;small_airport;Robbins Roost Airport;1265;NA;US;US-KY;Stanford;no;00KY;;00KY;;;2100;100;TURF;0;0
-101.279.400.015;35.282.463.924;107;45437;00LA;heliport;Shell Chemical East Site Heliport;15;NA;US;US-LA;Gonzales;no;00LA;;00LA;;;40;40;TURF;0;0
-99.859.813.709;48.174.229.058;108;6544;00LL;heliport;Ac & R Components Heliport;600;NA;US;US-IL;Chatham;no;00LL;;00LL;;;25;25;CONC;0;0
-102.891.935.197;3.521.081.868;109;6545;00LS;small_airport;Lejeune Airport;12;NA;US;US-LA;Crowley;no;00LS;;00LS;;;2600;100;TURF;0;0
-84.328.743.791;46.869.375.934;110;6546;00MD;small_airport;Slater Field;45;NA;US;US-MD;Federalsburg;no;00MD;;00MD;;;1700;75;TURF;0;0
-96.198.632.928;54.576.153.397;111;6547;00MI;heliport;Dow Chemical Heliport;588;NA;US;US-MI;Ludington;no;00MI;;00MI;;;100;100;TURF;0;0
-106.533.089.012;58.285.553.343;112;6548;00MN;small_airport;Battle Lake Municipal Airport;1365;NA;US;US-MN;Battle Lake;no;00MN;;00MN;;;2949;200;TURF-G;1;0
-105.099.402.138;44.674.124.214;113;6549;00MO;small_airport;Cooper Flying Service Airport;970;NA;US;US-MO;Alba;no;00MO;;00MO;;;2400;25;TURF;0;0
-83.695.785.746;47.896.821.177;114;6551;00N;small_airport;Bucks Airport;105;NA;US;US-NJ;Bridgeton;no;00N;;00N;;;1900;150;TURF-G;1;0
-87.242.642.212;43.123.512.764;115;6552;00NC;small_airport;North Raleigh Airport;348;NA;US;US-NC;Louisburg;no;00NC;;00NC;;;2650;36;ASPH-G;0;0
-82.904.747.434;49.419.294.105;116;6553;00NJ;heliport;Colgate-Piscataway Heliport;78;NA;US;US-NJ;New Brunswick;no;00NJ;;00NJ;;;50;50;ASPH;0;0
-84.012.821.928;42.449.990.454;117;506039;00NR;heliport;Rodanthe Dare County Heliport;8;NA;US;US-NC;Rodanthe;no;00NR;;00NR;;;50;50;CON;1;0
-86.272.274.138;52.967.784.965;118;6554;00NY;small_airport;Weiss Airfield;1000;NA;US;US-NY;West Bloomfield;no;00NY;;00NY;;;2350;80;TURF;1;0
-93.665.981.741;50.998.307.713;119;6555;00OH;closed;Exit 3 Airport;785;NA;US;US-OH;Wauseon;no;;;;;;2695;90;TURF-G;0;0
-93.716.849.182;48.289.684.481;120;6556;00OI;heliport;Miami Valley Hospital Heliport;905;NA;US;US-OH;Dayton;no;00OI;;00OI;;;42;42;CONC;0;0
-107.109.045.901;43.279.826.723;121;328503;00OK;small_airport;Gull Bay Landing Airport;960;NA;US;US-OK;Sandsprings;no;00OK;;00OK;;;2200;60;Turf/Dirt;0;0
-84.321.066.117;48.585.190.983;122;6558;00PA;heliport;R J D Heliport;402;NA;US;US-PA;Coatesville;no;00PA;;00PA;;;80;80;TURF-G;0;0
-89.290.600.325;50.566.187.209;123;45773;00PN;small_airport;Ferrell Field;1301;NA;US;US-PA;Mercer;no;00PN;;00PN;;;500;75;TURF;0;0
-8.612.266.135;49.209.959.896;124;6559;00PS;closed;Thomas Field;815;NA;US;US-PA;Loysville;no;;;;;;3100;100;TURF-G;0;0
-13.590.551.353;54.935.675.446;125;6560;00S;small_airport;McKenzie Bridge State Airport;1620;NA;US;US-OR;Blue River;no;;;00S;;;2600;90;TURF-P;0;0
-8.935.303.459;40.300.642.076;126;6561;00SC;small_airport;Flying O Airport;150;NA;US;US-SC;Sumter;no;00SC;;00SC;;;2900;100;TURF;0;0
-107.422.080.762;55.915.271.889;127;330391;00SD;small_airport;Homan Field;1590;NA;US;US-SD;Gary;no;00SD;;00SD;;;2400;50;Turf;0;0
-108.320.322.186;38.723.503.085;128;6562;00TA;closed;SW Region FAA Heliport;598;NA;US;US-TX;Fort Worth;no;;;;;;85;85;CONC-G;0;0
-108.190.855.281;38.750.927.108;129;6563;00TE;heliport;Tcjc-Northeast Campus Heliport;600;NA;US;US-TX;Fort Worth;no;00TE;;00TE;;;48;48;TURF;0;0
-95.683.107.637;42.342.127.448;130;6564;00TN;small_airport;Ragsdale Road Airport;1100;NA;US;US-TN;Manchester;no;00TN;;00TN;;;1800;150;TURF;0;0
-108.249.295.636;38.433.346.584;131;6565;00TS;small_airport;Alpine Range Airport;670;NA;US;US-TX;Everman;no;00TS;;00TS;;;1200;45;TURF;0;0
-105.731.476.108;34.698.779.863;132;6566;00TX;closed;San Jacinto Methodist Hospital Heliport;19;NA;US;US-TX;Baytown;no;;;;;;50;50;CONC;0;0
-87.941.471.994;4.380.170.323;133;6568;00VA;small_airport;Vaughan Airport;551;NA;US;US-VA;Alton;no;00VA;;00VA;;;1300;100;TURF;0;0
-8.961.162.955;43.922.784.272;134;6569;00VI;small_airport;Groundhog Mountain Airport;2680;NA;US;US-VA;Hillsville;no;00VI;;00VI;;;1500;50;TURF;0;0
-130.735.761.793;58.888.429.127;135;6570;00W;small_airport;Lower Granite State Airport;719;NA;US;US-WA;Colfax;no;;;00W;;;3400;50;GRAVEL-F;0;0
-13.666.916.877;59.712.419.578;136;6571;00WA;small_airport;Howell Airport;150;NA;US;US-WA;Longbranch;no;00WA;;00WA;;;1105;70;TURF-G;0;0
-99.130.120.358;55.126.544.584;137;6572;00WI;small_airport;Northern Lite Airport;860;NA;US;US-WI;Waupaca;no;00WI;;00WI;;;1000;60;TURF;0;0
-130.520.990.371;58.205.028.056;138;6573;00WN;small_airport;Hawks Run Airport;2900;NA;US;US-WA;Asotin;no;00WN;;00WN;;;1440;50;TURF-G;0;0
-88.906.531.937;46.971.924.273;139;6574;00WV;small_airport;Lazy J. Aerodrome;2060;NA;US;US-WV;Beverly;no;00WV;;00WV;;;1800;100;TURF;0;0
-113.472.407.519;38.997.382.272;140;6575;00XS;closed;L P Askew Farms Airport;3110;NA;US;US-TX;O'Donnell;no;;;;;;1475;75;TURF-F;0;0
-169.506.193.386;90.864.347.664;141;6576;01A;small_airport;Purkeypile Airport;1950;NA;US;US-AK;Purkeypile;no;01A;;01A;;;1175;40;GRAVEL-F;0;0
-166.362.803.405;84.233.473.793;142;6577;01AK;heliport;Providence Seward Medical Center Heliport;120;NA;US;US-AK;Seward;no;01AK;;01AK;;;40;40;CONC;1;0
-96.306.833.788;38.881.384.448;143;6578;01AL;small_airport;Ware Island Airport;344;NA;US;US-AL;Clanton;no;01AL;;01AL;;;2500;160;TURF;1;0
-105.034.417.947;40.351.759.888;144;6579;01AR;heliport;DeQueen Medical Center Heliport;440;NA;US;US-AR;DeQueen;no;01AR;;01AR;;;55;55;CONC;1;0
-124.522.984.277;41.106.563.524;145;6580;01AZ;heliport;Yat Heliport;3300;NA;US;US-AZ;Camp Verde;no;01AZ;;01AZ;;;210;150;TURF;0;0
-95.484.294.927;53.641.277.738;146;6581;01C;closed;Grant Airport;815;NA;US;US-MI;Grant;no;;;;;;2517;120;TURF-G;1;0
-130.655.752.023;40.783.556.242;147;6582;01CA;heliport;SCE Lugo Substation Heliport;3733;NA;US;US-CA;Hesperia;no;01CA;;01CA;;;20;20;ASPH;0;0
-134.400.475.306;46.930.493.683;148;6583;01CL;small_airport;Swansboro Country Airport;2594;NA;US;US-CA;Placerville;no;01CL;;01CL;;;3100;50;ASPH-TRTD;1;0
-131.528.430.039;40.338.787.726;149;6584;01CN;closed;Los Angeles County Sheriff's Department Heliport;300;NA;US;US-CA;Los Angeles;no;;;;;;60;60;ASPH;0;0
-118.272.508.634;47.568.698.927;150;6585;01CO;heliport;St Vincent General Hospital Heliport;10175;NA;US;US-CO;Leadville;no;01CO;;01CO;;;125;40;ASPH;0;0
-80.959.883.686;51.053.132.979;151;6586;01CT;heliport;Berlin Fairgrounds Heliport;60;NA;US;US-CT;Berlin;no;01CT;;01CT;;;70;70;TURF-GRVL;0;0
-90.329.313.795;33.234.888.503;152;6587;01FA;small_airport;Rybolt Ranch Airport;55;NA;US;US-FL;Orlando;no;01FA;;01FA;;;2000;100;TURF;0;0
-9058033.57;33.332.846.838;153;6588;01FD;heliport;Advent Health Altamonte Springs Heliport;86;NA;US;US-FL;Altamonte Springs;no;01FD;;01FD;;;110;110;CONC;0;0
-94.598.304.838;38.263.921.439;154;6590;01GA;heliport;Medical Center Heliport;319;NA;US;US-GA;Columbus;no;01GA;;01GA;;;65;65;CONC;0;0
-9.214.031.695;38.522.586.958;155;6591;01GE;small_airport;The Farm Airport;375;NA;US;US-GA;Wrightsville;no;01GE;;01GE;;;2560;75;TURF;0;0
-101.012.755.871;51.103.480.531;156;6592;01IA;small_airport;Stender Airport;725;NA;US;US-IA;Maysville;no;01IA;;01IA;;;2575;50;TURF-F;1;0
-124.713.449.699;52.525.247.673;157;6530;01ID;small_airport;Lava Hot Springs Airport;5268;NA;US;US-ID;Lava Hot Springs;no;01ID;;01ID;;;2894;100;TURF-F;0;0
-97.582.109.168;49.328.101.663;158;6594;01IL;heliport;Hoopeston Community Memorial Hospital Heliport;583;NA;US;US-IL;Hoopeston;no;01IL;;01IL;;;416;216;TURF;0;0
-95.396.129.061;48.849.827.783;159;6595;01IN;heliport;Community Hospital Heliport;890;NA;US;US-IN;Anderson;no;01IN;;01IN;;;45;45;ASPH;0;0
-100.541.759.396;47.239.924.953;160;6596;01IS;small_airport;William E. Koenig Airport;670;NA;US;US-IL;Dow;no;01IS;;01IS;;;1300;100;TURF;0;0
-91.177.008.932;3.592.075.926;161;6597;01J;small_airport;Hilliard Airpark;59;NA;US;US-FL;Hilliard;no;01J;;01J;;;3365;125;TURF-P;1;0
-108.632.686.784;4.444.139.645;162;6598;01K;small_airport;Caldwell Municipal Airport;1157;NA;US;US-KS;Caldwell;no;01K;;01K;;;2460;110;TURF-G;1;0
-10.798.358.354;4.656.078.452;163;6599;01KS;small_airport;Flying N Ranch Airport;1485;NA;US;US-KS;Lost Springs;no;01KS;;01KS;;;2400;100;TURF;0;0
-98.681.273.634;44.463.156.352;164;6600;01KY;heliport;Lourdes Hospital Heliport;419;NA;US;US-KY;Paducah;no;01KY;;01KY;;;40;40;CONC;0;0
-10.216.201.207;38.474.846.912;165;6601;01LA;small_airport;Barham Airport;90;NA;US;US-LA;Oak Ridge;no;01LA;;01LA;;;2000;60;TURF;0;0
-99.590.755.369;45.972.125.617;166;6602;01LL;small_airport;Schumaier Restricted Landing Area;555;NA;US;US-IL;Pinckneyville;no;01LL;;01LL;;;1600;70;TURF;0;0
-101.386.866.738;3.596.759.834;167;6603;01LS;small_airport;Country Breeze Airport;125;NA;US;US-LA;Slaughter;no;01LS;;01LS;;;1800;150;TURF;0;0
-79.237.324.295;5.255.081.103;168;6604;01MA;heliport;Compaq Andover Heliport;140;NA;US;US-MA;Andover;no;01MA;;01MA;;;32;32;TURF;0;0
-85.110.430.994;47.215.568.369;169;6605;01MD;seaplane_base;Annapolis Seaplane Base;;NA;US;US-MD;Annapolis;no;01MD;;01MD;;;3500;100;WATER;0;0
-7.625.418.242;5.906.059.326;170;6606;01ME;seaplane_base;Saint Peter's Seaplane Base;608;NA;US;US-ME;Portage Lake;no;01ME;;01ME;;;5000;500;WATER;0;0
-93.151.819.009;53.195.092.149;171;6607;01MI;heliport;Flow Through Terminal Heliport;736;NA;US;US-MI;Flint;no;01MI;;01MI;;;50;50;CONC;0;0
-103.034.430.339;60.901.682.391;172;6608;01MN;seaplane_base;Barnes Seaplane Base;1358;NA;US;US-MN;Cook;no;01MN;;01MN;;;10000;600;WATER;0;0
-100.726.660.567;46.704.774.594;173;6609;01MO;heliport;Highway Patrol Troop C Headquarters Heliport;615;NA;US;US-MO;Town and Country;no;01MO;;01MO;;;37;37;CONC;0;0
-127.883.827.965;62.391.516.568;174;6610;01MT;small_airport;Crystal Lakes Resort Airport;3141;NA;US;US-MT;Fortine;no;01MT;;01MT;;;5000;70;ASPH-G;0;0
-12331432.4;37.891.645.267;175;356169;01MU;heliport;NWMC - Houghton Heliport;2873;NA;US;US-AZ;Tucson;no;01MU;;01MU;;;54;54;CON;0;0
-86.363.217.215;40.928.031.404;176;6611;01NC;small_airport;Topsail Airpark;65;NA;US;US-NC;Holly Ridge;no;01NC;;01NC;;;3200;75;TURF;1;0
-112.044.740.615;49.893.027.937;177;6612;01NE;closed;Detour Airport;3000;NA;US;US-NE;Wellfleet;no;;;;;;2750;50;TURF;0;0
-80.246.879.102;54.105.915.504;178;6613;01NH;small_airport;Moore Airfield;835;NA;US;US-NH;Canaan;no;01NH;;01NH;;;600;50;TURF;0;0
-82.527.960.183;49.740.605.688;179;6614;01NJ;heliport;Albert Guido Memorial Heliport;10;NA;US;US-NJ;Newark;no;01NJ;;01NJ;;;125;80;ASPH;0;0
-116.373.705.143;38.964.469.854;180;45537;01NM;small_airport;Champion Ranch Airport;3630;NA;US;US-NM;Lake Arthur;no;01NM;;01NM;;;2700;70;DIRT;0;0
-86.740.054.831;40.551.860.296;181;506122;01NR;heliport;McGee 01 Heliport;40;NA;US;US-NC;Wilmington;no;01NR;;01NR;;;50;50;Turf;0;0
-132.500.250.782;46.879.085.867;182;6615;01NV;small_airport;Lantana Ranch Airport;4600;NA;US;US-NV;Yerington;no;01NV;;01NV;;;2000;60;GRVL;0;0
-82.306.102.665;5.115.015.481;183;6616;01NY;heliport;Vassar Hospital Heliport;100;NA;US;US-NY;Poughkeepsie;no;01NY;;01NY;;;100;75;ASPH;0;0
-93.857.749.601;47.931.803.079;184;347920;01OH;heliport;Atrium Medical Center Heliport;775;NA;US;US-OH;Middletown;no;01OH;;01OH;;;100;100;CON;1;0
-92.174.789.257;49.726.371.488;185;6617;01OI;heliport;Avita Health System Galion Hospital Heliport;1140;NA;US;US-OH;Galion;no;01OI;;01OI;;;30;30;CONC-G;0;0
-109.801.645.084;42.039.746.149;186;6618;01OK;closed;Lawrence Airport;1525;NA;US;US-OK;Eakly;no;;;;;;2640;25;ASPH;1;0
-107.635.742.939;40.815.153.665;187;345166;01OL;small_airport;Spring Creek Ranch East Airport;1060;NA;US;US-OK;Tishomingo;no;01OL;;01OL;;;1600;75;Turf;0;0
-134.746.674.291;53.301.483.409;188;6619;01OR;closed;Red & White Flying Service Airport;4346;NA;US;US-OR;Silver Lake;no;;;;;;4800;60;GRVL-DIRT;0;0
-89.112.257.595;4.961.674.989;189;6620;01PA;closed;Pine Heliport;1215;NA;US;US-PA;Mars;no;;;;;;60;60;TURF;0;0
-86.538.546.772;50.021.104.466;190;6621;01PN;small_airport;Bierly(Personal Use) Airport;960;NA;US;US-PA;Bellefonte;no;01PN;;01PN;;;1700;100;TURF;0;0
-84.635.765.855;51.006.383.408;191;6622;01PS;small_airport;Nort's Resort Airport;1040;NA;US;US-PA;Meshoppen;no;01PS;;01PS;;;1200;120;TURF-G;0;0
-90.450.203.202;4.168.244.354;192;6623;01SC;small_airport;York Airport;779;NA;US;US-SC;York;no;01SC;;01SC;;;2580;118;TURF-F;1;0
-108.108.812.871;38.547.839.327;193;6624;01TA;heliport;Thirty Thirty Matlock Office Center Heliport;630;NA;US;US-TX;Arlington;no;01TA;;01TA;;;30;30;CONC;0;0
-107.343.160.145;38.605.261.123;194;6625;01TE;small_airport;Smith Field;505;NA;US;US-TX;Forney;no;01TE;;01TE;;;2433;55;TURF-F;0;0
-9.988.764.528;41.633.238.757;195;6626;01TN;small_airport;Colonial Air Park;370;NA;US;US-TN;Collierville;no;01TN;;01TN;;;2700;100;TURF;0;0
-107.843.426.147;38.143.652.711;196;6628;01TX;closed;Mims Farm Ultralightport;610;NA;US;US-TX;Waxahachie;no;;;;;;500;60;TURF;0;0
-128.724.278.707;47.001.773.467;197;6629;01U;small_airport;Duckwater Airport;5124;NA;US;US-NV;Duckwater;no;K01U;;01U;;;2700;75;DIRT-P;0;0
-121.779.074.293;4.623.070.281;198;6630;01UT;small_airport;La Sal Junction Airport;6000;NA;US;US-UT;La Sal;no;01UT;;01UT;;;3200;40;DIRT-P;0;0
-86.745.716.598;47.395.925.992;199;6631;01VA;small_airport;Pickles Airport;500;NA;US;US-VA;Berryville;no;01VA;;01VA;;;1500;60;TURF;0;0
-13782688.4;58.872.720.326;200;6632;01WA;heliport;Willapa Harbor Heliport;154;NA;US;US-WA;South Bend;no;01WA;;01WA;;;36;36;CONC;0;0
-100.620.795.283;54.669.895.771;201;6633;01WI;small_airport;Prehn Cranberry Company Airport;930;NA;US;US-WI;Tomah;no;01WI;;01WI;;;2300;120;TURF;0;0
-136.572.314.562;6.142.431.004;202;6634;01WN;heliport;Whidbey General Hospital Heliport;103;NA;US;US-WA;Coupeville;no;01WN;;01WN;;;40;40;ASPH;1;0
-136.044.560.479;60.270.678.942;203;45900;01WT;heliport;Odyssey Heliport;20;NA;US;US-WA;Renton;no;01WT;;01WT;;;28;28;CONC-G;0;0
-116.674.626.217;55.195.034.429;204;6635;01WY;small_airport;Keyhole Airport;4250;NA;US;US-WY;Pine Haven;no;01WY;;01WY;;;4360;75;DIRT-TURF-G;0;0
-10.892.983.202;3.504.478.198;205;46288;01XA;heliport;Ascension Seton Hays Heliport;715;NA;US;US-TX;Kyle;no;01XA;;01XA;;;50;50;CONC;1;0
-106.583.401.562;37.659.623.285;206;6636;01XS;heliport;Meadowood Ranch Heliport;500;NA;US;US-TX;Athens;no;01XS;;01XS;;;50;50;CONC;0;0
-167.087.912.956;88.300.141.948;207;6637;02AK;small_airport;Rustic Wilderness Airport;190;NA;US;US-AK;Willow;no;02AK;;02AK;;;2200;45;GRVL;0;0
-97.698.879.467;35.513.926.474;208;6638;02AL;small_airport;Bass Field;61;NA;US;US-AL;Foley;no;02AL;;02AL;;;2000;150;TURF;0;0
-102.908.657.611;41.397.782.311;209;43030;02AR;closed;Three Rivers Airport;264;NA;US;US-AR;Little Rock;no;;;;;;4400;45;ASPH-G;0;0
-122.381.304.141;3.812.821.155;210;6640;02AZ;closed;Winchester Farm Airstrip;4200;NA;US;US-AZ;Willcox;no;;;;;;4500;80;TURF;0;0
-131.500.598.833;39.728.788.618;211;6641;02CA;heliport;Swepi Beta Platform Ellen Heliport;122;NA;US;US-CA;Huntington Beach;no;02CA;;02CA;;;55;55;PSP;0;0
-100.770.858.156;40.462.175.139;212;6642;02CD;small_airport;Shannon Field;165;NA;US;US-MS;Clarksdale;no;02CD;;02CD;;;2500;100;CONC-TURF;0;0
-132.535.870.317;41.314.629.309;213;6643;02CL;small_airport;Conover Air Lodge Airport;5160;NA;US;US-CA;Frazier Park;no;02CL;;02CL;;;3000;60;DIRT;0;0
-11.805.097.714;45.291.577.674;214;6644;02CO;small_airport;Mc Cullough Airport;7615;NA;US;US-CO;Monte Vista;no;02CO;;02CO;;;2670;50;GRAVEL;0;0
-8.064.485.272;51.489.437.275;215;6645;02CT;heliport;Strangers Point Heliport;540;NA;US;US-CT;Ellington;no;02CT;;02CT;;;50;50;ASPH;0;0
-91.142.612.269;33.155.422.502;216;6646;02FA;small_airport;Osborn Airfield;121;NA;US;US-FL;Groveland;no;02FA;;02FA;;;2485;150;TURF;0;0
-96.442.258.672;3.626.384.079;217;341544;02FD;small_airport;Triple R Ranch Airport;209;NA;US;US-FL;Baker;no;02FD;;02FD;;;3443;150;Turf;0;0
-9.586.698.626;35.864.109.717;218;45347;02FL;closed;Cuchens Airport;215;NA;US;US-FL;Defuniak Springs;no;;;;;;1800;100;TURF-F;0;0
-92.872.738.925;40.560.386.147;219;6648;02GA;small_airport;Doug Bolton Field;884;NA;US;US-GA;Commerce;no;02GA;;02GA;;;1200;100;TURF;0;0
-94.537.410.007;40.523.649.721;220;6649;02GE;small_airport;Etowah Fields Airport;710;NA;US;US-GA;Euharlee;no;02GE;;02GE;;;3400;100;TURF;0;0
-175.826.786.867;24.346.644.325;221;6650;02HI;heliport;K3 Helipad Heliport;9;OC;US;US-HI;Honolulu;no;02HI;;02HI;;;100;100;CONC;0;0
-104.504.509.732;51.693.865.006;222;6651;02IA;heliport;Boone County Hospital Heliport;1160;NA;US;US-IA;Boone;no;02IA;;02IA;;;50;50;CONC;0;0
-128.356.939.199;55.518.134.144;223;6652;02ID;small_airport;Morgan Ranch Airport;5634;NA;US;US-ID;Cascade;no;02ID;;02ID;;;2000;100;TURF;0;0
-95.969.092.532;4.874.999.918;224;6653;02II;small_airport;King Ultralightport;925;NA;US;US-IN;Westfield;no;02II;;02II;;;1100;100;TURF;0;0
-95.223.585.209;48.963.457.225;225;6654;02IN;small_airport;Diamond P. Field;904;NA;US;US-IN;Muncie;no;02IN;;02IN;;;1020;150;TURF;0;0
-9.791.361.656;52.022.025.078;226;6655;02IS;heliport;Condell Medical Center Heliport;762;NA;US;US-IL;Libertyville;no;02IS;;02IS;;;40;40;MATS;0;0
-106.928.268.449;47.535.497.608;227;6656;02KS;small_airport;Jmj Landing Airport;1170;NA;US;US-KS;St Marys;no;02KS;;02KS;;;1650;100;TURF;0;0
-94.517.418.885;46.063.412.609;228;6657;02KY;heliport;Boone National Guard Heliport;760;NA;US;US-KY;Frankfort;no;02KY;;02KY;;;100;100;CONC;0;0
-104.261.767.172;38.332.810.717;229;6658;02LA;heliport;Louisiana State Police Troop G Heliport;168;NA;US;US-LA;Bossier City;no;02LA;;02LA;;;20;20;CONC;0;0
-102.323.761.315;35.226.267.266;230;6659;02LS;heliport;Windy Hill Heliport;25;NA;US;US-LA;Broussard;no;02LS;;02LS;;;24;24;CONC;0;0
-78.955.577.461;50.744.311.172;231;6660;02MA;heliport;Cuttyhunk Heliport;9;NA;US;US-MA;Cuttyhunk;no;02MA;;02MA;;;50;50;ASPH;0;0
-85.392.890.844;4.674.874.263;232;322099;02MD;small_airport;Garner Field;141;NA;US;US-MD;Brandywine;no;02MD;;02MD;;;2000;75;Turf;0;0
-78.959.677.358;53.941.409.267;233;6661;02ME;small_airport;Nadeau's Airfield;700;NA;US;US-ME;Acton;no;02ME;;02ME;;;2400;60;TURF;0;0
-94.786.874.987;53.359.148.247;234;6662;02MI;small_airport;Fairplains Airpark;850;NA;US;US-MI;Greenville;no;02MI;;02MI;;;2000;100;TURF;0;0
-107.080.417.867;62.218.380.058;235;6663;02MN;closed;Greenbush Municipal Airport;1070;NA;US;US-MN;Greenbush;no;;;;;;1897;192;TURF-P;0;0
-101.338.029.398;47.288.360.669;236;6664;02MO;small_airport;Troy Airpark;650;NA;US;US-MO;Troy;no;02MO;;02MO;;;2200;50;TURF-G;0;0
-101.129.450.435;40.416.595.824;237;6665;02MS;small_airport;Watts Field;153;NA;US;US-MS;Rochdale;no;02MS;;02MS;;;2150;60;TURF-F;0;0
-10.442.033.956;43.912.116.395;238;6667;02MU;closed;Timber Line Airpark;1550;NA;US;US-MO;Cassville;no;;;;;;1900;125;TURF;0;0
-8.972.133.551;42.375.745.503;239;45686;02NC;closed;Race City Heliport;809;NA;US;US-NC;Landis;no;;;;;;100;100;TURF;0;0
-79.280.740.527;55.676.995.793;240;6669;02NH;seaplane_base;Iroquois Landing Seaplane Base;1180;NA;US;US-NH;Dummer;no;02NH;;02NH;;;3000;300;WATER;0;0
-8613609.65;42.446.524.243;241;506036;02NR;heliport;McGee 02 Heliport;25;NA;US;US-NC;Greenville;no;02NR;;02NR;;;50;50;Turf;0;0
-132.388.606.876;50.566.262.779;242;6671;02NV;small_airport;Paiute Meadows Airport;4443;NA;US;US-NV;Winnemucca;no;02NV;;02NV;;;2200;50;TURF;0;0
-84.219.319.939;5.332.176.576;243;6672;02NY;heliport;Hansen Heliport;435;NA;US;US-NY;Durhamville;no;02NY;;02NY;;;25;25;TURF;0;0
-92.487.903.966;50.680.201.116;244;6673;02OH;small_airport;Zimmerman Airport;614;NA;US;US-OH;Fremont;no;02OH;;02OH;;;2750;50;TURF;0;0
-89.684.992.112;51.313.657.157;245;6674;02OI;small_airport;Murtha Airport;950;NA;US;US-OH;Conneaut;no;02OI;;02OI;;;1500;75;TURF;0;0
-135.048.355.557;57.294.553.694;246;6676;02OR;small_airport;Rowena Dell Airport;705;NA;US;US-OR;The Dalles;no;02OR;;02OR;;;2000;30;TURF;0;0
-86.335.614.423;49.247.662.542;247;6677;02P;heliport;Stottle Memorial Heliport;591;NA;US;US-PA;Honey Grove;no;26PA;;26PA;;;100;100;TURF-G;1;0
-88.799.554.466;49.298.409.114;248;6678;02PA;heliport;Lag III Heliport;1070;NA;US;US-PA;Monroeville;no;02PA;;02PA;;;60;50;TURF-GRVL;0;0
-83.996.344.634;48.760.613.991;249;6679;02PN;heliport;Peco Berwyn Heliport;390;NA;US;US-PA;Berwyn;no;02PN;;02PN;;;40;40;ASPH;0;0
-73.875.814.175;20.920.395.444;250;6680;02PR;small_airport;Cuylers Airport;15;NA;PR;PR-U-A;Vega Baja;no;02PR;;02PR;;;2000;50;TURF;0;0
-85.972.377.703;51.461.014.807;251;6681;02PS;small_airport;Hughes Ultralightport;1700;NA;US;US-PA;Tioga;no;02PS;;02PS;;;500;100;TURF;0;0
-90.420.227.103;38.635.190.651;252;6682;02SC;small_airport;Harpers Airport;111;NA;US;US-SC;Estill;no;02SC;;02SC;;;3600;150;TURF-G;0;0
-125.770.989.602;5.743.424.257;253;6683;02T;small_airport;Wise River Airport;5830;NA;US;US-MT;Wise River;no;02T;;02T;;;4050;60;DIRT-G;0;0
-106.728.466.826;33.403.326.904;254;6684;02TA;heliport;Matagorda Shore Facility Heliport;5;NA;US;US-TX;Matagorda;no;02TA;;02TA;;;32;32;CONC;0;0
-107.828.730.613;38.153.257.982;255;6685;02TE;heliport;Baylor Medical Center Heliport;560;NA;US;US-TX;Waxahachie;no;02TE;;02TE;;;40;40;CONC;1;0
-96.386.561.078;42.704.404.956;256;6686;02TN;small_airport;Ellis Field;840;NA;US;US-TN;Rockvale;no;02TN;;02TN;;;1600;120;TURF;0;0
-113.460.033.244;39.445.726.038;257;6688;02TX;closed;The Palms At Kitty Hawk Airport;3235;NA;US;US-TX;New Home;no;;;;;;4800;80;TURF;0;0
-126.727.242.665;50.669.722.239;258;6689;02UT;small_airport;Lucin Airport;4412;NA;US;US-UT;Lucin;no;02UT;;02UT;;;4000;30;DIRT;0;0
-86.670.239.279;4.641.159.699;259;6690;02VA;small_airport;The Greenhouse Airport;320;NA;US;US-VA;Culpeper;no;02VA;;02VA;;;3000;80;TURF;0;0
-135.914.421.059;5.966.969.129;260;6692;02WA;small_airport;Cawleys South Prairie Airport;690;NA;US;US-WA;South Prairie;no;02WA;;02WA;;;2650;50;TURF;0;0
-103.143.964.601;56.265.446.507;261;6693;02WI;small_airport;Beer Airport;920;NA;US;US-WI;Hudson;no;02WI;;02WI;;;2200;60;TURF;0;0
-132.825.303.491;62.318.385.305;262;6694;02WN;small_airport;Fowler Field;2150;NA;US;US-WA;Tonasket;no;02WN;;02WN;;;1500;30;DIRT;0;0
-106.736.315.963;39.740.572.765;263;330393;02XA;small_airport;JLS Farms Airport;675;NA;US;US-TX;Honey Grove;no;02XA;;02XA;;;1950;50;Turf;0;0
-108.728.648.757;35.165.314.778;264;6695;02XS;closed;Seidel Ranch Airport;510;NA;US;US-TX;Austin;no;;;;;;1500;40;TURF;0;0
-168.240.243.324;8.563.456.632;265;6696;03AK;seaplane_base;Joe Clouds Seaplane Base;150;NA;US;US-AK;Kenai;no;03AK;;03AK;;;1000;70;DIRT;0;0
-95.786.830.661;41.181.243.807;266;6697;03AL;heliport;Highland Medical Center Heliport;628;NA;US;US-AL;Scottsboro;no;03AL;;03AL;;;50;50;CONC;1;0
-103.291.683.405;40.769.207.954;267;6698;03AR;heliport;Hscmh Heliport;350;NA;US;US-AR;Malvern;no;03AR;;03AR;;;117;117;CONC;1;0
-122.549.497.872;3.688.846.325;268;6699;03AZ;small_airport;Thompson International Aviation Airport;4275;NA;US;US-AZ;Hereford;no;03AZ;;03AZ;;;3600;60;DIRT;1;0
-130.251.543.159;38.660.705.981;269;6700;03CA;heliport;Grossmont Hospital Heliport;634;NA;US;US-CA;La Mesa;no;03CA;;03CA;;;40;40;CONC;1;0
-116.601.356.842;4.896.740.394;270;6701;03CO;small_airport;Kugel-Strong Airport;4950;NA;US;US-CO;Platteville;no;03CO;;03CO;;;4000;30;ASPH-G;0;0
-9.062.307.828;31.676.565.941;271;6702;03FA;small_airport;Lake Persimmon Airstrip;70;NA;US;US-FL;Lake Placid;no;03FA;;03FA;;;2000;200;TURF;0;0
-95.435.315.992;36.105.354.664;272;6703;03FD;closed;Tharpe Airport;115;NA;US;US-FL;Bonifay;no;;;;;;2000;50;TURF-G;0;0
-8.926.327.139;30.840.115.112;273;6704;03FL;heliport;Ranger Heliport;20;NA;US;US-FL;West Palm Beach;no;03FL;;03FL;;;50;40;CONC;0;0
-91.120.669.376;3.837.260.661;274;322717;03GA;small_airport;HIA Airport;238;NA;US;US-GA;Statesboro;no;03GA;;03GA;;;1990;65;Turf;0;0
-92.415.441.959;48.143.721.593;275;6705;03I;closed;Clarks Dream Strip;680;NA;US;US-OH;Circleville;no;;;;;;2375;90;TURF-G;0;0
-102.927.452.794;50.985.546.927;276;6706;03IA;closed;East Field;954;NA;US;US-IA;Montezuma;no;;;;;;2000;150;GRS;0;0
-129.722.320.281;55.891.436.029;277;6707;03ID;small_airport;Flying Y Ranch Airport;3180;NA;US;US-ID;Council;no;03ID;;03ID;;;1800;100;TURF;0;0
-97.715.024.668;45.740.593.314;278;6708;03II;small_airport;Davis Field Ultralightport;465;NA;US;US-IN;Mount Vernon;no;03II;;03II;;;1000;200;TURF;0;0
-97.757.107.497;5.071.863.412;279;6709;03IL;small_airport;Wix Airport;750;NA;US;US-IL;Monee;no;03IL;;03IL;;;2600;105;TURF;0;0
-100.380.570.824;47.080.726.158;280;6711;03IS;heliport;OSF St Anthony's Health Center Heliport;580;NA;US;US-IL;Alton;no;03IS;;03IS;;;40;40;CONC;0;0
-10.604.751.005;48.463.003.336;281;6712;03KS;heliport;Valley Grain Heliport;1160;NA;US;US-KS;Highland;no;03KS;;03KS;;;25;25;GRAVEL;0;0
-97.447.512.636;4.550.659.377;282;6713;03KY;small_airport;Flying H Farms Airport;385;NA;US;US-KY;Henderson;no;03KY;;03KY;;;2300;80;TURF;0;0
-101.443.113.327;35.292.324.791;283;6714;03LA;heliport;Damien Heliport;25;NA;US;US-LA;Carville;no;03LA;;03LA;;;60;60;TURF;0;0
-10.208.887.882;37.842.000.439;284;6715;03LS;heliport;Fmc Nr 1 Heliport;79;NA;US;US-LA;Winnsboro;no;03LS;;03LS;;;40;40;CONC;1;0
-77.800.639.391;55.152.372.346;285;6716;03M;seaplane_base;Lakeside Marina Seaplane Base;165;NA;US;US-ME;East Winthrop;no;03M;;03M;;;3800;200;WATER;0;0
-80.764.019.362;5.220.096.909;286;6717;03MA;small_airport;Hadley Airport;150;NA;US;US-MA;Hadley;no;03MA;;03MA;;;1600;60;TURF;0;0
-84.988.002.931;47.962.062.083;287;6718;03MD;heliport;Upper Chesapeake Medical Center Heliport;302;NA;US;US-MD;Bel Air;no;03MD;;03MD;;;50;50;CONC;1;0
-78.621.511.009;54.784.894.901;288;6719;03ME;small_airport;Maple Ridge Airport;556;NA;US;US-ME;Harrison;no;03ME;;03ME;;;2400;90;TURF;0;0
-93.354.971.644;53.962.038.548;289;6720;03MI;heliport;Harold Miller Heliport;585;NA;US;US-MI;Bay City;no;03MI;;03MI;;;20;20;TURF;0;0
-106.003.652.182;54.076.227.883;290;6721;03MN;small_airport;Nauerth Land Ranch Airport;1435;NA;US;US-MN;Lakefield;no;03MN;;03MN;;;1940;75;TURF;0;0
-103.673.621.774;45.631.222.197;291;6722;03MO;closed;Cahoochie Airport;1010;NA;US;US-MO;Urbana;no;;;;;;2200;50;TURF;0;0
-101.170.717.237;38.052.314.632;292;6723;03MS;heliport;Vicksburg Medical Center Heliport;110;NA;US;US-MS;Vicksburg;no;03MS;;03MS;;;60;60;CONC;0;0
-105.099.512.019;46.492.350.798;293;6725;03MU;small_airport;McDonnell Airport;874;NA;US;US-MO;Archie;no;03MU;;03MU;;;2400;24;ASPH;1;0
189.078.387.068;12.572.918.215;294;4650;03N;small_airport;Utirik Airport;4;OC;MH;MH-UTI;Utirik Island;yes;K03N;UTK;03N;;;2400;50;GRVL;0;0
-86.722.556.178;40.428.157.761;295;6726;03NC;small_airport;Pilots Ridge Airport;35;NA;US;US-NC;Carolina Beach;no;03NC;;03NC;;;2750;40;ASPH-G;0;0
-108.902.747.298;62.117.054.155;296;6727;03ND;small_airport;Olafson Brothers Airport;1045;NA;US;US-ND;Edinburg;no;03ND;;03ND;;;2600;50;TURF;0;0
-110.574.985.645;5.093.272.417;297;6728;03NE;small_airport;Hyde Ranch Airport;2430;NA;US;US-NE;Comstock;no;03NE;;03NE;;;2200;200;TURF;0;0
-7.917.531.688;52.839.157.954;298;6729;03NH;heliport;Lorden Heliport;400;NA;US;US-NH;Milford;no;03NH;;03NH;;;12;80;ASPH;0;0
-128.349.142.622;49.512.327.076;299;6731;03NV;small_airport;Llama Ranch Airport;6120;NA;US;US-NV;Ruby Valley;no;03NV;;03NV;;;3200;30;TURF-P;0;0
-80.948.557.022;50.061.940.469;300;6732;03NY;small_airport;Talmage Field;95;NA;US;US-NY;Riverhead;no;03NY;;03NY;;;2000;75;TURF;0;0
-9.241.559.224;5.074.035.064;301;6733;03OH;small_airport;Gibbs Field;580;NA;US;US-OH;Fremont;no;03OH;;03OH;;;2100;60;TURF;0;0
-90.836.205.776;50.745.366.649;302;6734;03OI;heliport;Cleveland Clinic, Marymount Hospital Heliport;890;NA;US;US-OH;Garfield Heights;no;03OI;;03OI;;;60;60;CONC;0;0
-107.046.511.063;43.063.000.329;303;6735;03OK;small_airport;Sahoma Lake Airport;890;NA;US;US-OK;Sapulpa;no;03OK;;03OK;;;1200;50;TURF;0;0
-108.762.187.093;41.655.574.117;304;348548;03OL;small_airport;Bluebird Airport;1232;NA;US;US-OK;Alex;no;03OL;;03OL;;;1900;30;Turf;0;0
-130.782.591.855;57.572.071.847;305;6736;03OR;small_airport;Powwatka Ridge Airport;3340;NA;US;US-OR;Troy;no;03OR;;03OR;;;2950;60;CONC;0;0
-84.008.031.007;48.896.426.345;306;6737;03PA;heliport;Collegeville Heliport;197;NA;US;US-PA;Collegeville;no;03PA;;03PA;;;130;80;ASPH;0;0
-84.804.085.321;50.222.086.538;307;6738;03PN;heliport;M.P. Metals Heliport;479;NA;US;US-PA;Berwick;yes;03PN;;03PN;;;100;100;TURF;0;0
-105.666.356.432;47.311.223.216;308;322892;03PR;small_airport;Sun View Field Airport;980;NA;US;US-KS;Bonner Springs;no;03PR;;03PR;;;2926;65;Turf;0;0
-86.724.119.446;49.902.415.163;309;6739;03PS;closed;Ziggy's Field;1050;NA;US;US-PA;Bellefonte;no;;;;;;675;90;TURF-G;0;0
-136.064.696.257;56.849.997.564;310;6740;03S;small_airport;Sandy River Airport;704;NA;US;US-OR;Sandy;no;03S;;03S;;;2115;100;TURF-G;0;0
-87.566.030.292;4.010.689.422;311;6741;03SC;heliport;Seacoast Medical Center Heliport;73;NA;US;US-SC;Little River;no;03SC;;03SC;;;40;40;CONC;1;0
-109.838.512.986;31.849.271.913;312;6743;03TE;small_airport;Barronena Ranch Airport;600;NA;US;US-TX;Hebbronville;no;03TE;;03TE;;;3500;100;TURF;0;0
-93.040.161.496;42.899.628.087;313;6744;03TN;heliport;Eagles Landing Heliport;1000;NA;US;US-TN;Sevierville;no;03TN;;03TN;;;20;20;TURF;0;0
-111.802.583.987;3.693.391.043;314;6745;03TS;heliport;Shannon Medical Center Heliport;1825;NA;US;US-TX;San Angelo;no;03TS;;03TS;;;90;90;ASPH;0;0
-106.791.549.355;34.563.490.235;315;341551;03TT;small_airport;Brazos Polo Airport;117;NA;US;US-TX;Orchard;no;03TT;;03TT;;;3000;50;Turf;0;0
-106.093.129.756;34.497.951.141;316;6746;03TX;heliport;M D K Field Heliport;50;NA;US;US-TX;Pearland;no;03TX;;03TX;;;150;150;TURF;0;0
-122.440.463.771;4.455.062.457;317;6747;03UT;small_airport;AZ Minerals Corporation Airport;5315;NA;US;US-UT;Mexican Hat;no;03UT;;03UT;;;5000;35;GRAVEL;0;0
-130.657.914.568;60.089.589.835;318;6749;03WA;small_airport;Spangle Field;2440;NA;US;US-WA;Spangle;no;03WA;;03WA;;;2800;60;GRAVEL;0;0
-98.945.154.971;54.699.114.343;319;6750;03WI;closed;Zink Airport;880;NA;US;US-WI;Berlin;no;;;;;;1500;60;TURF;0;0
-134.329.227.502;57.603.404.599;320;6751;03WN;small_airport;Aerostone Ranch Airport;2320;NA;US;US-WA;Goldendale;no;03WN;;03WN;;;2000;70;GRVL;0;0
-118.384.821.988;37.315.075.661;321;345757;03XA;heliport;Del Sol Medical Center Heliport;3881;NA;US;US-TX;El Paso;no;03XA;;03XA;;;54;54;CON;0;0
-112.158.837.308;36.741.297.528;322;6752;03XS;small_airport;Creekside Airport;2100;NA;US;US-TX;Mertzon;no;03XS;;03XS;;;3200;50;TURF-DIRT;0;0
-167.882.468.067;85.200.137.428;323;325443;04AA;small_airport;Flying W Ranch Airport;250;NA;US;US-AK;Soldotna;no;04AA;;04AA;;;1300;100;Turf;0;0
-95.698.250.658;39.787.463.145;324;6753;04AL;heliport;Anniston AHP (Anniston Army Depot);686;NA;US;US-AL;Anniston;no;04AL;;04AL;;;100;100;ASPH;0;0
-103.066.316.066;41.061.822.177;325;6754;04AR;heliport;Saline Memorial Hospital Heliport;430;NA;US;US-AR;Benton;no;04AR;;04AR;;;40;40;ASPH;1;0
-129.621.530.381;39.061.532.161;326;6757;04CL;small_airport;Hunt's Sky Ranch Airport;2310;NA;US;US-CA;Julian;no;04CL;;04CL;;;1900;100;GRVL-DIRT;0;0
-81.321.558.225;5124364.95;327;6758;04CT;heliport;Shingle Mill Heliport;880;NA;US;US-CT;Harwinton;no;04CT;;04CT;;;50;100;TURF;0;0
-109.677.890.092;37.762.867.925;328;6759;04F;closed;De Leon Municipal Airport;1293;NA;US;US-TX;De Leon;no;;;;;;2400;20;ASP;0;1
-89.628.997.742;29.445.259.857;329;6760;04FA;small_airport;Richards Field;9;NA;US;US-FL;Homestead;no;04FA;;04FA;;;2620;212;TURF;0;0
-90.416.501.239;34.062.732.986;330;6761;04FL;small_airport;Cross Creek Farms Airport;30;NA;US;US-FL;Ormond Beach;no;04FL;;04FL;;;3000;100;TURF;0;0
-92.605.345.214;48.530.466.983;331;6762;04I;small_airport;Columbus Southwest Airport;920;NA;US;US-OH;Columbus;no;04I;;04I;;;2382;120;TURF-G;1;0
-102.474.715.954;50.253.744.533;332;6763;04IA;small_airport;Middlekoop Airport;801;NA;US;US-IA;Packwood;no;04IA;;04IA;;;2310;84;TURF-G;0;0
-129.729.914.497;54.464.296.549;333;6764;04ID;small_airport;Lanham Field;2343;NA;US;US-ID;Emmett;no;04ID;;04ID;;;3000;25;DIRT-F;0;0
-94.615.001.551;50.316.242.608;334;6765;04II;closed;Turkey Run Airport;765;NA;US;US-IN;New Haven;no;;;;;;1372;72;TURF;0;0
-99.082.143.383;49.590.192.514;335;6766;04IL;small_airport;Schertz Aerial Service - Hudson Airport;755;NA;US;US-IL;Hudson;no;04IL;;04IL;;;1700;70;TURF;0;0
-94.747.420.538;51.163.533.888;336;45410;04IN;seaplane_base;Lake Gage Seaplane Base;954;NA;US;US-IN;Angola;no;04IN;;04IN;;;4000;1000;WATER;0;0
-98.594.560.072;48.919.300.338;337;6767;04IS;small_airport;Van Gorder Airport;728;NA;US;US-IL;Mansfield;no;04IS;;04IS;;;2200;150;TURF;0;0
-105.998.089.628;47.186.497.723;338;6768;04KS;closed;Robinson Industries Heliport;835;NA;US;US-KS;Lawrence;no;;;;;;400;60;TURF-GRVL;0;0
-95.500.321.223;44.579.549.363;339;6769;04KY;small_airport;Natchez Trace Farm Airport;710;NA;US;US-KY;Hiseville;no;04KY;;04KY;;;1700;30;ASPH;0;0
-100.971.061.724;35.101.072.325;340;6770;04LA;heliport;Saint James Parish Hospital Heliport;10;NA;US;US-LA;Lutcher;no;04LA;;04LA;;;40;40;CONC;1;0
-98.281.304.144;51.813.885.319;341;6771;04LL;small_airport;Brunner Airport;750;NA;US;US-IL;West Dundee;no;04LL;;04LL;;;3700;70;TURF;0;0
-101.417.957.051;35.610.217.214;342;6772;04LS;heliport;La National Guard Heliport;52;NA;US;US-LA;Baton Rouge;no;04LS;;04LS;;;60;60;CONC-G;0;0
-79.193.753.304;52.832.342.625;343;6773;04MA;small_airport;Goddard Field;200;NA;US;US-MA;Haverhill;no;04MA;;04MA;;;2100;300;TURF;0;0
-84.404.000.292;47.961.591.274;344;6774;04MD;heliport;Chesapeake City Heliport;40;NA;US;US-MD;Chesapeake City;no;04MD;;04MD;;;50;50;ASPH;1;0
-7.780.553.136;55.692.017.153;345;6775;04ME;small_airport;Beech Hill Airport;625;NA;US;US-ME;Mercer;no;04ME;;04ME;;;1950;120;TURF;0;0
-94.207.796.554;5.241.384.301;346;6776;04MI;small_airport;Rapids Airway Airport;880;NA;US;US-MI;Eaton Rapids;no;04MI;;04MI;;;2000;100;TURF-G;0;0
-105.404.971.898;61.044.930.681;347;6777;04MN;small_airport;Helblad Airport;1195;NA;US;US-MN;Kelliher;no;04MN;;04MN;;;2500;150;TURF;0;0
-101.803.344.123;47.649.083.255;348;6778;04MO;closed;Airpark Private Airport;767;NA;US;US-MO;Vandalia;no;;;;;;2600;150;TURF;0;0
-118.542.005.109;59.645.461.589;349;6780;04MT;small_airport;Pluhar Airport;2715;NA;US;US-MT;Cohagen;no;04MT;;04MT;;;2100;100;TURF;0;0
-87.699.947.966;42.647.948.601;350;6781;04NC;heliport;Western Wake Medical Center Heliport;445;NA;US;US-NC;Cary;no;04NC;;04NC;;;91;35;ASPH;0;0
-112.765.534.987;50.359.703.264;351;6782;04NE;small_airport;Mc Connell Field Airport;3035;NA;US;US-NE;Sarben;no;04NE;;04NE;;;2500;100;TURF;0;0
-83.749.546.457;48.075.224.395;352;6783;04NJ;small_airport;Emmanuel Airport;155;NA;US;US-NJ;Elmer;no;04NJ;;04NJ;;;3500;50;TURF;1;0
-86.152.651.934;41.334.373.632;353;347887;04NR;heliport;McGee 04 Heliport;40;NA;US;US-NC;Jacksonville;no;04NR;;04NR;;;78;36;CON;0;0
-82.038.231.802;52.003.518.404;354;6785;04NY;small_airport;Klaverack Airport;250;NA;US;US-NY;Hudson;no;04NY;;04NY;;;5200;50;TURF;0;0
-137.018.214.179;57.054.810.186;355;45733;04OG;heliport;Teufel Heliport;185;NA;US;US-OR;Forest Grove;no;04OG;;04OG;;;50;100;CONC;0;0
-90.280.887.383;50.489.462.962;356;6786;04OH;closed;Bossow Airport;1080;NA;US;US-OH;Garrettsville;no;;;;;;2200;70;TURF;0;0
-108.068.403.162;43.164.979.874;357;6787;04OK;heliport;Stillwater Medical Center Heliport;984;NA;US;US-OK;Stillwater;no;04OK;;04OK;;;45;45;CONC;0;0
-83.744.314.767;48.484.178.342;358;6789;04PA;heliport;S & C Distribution Center Heliport;50;NA;US;US-PA;Philadelphia;no;04PA;;04PA;;;100;100;CONC;0;0
-84.191.164.658;48.703.989.842;359;6790;04PN;heliport;Strawbridge & Clothier Exton Heliport;320;NA;US;US-PA;Exton;no;04PN;;04PN;;;70;70;CONC;0;0
-91.957.847.607;41.424.557.505;360;6791;04SC;heliport;Emergency Helipad;994;NA;US;US-SC;Easley;no;04SC;;04SC;;;50;50;CONC;0;0
-112.703.204.309;56.204.390.657;361;325773;04SD;heliport;Cheyenne River Health Center Heliport;2437;NA;US;US-SD;Eagle Butte;no;04SD;;04SD;;;46;46;CON;0;0
-108.809.542.404;35.383.370.229;362;6792;04TA;closed;Capitol National Bank Building Heliport;540;NA;US;US-TX;Austin;no;;;;;;60;40;CONC;0;0
-106.188.430.372;34.650.055.223;363;6793;04TE;heliport;Veterans Affairs Medical Center Heliport;49;NA;US;US-TX;Houston;no;04TE;;04TE;;;30;30;TURF;0;0
-92.037.732.335;43.258.725.726;364;6794;04TN;small_airport;Hensley Airpark;1430;NA;US;US-TN;Chuckey;no;04TN;;04TN;;;3000;50;ASPH;0;0
-108.653.787.513;35.748.694.507;365;6795;04TS;heliport;Hummingbird Heliport;690;NA;US;US-TX;Round Rock;no;04TS;;04TS;;;20;20;TURF;0;0
-110.813.701.781;34.667.209.862;366;342438;04TT;small_airport;4D Ranch Airport;1550;NA;US;US-TX;Utopia;no;04TT;;04TT;;;4645;55;ASP;0;0
-108.391.037.892;37.282.846.053;367;6796;04TX;small_airport;Pocock Airport;565;NA;US;US-TX;China Spring;no;04TX;;04TX;;;2000;50;TURF;0;0
-123.336.096.979;44.400.391.886;368;6797;04UT;small_airport;Navajo Mountain Airport;6160;NA;US;US-UT;Navajo Mountain;no;04UT;;04UT;;;3700;50;DIRT;0;0
-118.192.789.076;45.934.324.313;369;6798;04V;small_airport;Saguache Municipal Airport;7826;NA;US;US-CO;Saguache;no;04V;;04V;;;7745;55;GRVL-G;0;0
-91.368.811.653;4.424.898.823;370;6799;04VA;heliport;Russell County Medical Center Heliport;2004;NA;US;US-VA;Lebanon;yes;04VA;;04VA;;;50;50;CONC;1;0
-85.940.451.381;45.380.531.461;371;6800;04VG;small_airport;Manquin Flight Park Ultralightport;50;NA;US;US-VA;Manquin;no;04VG;;04VG;;;3500;80;TURF-F;0;0
-80.443.475.122;5.527.724.629;372;6801;04VT;small_airport;Lightning Bolt Field Airport;2156;NA;US;US-VT;Cabot;no;04VT;;04VT;;;1300;40;TURF;0;0
-103.410.687.364;57.840.036.893;373;6802;04W;small_airport;Field of Dreams Airport;1021;NA;US;US-MN;Hinckley;no;K04W;;04W;;;2751;75;ASPH-G;1;0
-130.730.416.231;60.375.602.975;374;6803;04WA;small_airport;Ox Meadows Airport;2345;NA;US;US-WA;Spokane;no;04WA;;04WA;;;1800;60;TURF;0;0
-97.979.743.082;52.397.074.496;375;6804;04WI;small_airport;Dutch Gap Airstrip;760;NA;US;US-WI;Bristol;no;04WI;;04WI;;;1800;100;TURF;0;0
-13.318.112.484;59.352.783.801;376;45903;04WN;small_airport;Stillwater Creek Airport;1510;NA;US;US-WA;Royal City;no;04WN;;04WN;;;4100;60;ASPH;0;0
-89.006.735.747;48.157.329.304;377;6805;04WV;heliport;West Virginia Univ. Hosp. Inc. Gnd. Pad #2 Heliport;1137;NA;US;US-WV;Morgantown;no;04WV;;04WV;;;40;40;CONC;0;0
-10.813.853.857;38.399.651.936;378;6806;04XS;closed;Schmidts Heliport;625;NA;US;US-TX;Mansfield;no;;;;;;80;60;ASPH;0;0
-166.075.325.821;87.809.160.424;379;6807;05AK;small_airport;Wasilla Creek Airpark;620;NA;US;US-AK;Palmer;yes;05AK;;05AK;;;2000;75;TURF-GRVL;0;0
-95.344.805.843;36.628.113.094;380;6808;05AL;heliport;Allen Stagefield Army Heliport;365;NA;US;US-AL;Fort Rucker/Wicksburg;no;05AL;;05AL;;;1600;50;ASPH;0;0
-104.161.925.834;43.007.084.722;381;45302;05AR;small_airport;Ozark Skies Airpark;1900;NA;US;US-AR;Kingston;no;05AR;;05AR;;;2000;100;TURF;0;0
-127.610.370.241;38.533.624.926;382;6809;05AZ;heliport;Yuma Regional Medical Center Heliport;200;NA;US;US-AZ;Yuma;no;05AZ;;05AZ;;;40;40;CONC;0;0
-75.621.555.372;59.680.494.385;383;6810;05B;seaplane_base;Van Buren Seaplane Base;440;NA;US;US-ME;Van Buren;no;;;05B;;;4000;200;WATER;0;0
-132.152.582.839;40.471.475.526;384;6811;05CA;heliport;Lost Hills Sheriff's Station Heliport;888;NA;US;US-CA;Calabasas;no;05CA;;05CA;;;78;78;CONC-G;0;0
-116.868.125.096;48.972.325.258;385;6813;05CO;small_airport;Rancho de Aereo Airport;4978;NA;US;US-CO;Mead;no;05CO;;05CO;;;2650;60;TURF;0;0
-8.139.258.521;51.271.409.549;386;6814;05CT;heliport;O And G Heliport;600;NA;US;US-CT;Torrington;no;05CT;;05CT;;;50;50;ASPH;0;0
-95.977.772.381;36.222.211.772;387;6815;05FA;small_airport;Melanie's Airport;295;NA;US;US-FL;Florala;no;05FA;;05FA;;;2950;100;TURF;0;0
-89.210.547.477;29.942.389.663;388;6816;05FD;heliport;Aventura Heliport;6;NA;US;US-FL;North Miami Beach;no;05FD;;05FD;;;95;95;TURF;0;0
-90.625.542.545;30.636.514.181;389;6817;05FL;small_airport;Charlton Strip;36;NA;US;US-FL;La Belle;no;05FL;;05FL;;;3200;60;TURF;0;0
-94.303.640.095;37.726.865.992;390;6818;05GA;small_airport;Raju Airport;625;NA;US;US-GA;Richland;no;05GA;;05GA;;;2200;60;ASPH;0;0
-103.603.155.802;53.329.243.387;391;6819;05IA;small_airport;Spotts Field;1155;NA;US;US-IA;Nora Springs;no;05IA;;05IA;;;2450;65;TURF-P;0;0
-127.834.849.334;57.665.945.144;392;6820;05ID;small_airport;Running Creek Ranch Airport;2969;NA;US;US-ID;Elk City;no;05ID;;05ID;;;2000;70;TURF-GRVL;0;0
-94.618.450.229;50.165.761.245;393;6821;05II;closed;Reichhart Airport;795;NA;US;US-IN;New Haven;no;;;;;;1800;100;TURF;0;0
-97.979.743.082;50.354.824.455;394;6822;05IL;small_airport;Classic Landings Airport;635;NA;US;US-IL;Bonfield;no;05IL;;05IL;;;3200;70;TURF;0;0
-9.629.603.918;48.140.540.149;395;6823;05IN;small_airport;Cooper Airport;860;NA;US;US-IN;Belleville;no;05IN;;05IN;;;2000;100;TURF;0;0
-99.368.230.194;4.826.190.214;396;6824;05IS;small_airport;Hardy Airport;605;NA;US;US-IL;Mount Auburn;no;05IS;;05IS;;;2000;100;TURF;0;0
-106.821.290.581;44.762.770.161;397;6825;05KS;small_airport;Darbro Field;945;NA;US;US-KS;Elk City;no;05KS;;05KS;;;2350;50;TURF;0;0
-94.543.765.982;46.058.893.143;398;346026;05KT;small_airport;High Point Farm Airport;880;NA;US;US-KY;Frankfort;no;05KT;;05KT;;;600;50;Turf;0;0
-93.961.779.892;45.140.488.611;399;6826;05KY;small_airport;Cartersville Airport;1070;NA;US;US-KY;Paint Lick;no;05KY;;05KY;;;1270;150;TURF;0;0
-102.077.524.029;37.981.861.091;400;6827;05LA;small_airport;Greg's Flying Service Airport;76;NA;US;US-LA;Winnsboro;no;05LA;;05LA;;;2200;70;TURF;0;0
-97.889.665.861;5123488.72;401;6828;05LL;heliport;Midwest Heliport;710;NA;US;US-IL;Willowbrook;no;05LL;;05LL;;;120;120;ASPH;0;0
-102.943.467.216;36.655.388.385;402;6829;05LS;small_airport;Grass Roots Airport;83;NA;US;US-LA;Alexandria;no;05LS;;05LS;;;2300;100;TURF;0;0
-78.939.211.392;52.650.868.706;403;6831;05MA;heliport;Bentley Heliport;80;NA;US;US-MA;Ipswich;no;05MA;;05MA;;;100;40;ASPH;0;0
-84.823.961.416;47.567.163.363;404;6832;05MD;small_airport;Breezecroft Airport;20;NA;US;US-MD;Chestertown;no;05MD;;05MD;;;2700;80;TURF;0;0
-75.206.553.497;55.676.840.577;405;6833;05ME;small_airport;Drisko Airport;70;NA;US;US-ME;Jonesboro;no;05ME;;05ME;;;900;40;TURF;0;0
-9.983.142.955;4.359.923.218;406;6834;05MO;closed;Portageville Community Heliport;272;NA;US;US-MO;Portageville;no;;;;;;30;30;CONC-G;0;0
-100.368.691.921;38.066.710.629;407;6835;05MS;heliport;VA Medical Center Jackson Heliport;359;NA;US;US-MS;Jackson;no;05MS;;05MS;;;40;40;CONC;1;0
-87.153.253.856;40.298.895.758;408;6836;05NC;closed;Brunswick Community Hospital Heliport;63;NA;US;US-NC;Supply;no;;;;;;40;40;CONC;1;0
-109.437.076.098;51.194.565.336;409;6837;05NE;small_airport;Mc Kay Airport;2010;NA;US;US-NE;Spalding;no;05NE;;05NE;;;3210;80;TURF;0;0
-78.982.738.033;53.003.959.067;410;6838;05NH;heliport;Stumpfield Heliport;200;NA;US;US-NH;Kensington;no;05NH;;05NH;;;100;100;TURF;0;0
-82.411.490.797;49.702.479.179;411;6839;05NJ;heliport;Paulus Hook Pier Heliport;7;NA;US;US-NJ;Jersey City;no;05NJ;;05NJ;;;60;60;CONC;1;0
-8.470.322.578;53.963.726.001;412;6840;05NY;heliport;Oswego County At Pulaski Heliport;445;NA;US;US-NY;Pulaski;no;05NY;;05NY;;;75;75;ASPH-CONC-G;0;0
-137.055.389.323;54.746.593.692;413;347917;05OG;heliport;Drill Field Pad Heliport;415;NA;US;US-OR;Eugene;no;05OG;;05OG;;;50;50;ASP;1;0
-91.240.349.749;5.054.973.931;414;6841;05OI;small_airport;Dorlon Airpark;830;NA;US;US-OH;Columbia Station;no;05OI;;05OI;;;2000;100;TURF;0;0
-10.861.164.084;42.804.681.425;415;6842;05OK;closed;Hawk Haven Airport;1075;NA;US;US-OK;Crescent;no;;;;;;2200;90;TURF;0;0
-130.630.327.764;56.917.375.706;416;6843;05OR;small_airport;Peacock Ranch Airport;3500;NA;US;US-OR;Enterprise;no;05OR;;05OR;;;2600;50;TURF;0;0
-83.687.990.541;4.859.376.111;417;6844;05PA;heliport;PECO Mob. Heliport;110;NA;US;US-PA;Philadelphia;no;05PA;;05PA;;;70;70;ASPH;0;0
-85.557.936.136;4.909.648.077;418;6845;05PN;heliport;State Police Area Iii Heliport;485;NA;US;US-PA;Harrisburg;no;05PN;;05PN;;;120;120;ASPH;0;0
-86.675.815.692;48.867.553.831;419;6846;05PS;small_airport;Mills Brothers Airport;1210;NA;US;US-PA;Neelyton;no;05PS;;05PS;;;2319;100;TURF;0;0
-137.192.363.242;57.565.840.764;420;6847;05S;small_airport;Vernonia Airfield;647;NA;US;US-OR;Vernonia;no;05S;;05S;;;2940;45;TURF-G;0;0
-107.161.817.542;34.790.348.514;421;6848;05TA;small_airport;Brandes Air Field;276;NA;US;US-TX;Sealy;no;05TA;;05TA;;;1700;40;TURF-G;0;0
-108.860.885.286;35.967.107.954;422;6849;05TE;small_airport;Hilde-Griff Field;950;NA;US;US-TX;Georgetown;no;05TE;;05TE;;;1500;50;TURF;0;0
-108.379.094.203;39.124.788.675;423;6851;05TS;small_airport;Dew Drop Airport;750;NA;US;US-TX;Justin;no;05TS;;05TS;;;1700;90;TURF;0;0
-108.430.284.692;3.780.252.401;424;6852;05TX;small_airport;Circle A Ranch Airport;608;NA;US;US-TX;Blum;no;05TX;;05TX;;;2075;50;TURF;0;0
-117.499.951.096;44.965.645.782;425;6854;05V;small_airport;Blanca Airport;7720;NA;US;US-CO;Blanca;no;05V;;05V;;;6160;52;DIRT-G;0;0
-87.295.188.422;44.704.037.888;426;6855;05VA;small_airport;Providence Airport;445;NA;US;US-VA;Farmville;no;05VA;;05VA;;;2000;40;TURF;0;0
-81.359.742.766;56.236.158.332;427;6856;05VT;heliport;Port of Highgate Springs Heliport;68;NA;US;US-VT;Highgate Springs;no;05VT;;05VT;;;80;80;CONC;0;0
-130.704.668.551;60.485.263.009;428;6857;05WA;heliport;Sacred Heart Medical Center Helistop;2220;NA;US;US-WA;Spokane;no;05WA;;05WA;;;40;40;CONC;0;0
-98.791.487.336;52.590.156.209;429;6858;05WI;small_airport;Ames Private Airport;958;NA;US;US-WI;Darien;no;05WI;;05WI;;;1800;60;TURF;0;0
-131.409.875.894;62.244.849.146;430;45907;05WN;small_airport;Flat Creek Field;1570;NA;US;US-WA;Kettle Falls;no;05WN;;05WN;;;1700;50;TURF-GRVL;0;0
-10.190.542.146;39.058.344.389;431;6859;05XS;small_airport;Johnson Memorial Airport;105;NA;US;US-AR;Wilmot;no;05XS;;05XS;;;2600;100;TURF;0;0
-106.242.764.192;5.829.167.546;432;6860;05Y;small_airport;Henning Municipal Airport;1455;NA;US;US-MN;Henning;no;05Y;;05Y;;;3280;200;TURF-G;1;0
-166.506.496.822;87.713.797.692;433;45272;06AK;small_airport;June Lake Airpark;425;NA;US;US-AK;Wasilla;no;06AK;;06AK;;;2000;40;GRVL;0;0
-95.704.034.397;36.832.935.579;434;6861;06AL;heliport;Brown Stagefield Army Heliport;415;NA;US;US-AL;Fort Rucker/New Brockton;no;06AL;;06AL;;;1600;75;ASPH;0;0
-10.261.975.946;42.381.247.205;435;6862;06AR;small_airport;Bondair Airport;499;NA;US;US-AR;Higden;no;06AR;;06AR;;;2900;125;TURF;1;0
-124.401.149.547;39.335.617.425;436;6863;06AZ;heliport;Mercy Gilbert Medical Center Heliport;1280;NA;US;US-AZ;Gilbert;no;06AZ;;06AZ;;;80;80;CONC;1;0
-7.659.337.564;56.068.925.598;437;6864;06B;seaplane_base;Lucky Landing Marina and Seaplane Base;115;NA;US;US-ME;Glenburn;no;;;06B;;;15000;4000;WATER-E;0;0
-13005681.42;41.460.851.176;438;6865;06CA;heliport;SCE Solar I Heliport;1942;NA;US;US-CA;Daggett;no;06CA;;06CA;;;20;20;CONC;0;0
-131.678.714.095;41.852.645.507;439;6866;06CL;heliport;Abc7-Tv Heliport;520;NA;US;US-CA;Glendale;no;06CL;;06CL;;;46;46;CONC;1;0
-115.428.295.305;44.932.579.154;440;6867;06CO;small_airport;Jecan Airport;5100;NA;US;US-CO;Branson;no;06CO;;06CO;;;4500;75;TURF;0;0
-91.153.967.414;33.301.211.295;441;6869;06FD;small_airport;Grass Roots Airpark;105;NA;US;US-FL;Mascotte;no;06FD;;06FD;;;3400;120;TURF;0;0
-92.179.464.676;3243115.87;442;6870;06FL;heliport;Morton Plant Hospital Heliport;3;NA;US;US-FL;Clearwater;no;06FL;;06FL;;;200;100;TURF;0;0
-93.688.823.105;39.957.373.923;443;6871;06GA;heliport;Smith Heliport;1065;NA;US;US-GA;Redan;no;06GA;;06GA;;;300;300;TURF;0;0
-96.504.092.279;46.408.328.026;444;6872;06I;seaplane_base;Patoka Reservoir Landing Area Seaplane Base;536;NA;US;US-IN;French Lick;no;06I;;06I;;;16000;3500;WATER;0;0
-102.229.471.994;51.372.514.823;445;6873;06IA;small_airport;Rich Field;880;NA;US;US-IA;Walford;no;06IA;;06IA;;;1750;100;TURF;0;0
-129.530.247.583;5.382.666.783;446;6874;06ID;small_airport;Larkin Airport;2750;NA;US;US-ID;Kuna;no;06ID;;06ID;;;2200;80;GRVL-DIRT;0;0
-98.929.524.116;51.011.738.207;447;6875;06IL;small_airport;Humm Airport;708;NA;US;US-IL;Earlville;no;06IL;;06IL;;;2580;70;TURF;0;0
-101.606.085.564;49.456.639.771;448;6877;06IS;small_airport;Sinele Strip;695;NA;US;US-IL;Nauvoo;no;06IS;;06IS;;;2600;70;TURF;0;0
-108.394.568.455;45.365.413.467;449;6878;06KS;heliport;Riverside Hospital Airlift Heliport;1332;NA;US;US-KS;Wichita;no;06KS;;06KS;;;25;25;TURF;0;0
-92.779.119.395;45.126.664.667;450;6879;06KY;closed;Falcon Heliport;751;NA;US;US-KY;Jackson;no;;;;;;60;60;CONC;0;0
-100.223.342.062;34.837.775.995;451;6880;06LA;heliport;Panther Helicopters Inc Heliport;;NA;US;US-LA;Belle Chasse;no;06LA;;06LA;;;39;39;CONC;0;0
-98.508.823.755;51.418.699.054;452;6881;06LL;closed;Hammersmith Heliport;812;NA;US;US-IL;Elburn;no;;;;;;40;40;CONC;0;0
-101.657.179.471;35.948.721.005;453;6882;06LS;heliport;Tembec Heliport;85;NA;US;US-LA;St Francisville;no;06LS;;06LS;;;40;40;CONC;0;0
-79.714.775.453;52.649.961.659;454;6883;06MA;heliport;The Barn Heliport;210;NA;US;US-MA;Pepperell;no;06MA;;06MA;;;15;15;ASPH;0;0
-85.210.954.721;47.634.986.374;455;6884;06MD;heliport;Johns Hopkins Bayview Hospital Heliport;132;NA;US;US-MD;Baltimore;no;06MD;;06MD;;;60;60;CONC;1;0
-93.944.080.313;51.986.673.298;456;6885;06MI;heliport;W A Foote Memorial Hospital Heliport;978;NA;US;US-MI;Jackson;no;06MI;;06MI;;;45;45;CONC;0;0
-124.808.179.246;62.003.103.923;457;6888;06MT;small_airport;Torgerson Airport;3541;NA;US;US-MT;Ethridge;no;06MT;;06MT;;;2200;60;TURF;0;0
-82.812.352.539;50.762.717.611;458;6889;06N;small_airport;Randall Airport;523;NA;US;US-NY;Middletown;no;K06N;;06N;;;2811;60;ASPH-G;1;0
-8.786.480.565;41.404.636.396;459;6890;06NC;small_airport;Tailwinds Airport;163;NA;US;US-NC;St. Pauls;no;06NC;;06NC;;;2600;90;TURF;0;0
-113.177.411.667;59.011.842.626;460;6891;06ND;small_airport;Fitterer's Strip;2180;NA;US;US-ND;Glen Ullin;no;06ND;;06ND;;;2800;50;TURF;0;0
-106.712.758.493;49.652.557.464;461;6892;06NE;heliport;St Marys Hospital Heliport;1015;NA;US;US-NE;Nebraska City;no;06NE;;06NE;;;130;95;CONC;0;0
-79.006.892.134;53.010.796.551;462;6893;06NH;small_airport;Cole Farm Airport;160;NA;US;US-NH;Kensington;no;06NH;;06NH;;;1900;150;TURF;0;0
-85.089.962.679;5.287.163.586;463;6895;06NY;small_airport;Murphy Field;1100;NA;US;US-NY;Auburn;no;06NY;;06NY;;;2000;75;TURF;0;0
-89.786.959.108;50.292.893.386;464;6896;06O1;heliport;Saint Elizabeth Medical Center Heliport;1020;NA;US;US-OH;Youngstown;no;06O1;;06O1;;;40;40;CONC;0;0
-89.713.715.448;50.878.303.559;465;6897;06OH;small_airport;Hal Joy Airfield;1160;NA;US;US-OH;Williamsfield;no;06OH;;06OH;;;2400;100;TURF;0;0
-93.933.837.751;48.274.784.195;466;6898;06OI;small_airport;Green Acres Airport;915;NA;US;US-OH;New Lebanon;no;06OI;;06OI;;;2256;45;TURF-F;0;0
-105.568.283.855;4.375.416.541;467;6899;06OK;heliport;Albert Lodge Heliport;900;NA;US;US-OK;Grove;no;06OK;;06OK;;;300;100;TURF;0;0
-137.012.031.307;56.950.414.718;468;6900;06OR;small_airport;Hayden Mountain Airport;850;NA;US;US-OR;Forest Grove;no;06OR;;06OR;;;1000;80;GRAVEL;0;0
-87.149.972.158;51.603.491.269;469;6901;06PA;small_airport;Freefall Oz Airport;1440;NA;US;US-PA;Ceres;no;06PA;;06PA;;;2965;100;TURF-G;0;0
-85.462.792.805;49.217.168.701;470;45764;06PN;heliport;Schiavoni Heliport;727;NA;US;US-PA;Harrisburg;no;06PN;;06PN;;;15;15;CONC;0;0
-107.139.775.646;3.495.976.546;471;6903;06R;closed;Grawunder Field;289;NA;US;US-TX;Bellville;no;;;;;;2480;30;ASPH-G;1;0
-108.266.553.758;4.520.415.454;472;6904;06SN;closed;Beyer Farm Airport;1340;NA;US;US-KS;Derby;no;;;;;;2400;75;TURF;0;0
-108.110.035.864;36.208.719.062;473;6905;06TA;small_airport;Glaser Field;480;NA;US;US-TX;Buckholts;no;06TA;;06TA;;;1900;15;GRAVEL;0;0
-105.783.462.583;35.438.082.078;474;6906;06TE;small_airport;Ainsworth Airport;129;NA;US;US-TX;Cleveland;no;06TE;;06TE;;;3500;50;ASPH;0;0
-96.799.980.015;4.259.049.853;475;6907;06TN;small_airport;Hunter STOLport;640;NA;US;US-TN;Columbia;no;06TN;;06TN;;;2000;50;TURF-F;0;0
-111.544.351.712;36.145.839.065;476;340868;06TT;small_airport;6 Mile Airpark;2165;NA;US;US-TX;Fort McKavett;no;06TT;;06TT;;;3129;75;Turf;0;0
-106.657.974.871;35.109.969.656;477;6909;06TX;small_airport;Diamond N Ranch Airport;215;NA;US;US-TX;Hockley;no;06TX;;06TX;;;1680;60;TURF;0;0
-87.781.319.429;46.146.612.029;478;6910;06VA;small_airport;Mount Horeb Field;1160;NA;US;US-VA;Grottoes;no;06VA;;06VA;;;2000;100;TURF-G;0;0
-130.464.214.646;60.548.238.355;479;6911;06WA;heliport;N A Degerstrom Yard Heliport;2013;NA;US;US-WA;Spokane;no;06WA;;06WA;;;60;40;ASPH;0;0
-136.425.377.115;59.298.406.198;480;15372;06WN;small_airport;Western Airpark;394;NA;US;US-WA;Yelm;no;06WN;;06WN;;;2845;30;ASPH-G;1;0
-108.030.020.991;39.382.467.836;481;6913;06XS;small_airport;Campbell Field;546;NA;US;US-TX;Aubrey;no;06XS;;06XS;;;1750;100;TURF;0;0
-107.045.488.878;57.531.486.195;482;6914;06Y;small_airport;Herman Municipal Airport;1068;NA;US;US-MN;Herman;no;06Y;;06Y;;;2997;60;ASPH-G;1;0
-95.711.499.746;36.490.194.785;483;6915;07AL;heliport;Tac X Stagefield Army Heliport;132;NA;US;US-AL;Fort Rucker/Samson;no;07AL;;07AL;;;6000;1200;TURF;0;0
-103.307.240.387;41.903.225.002;484;6916;07AR;small_airport;Morrilton Airport;300;NA;US;US-AR;Morrilton;no;07AR;;07AR;;;3000;60;TURF;0;0
-7.633.144.327;55.350.352.883;485;6918;07B;small_airport;Blue Hill Airport;360;NA;US;US-ME;Blue Hill;no;07B;;07B;;;3186;100;TURF-F;0;0
-132.972.760.357;4.182.779.827;486;6919;07CA;closed;West Side Hospital Heliport;850;NA;US;US-CA;Taft;no;;;;;;40;40;CONC;0;0
-135.554.861.278;47.932.156.141;487;6920;07CL;small_airport;Richvale Airport;100;NA;US;US-CA;Richvale;no;07CL;;07CL;;;2220;50;ASPH;1;0
-116.247.606.825;47.595.005.687;488;6921;07CO;small_airport;Comanche Creek Airport;6620;NA;US;US-CO;Kiowa;no;07CO;;07CO;;;3100;75;TURF;0;0
-92.087.713.658;53.217.943.959;489;6923;07D;small_airport;Tackaberry Airport;764;NA;US;US-MI;Avoca;no;07D;;07D;;;2244;65;TURF-G;1;0
-91.125.575.226;30.742.576.041;490;6926;07FL;closed;Southwest Florida Regional Medical Center Heliport;18;NA;US;US-FL;Fort Myers;no;;;;;;67;65;ASPH;0;0
-93.246.367.373;39.851.469.194;491;6927;07GA;small_airport;Alcovy Airport;750;NA;US;US-GA;Covington;no;07GA;;07GA;;;1700;80;TURF;0;0
-96.231.356.469;47.300.834.158;492;6928;07I;seaplane_base;Lake Monroe Seaplane Base;538;NA;US;US-IN;Bloomington;no;07I;;07I;;;15000;4000;WATER;0;0
-105.777.282.965;49.605.431.352;493;355064;07IA;small_airport;Hoskins Landing;971;NA;US;US-IA;Shambaugh;no;07IA;;07IA;;;1600;60;Turf;0;0
-126.126.351.185;52.022.611.845;494;6929;07ID;closed;Interstate Airport;4580;NA;US;US-ID;Malta;no;;;;;;3000;75;TURF-DIRT;0;0
-95.334.903.001;4.723.190.195;495;6930;07II;heliport;St Vincent Jennings Hospital Heliport;740;NA;US;US-IN;North Vernon;no;07II;;07II;;;60;60;CONC;1;0
-95.638.918.542;48.041.855.287;496;6931;07IN;small_airport;Gray Airport;750;NA;US;US-IN;Boggstown;no;07IN;;07IN;;;1860;80;TURF;0;0
-109.150.649.566;5.028.964.118;497;6932;07K;small_airport;Central City Municipal - Larry Reineke Field;1717;NA;US;US-NE;Central City;no;07K;;07K;;;3700;60;CONC-E;1;0
-107.909.439.623;45.419.448.689;498;6933;07KS;small_airport;Heape Field;1321;NA;US;US-KS;Augusta;no;07KS;;07KS;;;2000;45;TURF;0;0
-95.393.343.356;45.908.182.595;499;6934;07KY;small_airport;Blue Lick Airport;532;NA;US;US-KY;Louisville;no;07KY;;07KY;;;2000;100;TURF;0;0
-100.392.036.732;34.954.670.661;500;6935;07LA;closed;Air Oil Inc Nr 1 Heliport;;NA;US;US-LA;Harahan;no;;;;;;30;15;CONC;0;0
-102.401.789.913;38.315.329.045;501;6936;07LS;heliport;Louisiana State Police Troop F Heliport;80;NA;US;US-LA;Monroe;no;07LS;;07LS;;;50;50;CONC;0;0
-78.713.458.876;51.485.545.163;502;6937;07MA;heliport;West Pond Heliport;149;NA;US;US-MA;Plymouth;no;07MA;;07MA;;;120;60;TURF;0;0
-85.773.785.811;48.091.835.955;503;6938;07MD;small_airport;Baugher's Orchard Airport;700;NA;US;US-MD;Westminster;no;07MD;;07MD;;;1000;70;TURF;0;0
-78.301.242.475;54.250.324.695;504;6939;07ME;heliport;Westbrook Heliport;250;NA;US;US-ME;Westbrook;no;07ME;;07ME;;;900;200;TURF;0;0
-94.648.175.753;54.444.509.061;505;6940;07MI;small_airport;Scott Airstrip;1065;NA;US;US-MI;Lake;no;07MI;;07MI;;;2904;100;TURF;0;0
-106.765.967.158;5.473.957.556;506;6941;07MN;small_airport;Dairyview Airport;1680;NA;US;US-MN;Hadley;no;07MN;;07MN;;;2600;50;TURF;0;0
-104.222.269.904;4.672.451.908;507;6942;07MO;small_airport;Lake Sexton Airport;880;NA;US;US-MO;Warrensburg;no;07MO;;07MO;;;2700;40;TURF-GRVL-F;0;0
-85.720.348.258;48.683.839.101;508;6944;07N;small_airport;Bermudian Valley Airpark;470;NA;US;US-PA;Washington Township;no;K07N;;07N;;;2200;100;TURF-F;0;0
-89.891.822.217;41.412.365.332;509;6945;07NC;small_airport;Hawks Meadow Airport;625;NA;US;US-NC;Waxhaw;no;07NC;;07NC;;;2000;50;TURF;0;0
-80.221.170.766;53.387.379.833;510;6946;07NH;seaplane_base;Diving Rock Seaplane Base;1404;NA;US;US-NH;Washington;no;07NH;;07NH;;;2500;200;WATER;0;0
-82.370.704.705;49.819.549.181;511;6947;07NJ;heliport;Hackensack UMC Palisades Heliport;10;NA;US;US-NJ;North Bergen;no;07NJ;;07NJ;;;45;45;ASPH;0;0
-83.228.016.613;52.613.317.286;512;6948;07NY;heliport;Mmc Heliport;1320;NA;US;US-NY;Monticello;no;07NY;;07NY;;;50;50;ASPH;1;0
-90.929.659.602;48.568.350.652;513;6949;07OH;closed;Tennessee Gas Heliport;1025;NA;US;US-OH;Claysville;no;;;;;;30;30;CONC;0;0
-110.243.809.481;41.141.725.936;514;6950;07OK;small_airport;Pleasant Valley Airport;1322;NA;US;US-OK;Snyder;no;07OK;;07OK;;;2400;80;TURF;0;0
-136.499.962.669;56.881.712.955;515;6951;07OR;small_airport;Bruce's Airport;250;NA;US;US-OR;Milwaukie;no;07OR;;07OR;;;1200;100;TURF;0;0
-8.696.866.165;5.012.177.793;516;45747;07PN;small_airport;Folmar Airport;1690;NA;US;US-PA;Grassflat;no;07PN;;07PN;;;1600;100;TURF;0;0
-74.613.372.593;20.949.126.423;517;349103;07PR;heliport;Advanced Public Health of Isabela Heliport;289;NA;PR;PR-U-A;Isabela;no;07PR;;07PR;;;45;45;CON;1;0
-106.137.187.784;34.062.944.761;518;6953;07TA;small_airport;Salaika Aviation Airport;30;NA;US;US-TX;Danbury;no;07TA;;07TA;;;2200;125;TURF;1;1
-93.776.759.659;42.414.225.709;519;6955;07TN;small_airport;Corntassel Airport;970;NA;US;US-TN;Vonore;no;07TN;;07TN;;;1800;75;TURF;0;0
-10.861.601.347;35.841.927.072;520;6956;07TS;small_airport;Cross-Country Estates Airport;690;NA;US;US-TX;Hutto;no;07TS;;07TS;;;2500;75;TURF;1;0
-107.365.420.306;3.919.752.179;521;6957;07TX;heliport;Pecks Heliport;660;NA;US;US-TX;Princeton;no;07TX;;07TX;;;400;50;TURF;0;0
-87.700.941.647;44.139.909.776;522;6958;07VA;small_airport;Alpha Hotel Airport;350;NA;US;US-VA;Clover;no;07VA;;07VA;;;1600;50;TURF;0;0
-81.168.276.504;55.349.103.721;523;6959;07VT;small_airport;Meadow STOLport;801;NA;US;US-VT;Jericho;no;07VT;;07VT;;;526;20;TURF;0;0
-130.716.329.863;60.490.940.884;524;6960;07WA;heliport;Multicare Deaconess Hospital Heliport;2110;NA;US;US-WA;Spokane;no;07WA;;07WA;;;53;53;CONC;0;0
-98.396.969.931;53.066.919.479;525;6961;07WI;closed;Bartell Strip;990;NA;US;US-WI;Genessee Depot;no;;;;;;1500;50;TURF;0;0
-118.116.575.411;56.152.397.163;526;346208;07WY;small_airport;Stallions Airport;4074;NA;US;US-WY;Sheridan;no;07WY;;07WY;;;2200;50;Turf;0;0
-108.218.571.718;34.915.354.021;527;341553;07XA;heliport;Luecke Heliport;451;NA;US;US-TX;Smithville;no;07XA;;07XA;;;37;37;CON;0;0
-108.415.945.344;38.346.948.952;528;6962;07XS;heliport;Allen Ponderosa Heliport;840;NA;US;US-TX;Crowley;no;07XS;;07XS;;;30;30;CONC;0;0
-104.191.593.525;5.934.813.816;529;6963;07Y;small_airport;Hill City-Quadna Mountain Airport;1289;NA;US;US-MN;Hill City;no;07Y;;07Y;;;2850;150;TURF-G;0;0
-166.673.950.279;87.576.006.897;530;45248;08AK;small_airport;Fisher Airport;200;NA;US;US-AK;Big Lake;no;08AK;;08AK;;;1200;80;GRVL;0;0
-97.688.060.697;35.349.160.172;531;332752;08AL;seaplane_base;Little Lagoon Seaplane Base;8;NA;US;US-AL;Gulf Shores;no;08AL;;08AL;;;4000;200;Water;0;0
-100.399.284.744;41.832.014.221;532;6964;08AR;closed;Crittenden Regional Hospital Heliport;206;NA;US;US-AR;West Memphis;no;;;;;;50;50;CONC;0;0
-124.498.421.631;39.508.746.697;533;6965;08AZ;heliport;Mesa Police Heliport;1240;NA;US;US-AZ;Mesa;no;08AZ;;08AZ;;;42;42;CONC;0;0
-77.797.964.095;54.654.421.833;534;6966;08B;small_airport;Merrymeeting Field;65;NA;US;US-ME;Bowdoinham;no;08B;;08B;;;1935;100;TURF-G;1;0
-134.502.983.681;46.781.067.233;535;6967;08CA;heliport;PG&E Placerville Service Center Heliport;1810;NA;US;US-CA;Placerville;no;08CA;;08CA;;;60;60;ASPH;0;0
-134.200.099.882;4.559.610.953;536;6968;08CL;small_airport;Kistler Ranch Airport;1025;NA;US;US-CA;Jamestown;no;08CL;;08CL;;;2000;50;DIRT;0;0
-132.811.033.174;43.243.184.644;537;45316;08CN;heliport;Tulare Motor Sports #1 Heliport;270;NA;US;US-CA;Tulare;no;08CN;;08CN;;;50;50;CONC;1;0
-115.817.911.824;46.834.263.433;538;6969;08CO;small_airport;Terra Firma Airport;5600;NA;US;US-CO;Rush;no;08CO;;08CO;;;2600;75;TURF;0;0
-81.366.868.396;51.454.134.429;539;6970;08CT;seaplane_base;Seavair's Landing Seaplane Base;881;NA;US;US-CT;Winsted;no;08CT;;08CT;;;4700;1400;WATER;0;0
-107.126.197.886;41.004.351.776;540;6971;08F;small_airport;City of Coalgate Airport;615;NA;US;US-OK;Coalgate;no;08F;;08F;;;2584;80;TURF-F;0;0
-90.707.243.941;30.710.706.445;541;6972;08FA;small_airport;Duda Airstrip;35;NA;US;US-FL;La Belle;no;08FA;;08FA;;;3390;75;TURF;0;0
-89.915.865.909;31.689.100.066;542;6973;08FD;small_airport;Sunniland Ranch Airport;65;NA;US;US-FL;Okeechobee;no;08FD;;08FD;;;4138;104;TURF;0;0
-90.534.691.597;31.340.327.997;543;6974;08FL;small_airport;J. H. Hendrie Farms Airport;103;NA;US;US-FL;Lake Placid;no;08FL;;08FL;;;2500;100;TURF;0;0
-9.075.454.997;48.820.712.045;544;6975;08G;heliport;Salt Fork Lodge Heliport;960;NA;US;US-OH;Cambridge;no;08G;;08G;;;60;56;ASPH-G;0;0
-90.487.045.849;36.881.717.649;545;6976;08GA;small_airport;Sapelo Island Airport;12;NA;US;US-GA;Darien;no;08GA;;08GA;;;5000;150;TURF;1;0
-129.995.562.239;53.990.307.463;546;6977;08ID;small_airport;Symms Airport;2680;NA;US;US-ID;Marsing;no;08ID;;08ID;;;2500;60;GRAVEL;0;0
-95.096.217.898;51.079.622.741;547;6978;08II;heliport;Parkview Lagrange Hospital Heliport;943;NA;US;US-IN;Lagrange;no;08II;;08II;;;30;30;CONC;0;0
-9.995.822.245;50.978.251.983;548;6979;08IL;closed;Harms Airstrip;643;NA;US;US-IL;Tampico;no;;;;;;2200;75;TURF;0;0
-95.546.137.884;50.452.982.534;549;45416;08IN;seaplane_base;Winona Lake Seaplane Base;812;NA;US;US-IN;Winona Lake;no;02D;;02D;;;5000;1600;WATER;0;0
-99.300.218.225;45.762.899.547;550;6980;08IS;small_airport;Hemmer RLA Restricted Landing Area;400;NA;US;US-IL;Du Quoin;no;08IS;;08IS;;;1320;70;TURF;0;0
-108.625.561.154;47.266.430.524;551;6981;08KS;small_airport;Alderson Airport;1250;NA;US;US-KS;Bennington;no;08KS;;08KS;;;2700;99;GRAVEL;1;0
-97.902.145.889;45.270.653.491;552;334339;08KT;heliport;Methodist Health Heliport;435;NA;US;US-KY;Morganfield;no;08KT;;08KT;;;40;40;CON;0;0
-94.205.342.076;44.352.881.333;553;6982;08KY;small_airport;Boss Airport;820;NA;US;US-KY;Burnside;no;08KY;;08KY;;;2500;60;TURF-G;0;0
-100.390.813.251;34.975.097.475;554;6983;08LA;heliport;Air Oil Inc Nr 2 Heliport;4;NA;US;US-LA;Harahan;no;08LA;;08LA;;;30;15;TURF;0;0
-98.505.723.259;50.234.544.994;555;6984;08LL;small_airport;Sauer Airport;665;NA;US;US-IL;Dwight;no;08LL;;08LL;;;2190;100;TURF-G;0;0
-10.245.116.122;35.561.404.201;556;6985;08LS;small_airport;Aeleron Airport;51;NA;US;US-LA;Sunset;no;08LS;;08LS;;;2000;60;TURF;0;0
-79.589.206.402;52.051.212.707;557;6986;08MA;small_airport;Wormid Airport;360;NA;US;US-MA;Southborough;no;08MA;;08MA;;;1000;18;ASPH;0;0
-85.282.769.151;47.774.618.162;558;6987;08MD;heliport;UM Saint Joseph Medical Center Heliport;470;NA;US;US-MD;Towson;no;08MD;;08MD;;;45;45;MATS;1;0
-78.308.028.384;55.923.185.651;559;6988;08ME;small_airport;Lindbergh Airport;554;NA;US;US-ME;Avon;no;08ME;;08ME;;;2300;90;TURF-F;0;0
-94.105.095.944;52.716.430.171;560;6989;08MI;heliport;Sparrow Hospital Heliport;1019;NA;US;US-MI;Lansing;no;08MI;;08MI;;;60;60;ROOF-TOP;1;0
-10.358.768.155;60.520.298.289;561;6990;08MN;seaplane_base;Christenson Point Seaplane Base;1372;NA;US;US-MN;Chisholm/Hibbing;no;08MN;;08MN;;;11088;6000;WATER;0;0
-104.956.243.834;44.943.925.747;562;6991;08MO;small_airport;Twin Oaks Airport;955;NA;US;US-MO;Jasper;no;08MO;;08MO;;;2640;50;TURF;0;0
-100.040.935.492;41.180.698.293;563;6992;08MS;small_airport;Williams Field;345;NA;US;US-MS;Coldwater;no;08MS;;08MS;;;3725;50;ASPH-TURF;1;0
-121.126.319.371;59.528.011.539;564;6993;08MT;small_airport;Matovich Airport;3450;NA;US;US-MT;Grass Range;no;08MT;;08MT;;;2600;80;DIRT;0;0
-84.968.827.467;49.084.371.199;565;6994;08N;small_airport;Keller Brothers Airport;550;NA;US;US-PA;Lebanon;no;08N;;08N;;;2635;120;TURF-G;1;0
-89.573.895.137;43.099.270.534;566;6995;08NC;small_airport;Whiteheart Farm Airport;750;NA;US;US-NC;Lewisville;no;08NC;;08NC;;;3200;50;TURF;0;0
-113.654.973.235;59.949.727.755;567;6996;08ND;small_airport;Brecht Strip;1990;NA;US;US-ND;Golden Valley;no;08ND;;08ND;;;1300;75;TURF;0;0
-108.068.403.162;52.258.672.296;568;6997;08NE;small_airport;Laurel Municipal Airport;1467;NA;US;US-NE;Laurel;no;08NE;;08NE;;;3000;100;TURF-G;1;0
-7.918.801.392;54.749.331.527;569;6998;08NH;heliport;Memorial Hospital Heliport;574;NA;US;US-NH;North Conway;no;08NH;;08NH;;;80;80;CONC;1;0
-8.271.483.539;49.773.880.205;570;6999;08NJ;heliport;St Barnabas Medical Center Heliport;429;NA;US;US-NJ;Livingston;no;08NJ;;08NJ;;;90;90;ASPH;0;0
-91.756.203.481;41.934.835.354;571;345570;08NR;small_airport;Bell Mountain Airport;2150;NA;US;US-NC;Zirconia;no;08NR;;08NR;;;1400;40;Turf;0;0
-82.939.254.506;5.066.788.768;572;7000;08NY;small_airport;Md1 Airport;650;NA;US;US-NY;Middletown;no;08NY;;08NY;;;550;60;TURF;0;0
-89.683.098.172;50.554.627.955;573;7001;08OH;small_airport;Kenley Airport;1230;NA;US;US-OH;Hartford;no;08OH;;08OH;;;3000;50;TURF;0;0
-106.041.055.368;41.545.760.892;574;7002;08OK;small_airport;Parks Airport;635;NA;US;US-OK;Wilburton;no;08OK;;08OK;;;1800;50;TURF;1;0
-109.767.114.891;42.194.777.592;575;327859;08OL;small_airport;Broken B Airport;1518;NA;US;US-OK;Hydro;no;08OL;;08OL;;;1029;40;Turf;0;0
-134.826.824.063;52.875.433.021;576;7003;08OR;small_airport;Saxon Sycan Airport;4990;NA;US;US-OR;Silver Lake;no;08OR;;08OR;;;2800;20;GRVL;0;0
-84.059.617.302;50.205.103.884;577;7004;08PA;heliport;Pocono Raceway Heliport;1812;NA;US;US-PA;Long Pond;no;08PA;;08PA;;;200;150;TURF;0;0
-84.915.397.984;48.726.143.587;578;7005;08PN;heliport;Thomson Heliport;310;NA;US;US-PA;Lancaster;no;08PN;;08PN;;;50;50;ASPH;0;0
-79.727.684.997;50.848.128.327;579;7006;08R;small_airport;Richmond Airport;130;NA;US;US-RI;West Kingston;no;;;08R;;;2129;30;ASPH-P;1;0
-109.477.322.426;53.617.129.635;580;345365;08SD;heliport;Douglas County Memorial Hospital Heliport;1523;NA;US;US-SD;Armour;no;08SD;;08SD;;;42;42;CON;0;0
-109.380.770.579;35.007.762.372;581;7007;08TA;heliport;Rancho Del Lago Heliport;1208;NA;US;US-TX;Fischer;no;08TA;;08TA;;;200;100;TURF;0;0
-110.231.039.982;35.433.056.688;582;343404;08TT;small_airport;LZ Tango Charlie Airport;2054;NA;US;US-TX;Fredericksburg;no;08TT;;08TT;;;2015;75;CON;0;0
-108.808.460.379;38.764.563.934;583;7010;08TX;small_airport;Cross Wind Airport;1040;NA;US;US-TX;Weatherford;no;08TX;;08TX;;;2100;30;TURF;1;0
-128.974.763.146;50.887.076.181;584;7011;08U;small_airport;Stevens-Crosby Airport;6397;NA;US;US-NV;Elko;no;K08U;;08U;;;3600;50;DIRT-F;0;0
-8.877.707.309;45.166.112.732;585;7012;08VA;small_airport;Springwood Airstrip;1000;NA;US;US-VA;Buchanan;no;08VA;;08VA;;;1800;50;TURF;0;0
-136.419.806.238;60.363.233.139;586;7013;08WA;closed;Manchester Laboratory Heliport;2;NA;US;US-WA;Manchester;no;;;;;;100;100;CONC;0;0
-106.619.021.218;33.894.120.639;587;7015;08XS;small_airport;Peterson Airport;45;NA;US;US-TX;Old Ocean;no;08XS;;08XS;;;2350;100;TURF;0;0
-167.818.306.852;90.928.711.819;588;329058;09AA;heliport;Sheldon Chalet Heliport;5742;NA;US;US-AK;Talkeetna;no;09AA;;09AA;;;22;24;Deck;0;0
-166.809.288.063;87.624.230.569;589;45270;09AK;small_airport;West Beaver Airport;228;NA;US;US-AK;Big Lake;no;09AK;;09AK;;;1300;60;TURF;0;0
-103.794.180.429;39.316.232.241;590;7016;09AR;heliport;Magnolia Hospital Heliport;310;NA;US;US-AR;Magnolia;no;09AR;;09AR;;;135;100;ASPH;0;0
-122.495.975.461;3.753.449.797;591;7017;09AZ;small_airport;Stronghold Airport;4970;NA;US;US-AZ;St David;no;09AZ;;09AZ;;;2350;80;DIRT;0;0
-134.844.127.826;43.289.367.537;592;7018;09CA;heliport;Mee Memorial Hospital Heliport;320;NA;US;US-CA;King City;no;09CA;;09CA;;;65;65;ASPH;1;0
-132.819.260.798;43.257.699.583;593;45317;09CN;heliport;Tulare Motor Sports #2 Heliport;272;NA;US;US-CA;Tulare;no;09CN;;09CN;;;50;50;CONC;1;0
-115.383.508.254;4.587.237.262;594;7020;09CO;small_airport;Cottonwood Field;4180;NA;US;US-CO;Rocky Ford;no;09CO;;09CO;;;3250;65;TURF;0;0
-91.379.167.886;33.338.507.437;595;7022;09FD;small_airport;Cheryl-Lane Landings Airport;71;NA;US;US-FL;Bushnell;no;09FD;;09FD;;;2649;100;TURF;0;0
-91.249.409.254;31.297.143.537;596;7023;09FL;closed;Sunnybreeze Airport;60;NA;US;US-FL;Arcadia;no;;;;;;3000;150;TURF;0;0
-9.314.171.926;36.484.726.367;597;7024;09GA;small_airport;Sunbelt Strip;230;NA;US;US-GA;Moultrie;no;09GA;;09GA;;;2400;70;TURF;0;0
-103.939.894.884;62.082.367.917;598;7025;09I;seaplane_base;International Falls Seaplane Base;1110;NA;US;US-MN;International Falls;no;09I;;09I;;;5000;1000;WATER;0;0
-102.872.063.555;51.229.236.838;599;7026;09IA;small_airport;Skydive Iowa Airport;820;NA;US;US-IA;Brooklyn;no;09IA;;09IA;;;2700;80;ASPH-TURF;0;0
-127.856.004.888;56.378.934.158;600;7027;09ID;small_airport;Taylor Ranch Landing Area Airport;3835;NA;US;US-ID;Moscow;no;09ID;;09ID;;;2300;100;TURF;0;0
-96.230.133.477;46.428.084.345;601;7028;09II;small_airport;Gibbons Field;880;NA;US;US-IN;Valeene;no;09II;;09II;;;1600;100;TURF;0;0
-98.019.348.615;50.917.531.383;602;7029;09IL;closed;Silver Cross Hospital Heliport;610;NA;US;US-IL;Joliet;no;;;;;;40;40;CONC;0;0
-95.094.678.408;50.301.906.565;603;7030;09IN;small_airport;Gordon Airport;850;NA;US;US-IN;Columbia City;no;09IN;;09IN;;;2200;70;TURF;1;0
-99.157.060.163;52.007.580.956;604;7031;09IS;heliport;Swedish American Heliport;874;NA;US;US-IL;Rockford;no;09IS;;09IS;;;39;31;CONC;0;0
-105.907.468.922;4679788.42;605;7032;09KS;small_airport;Coffman Airport;970;NA;US;US-KS;Wellsville;no;09KS;;09KS;;;2500;60;TURF;0;0
-95.333.340.288;46.132.435.068;606;7033;09KY;heliport;Baptist Hospital East Heliport;531;NA;US;US-KY;Louisville;no;09KY;;09KY;;;50;50;CONC;0;0
-10.041.759.346;33.918.166.726;607;7034;09LA;heliport;Era Helicopters Fourchon Helibase Heliport;2;NA;US;US-LA;Golden Meadow;no;09LA;;09LA;;;50;50;CONC;0;0
-98.788.480.813;52.313.587.446;608;7035;09LL;small_airport;Pine Hill Airport;1000;NA;US;US-IL;Capron;no;09LL;;09LL;;;2300;80;TURF;0;0
-10.172.886.891;36.099.650.705;609;7036;09LS;heliport;West Feliciana Sheriff's Office Heliport;181;NA;US;US-LA;St Francisville;no;09LS;;09LS;;;40;40;CONC;1;0
-79.600.001.009;52.066.714.218;610;7037;09MA;small_airport;Kallander Field;403;NA;US;US-MA;Southborough;no;09MA;;09MA;;;1700;50;TURF;0;0
-78.875.089.218;53.639.899.759;611;7038;09ME;small_airport;Perrotti Skyranch Airfield;260;NA;US;US-ME;Berwick;no;09ME;;09ME;;;2000;100;TURF;0;0
-94.132.650.462;52.676.466.097;612;7039;09MI;heliport;Michigan National Guard Headquarters Heliport;842;NA;US;US-MI;Lansing;no;09MI;;09MI;;;40;40;CONC;0;0
-103.931.546.262;44.919.827.816;613;7041;09MO;small_airport;Hogue Farm Airport;1210;NA;US;US-MO;Willard;no;09MO;;09MO;;;1320;50;TURF;0;0
-82.238.386.407;51.359.365.721;614;7042;09N;small_airport;Airhaven Airport;450;NA;US;US-NY;Staatsburg;no;09N;;09N;;;1863;75;TURF-F;0;0
-87.975.792.215;42.087.222.247;615;7043;09NC;small_airport;William Irving Lewis Airport;310;NA;US;US-NC;Broadway;no;09NC;;09NC;;;2400;80;TURF;0;0
-10.708.222.961;50.616.285.667;616;7044;09NE;small_airport;Summer Hill Farm Airport;1250;NA;US;US-NE;Bennington;no;09NE;;09NE;;;2500;50;TURF;0;0
-83.140.632.102;49.613.961.631;617;7045;09NJ;heliport;Stonebridge Farm Helistop;100;NA;US;US-NJ;Somerville;no;09NJ;;09NJ;;;100;100;TURF;0;0
-8.866.632.062;42.525.848.825;618;324843;09NR;small_airport;Dakota Air Ranch Airport;561;NA;US;US-NC;Ramseur;no;09NR;;09NR;;;1800;35;Turf;0;0
-82.430.854.845;5.150.335.202;619;7046;09NY;heliport;Spring Lake Fire Department Heliport;254;NA;US;US-NY;Kingston;no;09NY;;09NY;;;100;100;ASPH;0;0
-106.715.204.479;4.349.510.279;620;7047;09OK;small_airport;Ragtime Aerodrome;700;NA;US;US-OK;Collinsville;no;09OK;;09OK;;;2500;50;TURF;0;0
-134.878.955.242;57.144.482.791;621;7048;09OR;heliport;Mid-Columbia Medical Center Heliport;487;NA;US;US-OR;The Dalles;no;09OR;;09OR;;;50;50;TURF;0;0
-86.815.953.734;49.868.575.451;622;7049;09PA;small_airport;Eagle Field;1780;NA;US;US-PA;Port Matilda;no;09PA;;09PA;;;2300;200;TURF;0;0
-130.559.947.777;62.479.085.153;623;7051;09S;small_airport;Sullivan Lake State Airport;2614;NA;US;US-WA;Metaline Falls;no;09S;;09S;;;1765;150;TURF-P;0;0
-108.533.166.165;3.932.808.295;624;14580;09TA;small_airport;Lazy G Bar Ranch Airport;923;NA;US;US-TX;Decatur;no;;;09T;;;2400;40;TURF-P;0;0
-108.941.443.756;37.978.730.546;625;7052;09TE;small_airport;Running M Ranch Airport;787;NA;US;US-TX;Glen Rose;no;09TE;;09TE;;;2815;45;TURF-F;0;0
-93.446.033.623;42.926.023.419;626;7053;09TN;heliport;Univ of Tennessee Medical Center Heliport;924;NA;US;US-TN;Knoxville;no;09TN;;09TN;;;80;80;CONC;0;0
-113.571.840.314;35.987.215.584;627;7055;09TX;small_airport;Smokey Mountain Ranch Airport;2522;NA;US;US-TX;Sheffield;no;09TX;;09TX;;;2340;120;TURF;0;0
-89.605.395.686;44.358.319.005;628;7056;09VA;small_airport;Alum Ridge STOLport;2375;NA;US;US-VA;Floyd;no;09VA;;09VA;;;1100;50;TURF;0;0
-87.925.700.482;45.922.609.356;629;7057;09VG;heliport;Augusta Medical Center Heliport;1390;NA;US;US-VA;Fishersville;no;09VG;;09VG;;;96;60;CONC;1;0
-85.725.322.013;4.702.868.805;630;7058;09W;heliport;South Capitol Street Heliport;10;NA;US;US-DC;Washington;no;;;09W;;;60;60;ASPH-G;0;0
-130.696.871.974;60.588.101.728;631;7059;09WA;heliport;Holy Family Hospital Heliport;2081;NA;US;US-WA;Spokane;no;09WA;;09WA;;;60;60;CONC;0;0
-101.643.157.523;54.659.994.747;632;7060;09WI;small_airport;Parkway Farm Strip;705;NA;US;US-WI;Holmen;no;09WI;;09WI;;;2500;100;TURF;0;0
-109.641.018.582;34.308.735.877;633;7061;09XS;heliport;Baptist Medical Center Heliport;710;NA;US;US-TX;San Antonio;no;09XS;;09XS;;;90;90;CONC;0;0
-10.354.438.422;55.926.950.974;634;7062;09Y;seaplane_base;Wipline Seaplane Base;687;NA;US;US-MN;Inver Grove Hgts;no;09Y;;09Y;;;8000;500;WATER;0;0
-16.835.431.354;85.099.957.579;635;325323;0AA7;small_airport;Kalifornsky Meadows Airport;65;NA;US;US-AK;Kenai;no;0AA7;;0AA7;;;2539;100;Turf;0;0
-181.339.443.823;8.843.652.231;636;7063;0AK;small_airport;Pilot Station Airport;305;NA;US;US-AK;Pilot Station;yes;;PQS;0AK;;;2541;55;GRVL-F;1;0
-163.485.833.533;94.500.498.531;637;7064;0AK0;small_airport;Scotts Airport;800;NA;US;US-AK;Salcha;no;0AK0;;0AK0;;;1050;70;TURF-G;0;0
-166.223.257.736;87.688.846.469;638;7065;0AK1;small_airport;Anderson Lake Airport;463;NA;US;US-AK;Wasilla;no;0AK1;;0AK1;;;3000;2000;WATER;0;0
-16773466.25;87.943.587.015;639;45273;0AK2;small_airport;Yentna Bend Strip;81;NA;US;US-AK;Willow;no;0AK2;;0AK2;;;1000;150;TURF-DIRT;0;0
-167.529.158.144;88.676.603.334;640;7066;0AK3;small_airport;Parker Lake Airport;250;NA;US;US-AK;Montana Creek;no;0AK3;;0AK3;;;900;100;TURF;0;0
-158.888.348.582;87.078.777.332;641;7067;0AK5;small_airport;Young Creek Airport;1580;NA;US;US-AK;May Creek;no;0AK5;;0AK5;;;1550;120;TURF;0;0
-164.691.794.313;88.121.287.994;642;7068;0AK6;small_airport;Victory Airport;1800;NA;US;US-AK;Victory Bible Camp;no;0AK6;;0AK6;;;1700;60;DIRT;0;0
-168.051.560.147;83.500.358.309;643;7069;0AK7;small_airport;Bradley Lake Hydroelectric Project Airstrip;18;NA;US;US-AK;Homer;no;0AK7;;0AK7;;;2400;75;GRVL;1;0
-164.193.467.046;95.809.873.278;644;7070;0AK8;closed;Pollux Heliport;515;NA;US;US-AK;North Pole;no;;;;;;150;150;GVL;0;0
-167.044.921.076;87.025.961.555;645;7071;0AK9;small_airport;Falcon Lake Strip;110;NA;US;US-AK;Point Mackenzie;no;0AK9;;0AK9;;;2000;30;GRVL;0;0
-96.390.320.009;41.216.161.994;646;7072;0AL0;heliport;Huntsville Field;619;NA;US;US-AL;Huntsville;no;0AL0;;0AL0;;;90;90;ASPH;0;0
-97.579.213.054;35.607.375.101;647;7073;0AL1;small_airport;Resort Airport;97;NA;US;US-AL;Foley;no;0AL1;;0AL1;;;2640;70;TURF;0;0
-95.549.189.963;39.318.629.629;648;7074;0AL2;heliport;Clay County Hospital Heliport;1040;NA;US;US-AL;Ashland;no;0AL2;;0AL2;;;24;21;CONC;0;0
-96.781.499.241;36.887.978.209;649;7075;0AL3;heliport;Hospital Pad Heliport;295;NA;US;US-AL;Evergreen;no;0AL3;;0AL3;;;24;24;CONC;0;0
-95.462.912.093;40.883.264.002;650;7076;0AL4;heliport;Dekalb Regional Medical Center Heliport;870;NA;US;US-AL;Fort Payne;no;0AL4;;0AL4;;;30;30;CONC;0;0
-9.712.937.265;36.369.316.146;651;7077;0AL5;small_airport;Flomaton Airport;247;NA;US;US-AL;Flomaton;no;0AL5;;0AL5;;;2200;100;TURF;0;0
-96.929.557.765;36.492.794.185;652;7078;0AL6;heliport;D.W. Mcmillian Memorial Hospital Heliport;155;NA;US;US-AL;Brewton;no;0AL6;;0AL6;;;49;49;ASPH;0;0
-95.696.135.904;40.299.166.727;653;7079;0AL7;heliport;Gadsden Regl Medical Center Heliport;621;NA;US;US-AL;Gadsden;no;0AL7;;0AL7;;;30;30;CONC;0;0
-96.595.375.077;39.570.422.592;654;7080;0AL8;heliport;Brookwood Medical Center Heliport;763;NA;US;US-AL;Birmingham;no;0AL8;;0AL8;;;55;55;ASPH;0;0
-9.755.205.243;41.435.151.739;655;7081;0AL9;small_airport;Wilson Creek Airport;590;NA;US;US-AL;Florence;no;0AL9;;0AL9;;;2200;50;TURF;0;0
-104.793.109.573;43.256.255.587;656;7082;0AR0;heliport;Northwest Medical Center Springdale Heliport;1352;NA;US;US-AR;Springdale;no;0AR0;;0AR0;;;60;60;ASPH;1;0
-100.525.496.556;41.895.312.247;657;7084;0AR2;small_airport;Mission Field-Marotti Memorial Airport;217;NA;US;US-AR;Crawfordsville;no;0AR2;;0AR2;;;2800;60;TURF-GRVL;0;0
-103.817.671.422;42.867.325.377;658;7085;0AR3;closed;Taylor's Air Strip;2160;NA;US;US-AR;Deer;no;;;;;;2000;50;TURF;0;0
-105.152.446.663;43.570.861.797;659;7086;0AR4;heliport;Ozarks Community Hospital Heliport;1251;NA;US;US-AR;Gravette;no;0AR4;;0AR4;;;11;11;ASPH;0;0
-100.968.779.101;42.781.061.869;660;7087;0AR5;heliport;Rgnl Medical Center Heliport;382;NA;US;US-AR;Jonesboro;no;0AR5;;0AR5;;;42;42;CONC;0;0
-10.356.163.351;40.936.402.425;661;7088;0AR6;heliport;Ami National Park Medical Center Heliport;547;NA;US;US-AR;Hot Springs;no;0AR6;;0AR6;;;20;20;CONC;0;0
-101.495.702.691;40.219.546.843;662;7089;0AR7;closed;Yancopin Airport;150;NA;US;US-AR;Watson;no;;;;;;2200;50;TURF;0;0
-104.507.005.124;4.021.934.555;663;7090;0AR8;heliport;Howard Memorial Hospital Heliport;437;NA;US;US-AR;Nashville;no;0AR8;;0AR8;;;30;30;CONC;0;0
-10.435.478.658;43.558.151.932;664;7091;0AR9;heliport;Eureka Springs Hospital Heliport;1540;NA;US;US-AR;Eureka Springs;no;0AR9;;0AR9;;;10;10;ASPH;0;0
-124.722.090.318;3.959.349.051;665;7092;0AZ0;heliport;Arizona Heart Hospital Heliport;1161;NA;US;US-AZ;Phoenix;no;0AZ0;;0AZ0;;;40;40;MATS;1;0
-123.925.443.514;38.030.334.452;666;7093;0AZ1;closed;Taylor Field;2130;NA;US;US-AZ;Marana;no;;;;;;2000;40;DIRT;0;0
-124.997.319.967;3892954.82;667;7095;0AZ4;small_airport;Flying Bucket Ranch Airport;1505;NA;US;US-AZ;Maricopa;no;0AZ4;;0AZ4;;;2900;130;TURF;0;0
-125.349.381.215;40.108.157.531;668;7096;0AZ5;small_airport;Castle Well Airport;2080;NA;US;US-AZ;Morristown;no;0AZ5;;0AZ5;;;1400;60;ASPH-DIRT;0;0
-124.766.107.158;39.595.860.889;669;7097;0AZ6;heliport;St Joseph's Hospital Heliport;1213;NA;US;US-AZ;Phoenix;no;0AZ6;;0AZ6;;;40;45;CONC;0;0
-124.638.385.853;39.545.627.537;670;7098;0AZ7;closed;Sunstate Heliport;1180;NA;US;US-AZ;Phoenix;no;;;;;;50;50;CONC;0;0
-76.551.964.096;55.843.970.609;671;7099;0B2;small_airport;Brewer Airport;124;NA;US;US-ME;Brewer;no;0B2;;0B2;;;1730;30;TURF-F;0;0
-81.070.497.505;54.836.783.541;672;7100;0B7;small_airport;Warren-Sugarbush Airport;1470;NA;US;US-VT;Warren;no;K0B7;;0B7;;;2575;30;ASPH-E;0;0
-105.509.172.553;47.917.876.499;673;7101;0C1;small_airport;Triple R Airport;1000;NA;US;US-MO;Dearborn;no;0C1;;0C1;;;2375;35;ASPH-TRTD-P;1;0
-9.493.791.713;54.000.086.321;674;7103;0C5;small_airport;Canadian Lakes Airport;960;NA;US;US-MI;Canadian Lakes;no;K0C5;;0C5;;;3800;100;TURF-G;1;0
-99.221.955.338;50.896.439.809;675;7104;0C7;small_airport;Grandpas' Farm Mendota Airport;727;NA;US;US-IL;Mendota;no;IL22;;IL22;;;3980;200;TURF-G;1;0
-98.635.301.009;5.089.272.537;676;7105;0C8;small_airport;Cushing Field Ltd Airport;640;NA;US;US-IL;Newark;no;0C8;;0C8;;;2831;180;TURF-G;1;0
-131.626.388.964;40.185.080.022;677;7107;0CA0;closed;Drew Medical Center Heliport;180;NA;US;US-CA;Los Angeles;no;;;;;;86;86;CONC;1;0
-134.093.232.423;41.622.913.183;678;7108;0CA1;closed;Northside Airpark;190;NA;US;US-CA;Santa Maria;no;;;;;;2482;30;asphalt;0;1
-131.864.902.105;40.354.879.554;679;7109;0CA2;heliport;VA Greater Los Angeles Health Care Center Heliport;294;NA;US;US-CA;Los Angeles;no;0CA2;;0CA2;;;45;45;CONC;1;0
-133.597.861.029;41.079.645.894;680;7110;0CA3;small_airport;Crawford Airport;570;NA;US;US-CA;Santa Ynez;no;0CA3;;0CA3;;;2100;20;ASPH;0;0
-133.655.748.847;41.126.574.233;681;7111;0CA4;small_airport;Shepherd Farm Airport;660;NA;US;US-CA;Santa Ynez;no;0CA4;;0CA4;;;3600;50;TREATED;0;0
-129.959.942.585;39.143.136.334;682;7112;0CA5;small_airport;Hoffman Private Airport;3100;NA;US;US-CA;Santa Ysabel;no;0CA5;;0CA5;;;1400;30;ASPH;0;0
-129.148.544.115;38.620.939.262;683;7113;0CA6;small_airport;Emory Ranch Airport;480;NA;US;US-CA;Ocotillo;no;0CA6;;0CA6;;;2400;40;ASPH;0;0
-131.452.065.981;39.961.899.571;684;7114;0CA7;closed;Boeing Seal Beach (Rooftop) Heliport;158;NA;US;US-CA;Seal Beach;no;;;;;;85;85;CONC;0;0
-130.069.316.492;39.502.982.668;685;7115;0CA8;closed;Ward Ranch Airport;2500;NA;US;US-CA;Aguanga;no;;;;;;2250;50;DIRT;0;0
-120.278.453.356;46.852.326.769;686;7117;0CD0;heliport;Delta County Memorial Hospital Heliport;5000;NA;US;US-CO;Delta;no;0CD0;;0CD0;;;50;50;CONC;1;0
-115.545.555.926;4.903.956.269;687;7118;0CD1;heliport;Colorado Plains Medical Center Heliport;4356;NA;US;US-CO;Fort Morgan;no;0CD1;;0CD1;;;45;45;MATS;1;0
-116.032.759.325;46.720.167.338;688;7119;0CD2;small_airport;Foxx Valley Airport;5800;NA;US;US-CO;Yoder;no;0CD2;;0CD2;;;2500;50;TURF-P;0;0
-116.759.675.464;48.872.252.128;689;7121;0CD4;heliport;Kauffman Heliport;5120;NA;US;US-CO;Denver;no;0CD4;;0CD4;;;25;25;MATS;1;0
-115.932.567.152;45.076.986.243;690;7122;0CD5;small_airport;Piñon Canyon Airport;5686;NA;US;US-CO;Model;no;0CD5;;0CD5;;;4500;70;GRVL;0;0
-11.698.008.588;48.618.304.725;691;7123;0CD6;heliport;Exempla Good Samaritan Heliport;5204;NA;US;US-CO;Lafayette;no;0CD6;;0CD6;;;40;40;CONC;1;0
-116.965.448.387;48.665.115.036;692;7124;0CD7;small_airport;Fox Hole Airport;5135;NA;US;US-CO;Lafayette;no;0CD7;;0CD7;;;956;300;TURF-G;0;0
-114.223.817.599;45.894.744.965;693;7125;0CD8;heliport;Prowers Medical Center Heliport;3575;NA;US;US-CO;Lamar;no;0CD8;;0CD8;;;50;50;CONC-G;1;0
-116.986.769.874;48.084.323.485;694;7126;0CD9;heliport;Swedish S.W. Medical Heliport;5563;NA;US;US-CO;Littleton;no;0CD9;;0CD9;;;50;50;CONC;0;0
-133.486.543.237;44.555.672.574;695;7127;0CL0;small_airport;Yosemite Hidden Lake Ranch Airport;500;NA;US;US-CA;Raymond;no;0CL0;;0CL0;;;3720;75;DIRT;0;0
-130.862.740.325;41.055.173.126;696;7128;0CL1;small_airport;Krey Field Airport;3042;NA;US;US-CA;Adelanto;no;0CL1;;0CL1;;;3360;100;DIRT;0;0
-130.338.283.306;38.415.154.859;697;7129;0CL2;closed;Parking Lot Heliport;;NA;US;US-CA;Chula Vista;no;;;;;;113;55;CONC;0;0
-130.121.981.743;3.846.751.965;698;7130;0CL3;small_airport;John Nichols Field Airport;490;NA;US;US-CA;Jamul;no;0CL3;;0CL3;;;1800;50;DIRT;0;0
-131.640.459.748;40.499.269.026;699;7131;0CL4;heliport;Glen Fed Heliport;770;NA;US;US-CA;Glendale;no;0CL4;;0CL4;;;50;50;CONC;0;0
-131.198.927.362;39.846.570.686;700;7132;0CL5;heliport;The Atrium Heliport;46;NA;US;US-CA;Irvine;no;0CL5;;0CL5;;;58;58;CONC;0;0
-131.665.472.124;41.224.533.994;701;7133;0CL6;small_airport;Bohunk's Airpark;2410;NA;US;US-CA;Lancaster;no;0CL6;;0CL6;;;1900;70;DIRT;0;0
-131.651.959.051;40.361.762.735;702;7134;0CL7;heliport;Good Samaritan Hospital Heliport;473;NA;US;US-CA;Los Angeles;no;0CL7;;0CL7;;;65;65;CONC;0;0
-130.946.589.777;42.445.028.001;703;7135;0CL8;small_airport;Tera Ultralightport;2510;NA;US;US-CA;Ridgecrest;no;0CL8;;0CL8;;;3500;80;TURF;0;0
-130.411.897.747;3.994.090.876;704;7136;0CL9;heliport;Sce San Jacinto Valley Service Center Heliport;1482;NA;US;US-CA;Romoland;no;0CL9;;0CL9;;;20;20;CONC;0;0
-117.024.363.114;48.923.679.696;705;7137;0CO0;heliport;Longmont United Hospital Heliport;5047;NA;US;US-CO;Longmont;no;0CO0;;0CO0;;;100;100;TURF;0;0
-117.023.502.113;48.707.823.061;706;7138;0CO1;small_airport;Dave's Airport;5170;NA;US;US-CO;Louisville;no;0CO1;;0CO1;;;2500;60;TURF;0;0
-119.032.084.715;4.700.482.239;707;7139;0CO2;small_airport;Crested Butte Airpark;8980;NA;US;US-CO;Crested Butte;no;0CO2;CSE;0CO2;;;4000;40;ASPH;1;0
-11.637.895.831;48.498.831.812;708;7140;0CO3;closed;Greggs Nr 1 Airport;5373;NA;US;US-CO;Bennett;no;;;;;;4200;30;DIRT;0;0
-116.936.669.649;49.520.390.437;709;7141;0CO4;heliport;Geo-Seis Helicopters Heliport;4935;NA;US;US-CO;Fort Collins;no;0CO4;;0CO4;;;120;108;CONC;0;0
-120.462.157.719;46.104.659.933;710;7143;0CO6;small_airport;Flying M & M Ranch Airport;8000;NA;US;US-CO;Norwood;no;0CO6;;0CO6;;;4500;150;TURF;0;0
-116.929.994.149;49.513.937.458;711;7144;0CO7;heliport;Century Helicopters Heliport;4935;NA;US;US-CO;Fort Collins;no;0CO7;;0CO7;;;152;64;ASPH;0;0
-11.689.993.741;48.962.584.236;712;7145;0CO8;small_airport;Cartwheel Airport;5010;NA;US;US-CO;Mead;no;0CO8;;0CO8;;;2000;30;DIRT;0;0
-118.036.505.063;45.312.666.753;713;7146;0CO9;small_airport;Van Treese Airport;7613;NA;US;US-CO;Monte Vista;no;0CO9;;0CO9;;;2600;50;GRVL-DIRT;0;0
-81.798.339.958;51.432.051.431;714;7147;0CT0;heliport;Sharon Hospital Heliport;640;NA;US;US-CT;Sharon;no;0CT0;;0CT0;;;36;36;CONC;0;0
-80.991.834.364;50.841.144.605;715;7148;0CT1;heliport;Bristol-Myers Squibb Company Heliport;350;NA;US;US-CT;Wallingford;no;0CT1;;0CT1;;;50;50;ASPH;0;0
-80.401.502.702;51.186.810.915;716;7149;0CT2;heliport;Windham Hospital Heliport;330;NA;US;US-CT;Willimantic;no;0CT2;;0CT2;;;40;40;ASPH;0;0
-81.027.122.792;51.104.225.147;717;7150;0CT3;heliport;N B G H Heliport;431;NA;US;US-CT;New Britain;no;0CT3;;0CT3;;;60;60;CONC;0;0
-80.928.153.827;51.272.605.302;718;7152;0CT5;heliport;St Francis Hospital Heliport;184;NA;US;US-CT;Hartford;no;0CT5;;0CT5;;;50;50;CONC;0;0
-80.934.277.281;5100772.35;719;7153;0CT6;heliport;Middletown Heliport;113;NA;US;US-CT;Middletown;no;0CT6;;0CT6;;;65;65;ASPH;0;0
-8.144.879.787;50.401.716.462;720;7154;0CT7;heliport;Bridgeport Hospital Heliport;80;NA;US;US-CT;Bridgeport;no;0CT7;;0CT7;;;66;48;CONC;0;0
-8.175.878.369;50.723.079.395;721;7155;0CT8;heliport;Danbury Hospital Heliport;510;NA;US;US-CT;Danbury;no;0CT8;;0CT8;;;60;60;ASPH;0;0
-80.905.562.438;51.242.755.802;722;7156;0CT9;heliport;Hartford Hospital Heliport;211;NA;US;US-CT;Hartford;no;0CT9;;0CT9;;;60;75;CONC;0;0
-107.964.627.469;49.352.414.503;723;7157;0D6;closed;Wilber Municipal Airport;1400;NA;US;US-NE;Wilber;no;;;;;;2150;300;Turf;0;0
-93.318.128.997;49.815.040.766;724;7158;0D7;small_airport;Ada Airport;949;NA;US;US-OH;Ada;no;0D7;;0D7;;;1955;110;TURF-G;0;0
-103.797.017.204;49.762.320.179;725;7159;0,00E+00;small_airport;Corydon Airport;1020;NA;US;US-IA;Corydon;no;K0E9;;0,00E+00;;;3270;80;TURF-F;0;0
-89.434.541.992;29.764.752.524;726;7160;0FA0;heliport;Doral Resort & Country Club Heliport;6;NA;US;US-FL;Miami;no;0FA0;;0FA0;;;200;150;TURF;0;0
-91.148.847.679;3.161.491.615;727;7161;0FA1;small_airport;Ott's Landing Airport;65;NA;US;US-FL;Arcadia;no;0FA1;;0FA1;;;1800;75;TURF;0;0
-93.055.003.603;35.189.522.813;728;45349;0FA2;heliport;Doctors Memorial Hospital #2 Heliport;57;NA;US;US-FL;Perry;no;0FA2;;0FA2;;;50;50;CONC;1;0
-9.024.796.353;31.329.381.523;729;345994;0FA3;heliport;Brighton Helipad;24;NA;US;US-FL;Brighton;no;0FA3;;0FA3;;;20;20;CON;0;0
-90.630.392.735;30.485.099.927;730;347505;0FA6;heliport;Immokalee Helipad;72;NA;US;US-FL;Immokalee;no;0FA6;;0FA6;;;45;45;Roof/Top;0;0
-90.417.398.475;34.097.459.792;731;7162;0FD0;small_airport;The 2A Ranch Airport;40;NA;US;US-FL;Ormond Beach;no;0FD0;;0FD0;;;4000;75;TURF;0;0
-95.592.179.626;35.310.672.181;732;7163;0FD1;heliport;Panhandle Helicopter LLC Heliport;20;NA;US;US-FL;Panama City Beach;no;0FD1;;0FD1;;;50;40;ASPH;0;0
-89.319.420.941;29.941.295.961;733;7164;0FD2;heliport;Hard Rock Stadium Heliport;8;NA;US;US-FL;Miami Gardens;no;0FD2;;0FD2;;;48;48;CONC;0;0
-95.839.183.556;35.675.184.647;734;7165;0FD3;small_airport;Dugger Field;70;NA;US;US-FL;Freeport;no;0FD3;;0FD3;;;2100;50;TURF;0;0
-96.118.144.738;36.094.206.348;735;7167;0FD5;small_airport;Breezy Knoll Airport;235;NA;US;US-FL;Defuniak Springs;no;0FD5;;0FD5;;;2100;100;TURF;0;0
-89.597.047.064;32.373.165.669;736;7168;0FD6;seaplane_base;Fulton Seaplane Base;;NA;US;US-FL;Sebastian;no;0FD6;;0FD6;;;3000;100;WATER;0;0
-95.856.543.254;35.876.495.995;737;7169;0FD9;small_airport;Joy Farms Airport;290;NA;US;US-FL;Defuniak Springs;no;0FD9;;0FD9;;;1975;60;TURF;0;0
-90.364.207.795;30.870.166.488;738;7170;0FL0;small_airport;Harper's Fly-In Ranch Airport;30;NA;US;US-FL;Clewiston;no;0FL0;;0FL0;;;2300;100;TURF;0;0
-92.212.170.342;35.014.032.663;739;7171;0FL1;closed;Thompson Airfield;110;NA;US;US-FL;Branford;no;;;;;;2575;50;TURF;0;0
-90.351.573.956;33.486.653.325;740;7172;0FL2;seaplane_base;Alligator Drink Seaplane Base;19;NA;US;US-FL;Geneva;no;0FL2;;0FL2;;;2000;100;WATER;0;0
-92.374.802.644;34.525.950.308;741;7173;0FL3;heliport;Old Town Ems Heliport;25;NA;US;US-FL;Old Town;no;0FL3;;0FL3;;;60;60;CONC;1;0
-95.042.692.735;35.944.967.387;742;7174;0FL4;heliport;Jackson Heliport;110;NA;US;US-FL;Alford;no;0FL4;;0FL4;;;100;100;CONC;0;0
-90.558.072.835;33.069.166.475;743;7175;0FL5;seaplane_base;Lake Conway South Seaplane Base;80;NA;US;US-FL;Belle Isle;no;0FL5;;0FL5;;;2000;100;WATER;0;0
-91.439.349.249;32.245.618.167;744;7176;0FL6;small_airport;Stanchester Airport;96;NA;US;US-FL;Lithia;no;27FA;;27FA;;;500;60;TURF;0;0
-90.635.664.911;33.261.388.503;745;7177;0FL7;heliport;Wcpx Tv-6 Heliport;114;NA;US;US-FL;Orlando;no;0FL7;;0FL7;;;35;35;CONC;0;0
-90.927.875.177;35.284.982.003;746;7178;0FL8;seaplane_base;Gary Gale Seaplane Base;;NA;US;US-FL;Jacksonville;no;0FL8;;0FL8;;;2000;100;WATER;0;0
-90.200.780.764;30.478.439.982;747;7179;0FL9;small_airport;Mc Daniel Ranch Inc. Airport;18;NA;US;US-FL;Clewiston;no;0FL9;;0FL9;;;3400;116;TURF;0;0
-87.612.112.798;5.327.693.002;748;7180;0G0;small_airport;North Buffalo Suburban Airport;588;NA;US;US-NY;Lockport;no;K0G0;;0G0;;;2830;50;ASPH-F;1;0
-100.614.451.961;60.780.058.396;749;7181;0G5;seaplane_base;Grand Marais/Cook County Seaplane Base;1635;NA;US;US-MN;Grand Marais;no;0G5;;0G5;;;3000;2000;WATER;0;0
-93.917.030.099;39.426.797.162;750;7182;0GA0;small_airport;Halls Flying Ranch Airport;800;NA;US;US-GA;Hampton;no;0GA0;;0GA0;;;2150;50;TURF;0;0
-92.280.632.225;40.931.544.582;751;7183;0GA1;small_airport;Mustang Field;693;NA;US;US-GA;Hartwell;no;0GA1;;0GA1;;;2000;75;TURF;0;0
-92.334.732.655;40.796.582.289;752;7184;0GA2;small_airport;Airnautique, Inc. Airport;720;NA;US;US-GA;Hartwell;no;0GA2;;0GA2;;;2600;60;TURF;1;0
-94.689.247.916;39.979.736.415;753;7185;0GA3;small_airport;Ayresouth Airport;1287;NA;US;US-GA;Temple;no;0GA3;;0GA3;;;2000;100;TURF;0;0
-93.830.197.634;4.090.035.222;754;7187;0GA5;heliport;Big Canoe Heliport;1475;NA;US;US-GA;Jasper;no;0GA5;;0GA5;;;100;100;TURF;0;0
-93.306.663.442;39.930.598.808;755;7188;0GA6;small_airport;Sunset Strip;780;NA;US;US-GA;Jersey;no;0GA6;;0GA6;;;2100;150;TURF;0;0
-92.856.533.196;36.172.148.544;756;7190;0GA8;small_airport;Paso Fino Farm Airport;200;NA;US;US-GA;Valdosta;no;0GA8;;0GA8;;;3000;100;TURF;0;0
-9.353.898.105;38.573.904.563;757;7191;0GA9;small_airport;Roberta Industrial Park Airport;505;NA;US;US-GA;Roberta;no;0GA9;;0GA9;;;4400;100;TURF;0;0
-94.399.814.862;39.995.808.634;758;7192;0GE0;small_airport;Pinewood Airport;1085;NA;US;US-GA;Douglasville;no;0GE0;;0GE0;;;2000;30;TURF;0;0
-92.892.884.328;37.194.820.357;759;7193;0GE1;small_airport;Crystal Lake Airpark;327;NA;US;US-GA;Irwinville;no;0GE1;;0GE1;;;3000;40;GRVL-TRTD-P;0;0
-95.133.304.586;41.509.379.519;760;7194;0GE3;small_airport;Lookout Mountain Airport;563;NA;US;US-GA;Trenton;no;0GE3;;0GE3;;;2000;50;TURF;0;0
-93.805.262.178;39.393.750.809;761;7195;0GE4;small_airport;Pecan Patch Airstrip;860;NA;US;US-GA;Sunnyside;no;0GE4;;0GE4;;;1045;80;TURF;0;0
-93.189.443.013;41.044.895.638;762;7196;0GE5;small_airport;Mountain Airpark;1438;NA;US;US-GA;Cleveland;no;0GE5;;0GE5;;;2500;200;TURF;0;0
-91.696.644.836;39.645.707.243;763;7197;0GE7;small_airport;Carpenter Airport;450;NA;US;US-GA;Appling;no;0GE7;;0GE7;;;3000;90;TURF;0;0
-91.057.784.153;38.547.445.743;764;7198;0GE9;small_airport;Pegasus Ranch Airport;230;NA;US;US-GA;Rocky Ford;no;0GE9;;0GE9;;;2000;100;TURF;0;0
-102.086.985.072;49.273.985.201;765;7199;0H7;small_airport;Kahoka Municipal Airport;700;NA;US;US-MO;Kahoka;no;;;0H7;;;2680;115;TURF-G;0;0
-96.958.943.556;47.901.865.908;766;7200;0I2;small_airport;Brazil Clay County Airport;645;NA;US;US-IN;Brazil;no;0I2;;0I2;;;2941;40;ASPH-G;1;0
-103.633.993.896;50.591.970.665;767;7201;0IA0;heliport;Knoxville Area Community Hospital Heliport;927;NA;US;US-IA;Knoxville;no;0IA0;;0IA0;;;65;65;CONC;0;0
-105.606.910.034;51.697.165.085;768;7202;0IA1;heliport;St Anthony Regional Hospital Heliport;1300;NA;US;US-IA;Carroll;no;0IA1;;0IA1;;;42;42;CONC-G;0;0
-105.685.164.565;51.184.575.165;769;7203;0IA2;heliport;Audubon County Memorial Hospital Heliport;1320;NA;US;US-IA;Audubon;no;0IA2;;0IA2;;;60;50;CONC;0;0
-101.356.510.174;50.172.696.249;770;7205;0IA4;small_airport;Sharar Field;700;NA;US;US-IA;Mediapolis;no;0IA4;;0IA4;;;3000;100;TURF;1;0
-103.819.566.015;49.935.094.309;771;7206;0IA5;small_airport;Moore Private Airport;1060;NA;US;US-IA;Millerton;no;0IA5;;0IA5;;;2000;60;TURF;0;0
-10.273.664.896;5.110.139.378;772;7207;0IA6;closed;Rinehart Airport;920;NA;US;US-IA;Victor;no;;;;;;2600;80;TURF;0;0
-105.160.076.153;50.180.808.731;773;7208;0IA7;heliport;Cromwell Heliport;1300;NA;US;US-IA;Cromwell;no;0IA7;;0IA7;;;145;145;CONC;0;0
-102.136.745.387;51.951.942.578;774;7209;0IA8;small_airport;Hannen Airport;925;NA;US;US-IA;Center Point;no;0IA8;;0IA8;;;1280;70;TURF;0;0
-101.634.808.901;49.877.992.784;775;7210;0IA9;heliport;Army Reserve Heliport;725;NA;US;US-IA;Middleton;no;0IA9;;0IA9;;;50;50;TURF;0;0
-128.136.528.781;54.047.322.787;776;7211;0ID0;small_airport;South Fork Ranch Airport;4861;NA;US;US-ID;Featherville;no;0ID0;;0ID0;;;3000;80;TURF;0;0
-127.577.706.161;52.575.174.702;777;7212;0ID1;small_airport;Ziggy's Airport;3225;NA;US;US-ID;Filer;no;0ID1;;0ID1;;;1900;75;TURF-G;0;0
-128.766.590.712;53.235.167.877;778;7214;0ID3;small_airport;Coyote Run Airport;3150;NA;US;US-ID;Mountain Home;no;0ID3;;0ID3;;;2640;50;DIRT;0;0
-12.742.742.247;53.192.349.378;779;7215;0ID4;small_airport;Black Butte Ranch Airport;4020;NA;US;US-ID;Shoshone;no;0ID4;;0ID4;;;3150;80;TURF;0;0
-129.644.903.126;53.200.577.933;780;7216;0ID5;small_airport;Ez Lope Ranch Airport;3130;NA;US;US-ID;Oreana;no;0ID5;;0ID5;;;1460;40;TURF-DIRT-F;0;0
-126.783.352.141;56.489.229.428;781;7217;0ID6;heliport;Steele Memorial Heliport;4004;NA;US;US-ID;Salmon;no;67ID;;67ID;;;40;40;CONC;1;0
-129.980.190.768;53.470.930.324;782;45394;0ID7;small_airport;Z X Ranch Airport;3820;NA;US;US-ID;Murphy;no;0ID7;;0ID7;;;2600;50;DIRT;0;0
-129.331.499.813;5.744.478.355;783;45387;0ID8;small_airport;Pinnacle Airport;3800;NA;US;US-ID;Grangeville;no;0ID8;;0ID8;;;800;50;TURF;0;0
-12.965.506.995;5.907.096.133;784;329280;0ID9;small_airport;Corral Creek Airport;2895;NA;US;US-ID;Helmer;no;0ID9;;0ID9;;;2308;60;Turf/Dirt;0;0
-94.903.592.878;49.035.608.493;785;7218;0II0;small_airport;Chuck's Airport;955;NA;US;US-IN;Albany;no;0II0;;0II0;;;1500;50;TURF;0;0
-95.905.411.994;49.283.491.081;786;7219;0II1;small_airport;Unsicker Airport;816;NA;US;US-IN;Bremen;no;0II1;;0II1;;;1300;60;TURF;0;0
-95.873.240.499;50.800.288.579;787;7220;0II2;small_airport;Creighton Airport;820;NA;US;US-IN;Bremen;no;0II2;;0II2;;;1300;75;TURF;0;0
-95.776.845.303;49.575.962.924;788;7221;0II3;closed;Miller Strip;810;NA;US;US-IN;Bunker Hill;no;;;;;;2400;50;TURF;0;0
-95.545.181.266;5.107.666.689;789;7223;0II6;small_airport;Kropf Airport;810;NA;US;US-IN;Goshen;no;0II6;;0II6;;;3000;100;TURF;0;0
-95.496.652.246;48.362.838.633;790;7224;0II7;small_airport;Frost Field;900;NA;US;US-IN;Greenfield;no;0II7;;0II7;;;2500;100;TURF;0;0
-97.377.725.048;50.603.680.685;791;7225;0II8;small_airport;Sutton's Field;740;NA;US;US-IN;Lowell;no;0II8;;0II8;;;1400;100;TURF-G;0;0
-96.377.300.235;47.984.824.053;792;7226;0II9;small_airport;Winters Airport;755;NA;US;US-IN;Hall;no;0II9;;0II9;;;1600;75;TURF;0;0
-98.561.055.175;45.916.809.275;793;7227;0IL0;heliport;Hamilton Memorial Hospital Heliport;440;NA;US;US-IL;Mc Leansboro;no;0IL0;;0IL0;;;30;30;CONC-G;0;0
-97.779.036.432;51.401.657.904;794;7228;0IL1;heliport;Loyola University Medical Center Heliport;623;NA;US;US-IL;Broadview;no;0IL1;;0IL1;;;90;90;CONC;0;0
-99.071.873.287;46.935.001.682;795;45950;0IL2;small_airport;Griffin Airport;541;NA;US;US-IL;Alma;no;0IL2;;0IL2;;;1600;100;TURF-G;0;0
-97.598.806.956;48.887.835.349;796;7229;0IL3;closed;Flying B Ranch Airport;696;NA;US;US-IL;Danville;no;;;;;;1800;200;TURF;0;0
-97.969.697.895;51.338.665.759;797;7230;0IL4;heliport;Advocate Good Samaritan Hospital Heliport;772;NA;US;US-IL;Downers Grove;no;0IL4;;0IL4;;;40;40;CONC-G;0;0
-98.759.647.068;51.554.536.695;798;7231;0IL6;heliport;Kishwaukee Community Hospital Heliport;852;NA;US;US-IL;De Kalb;no;0IL6;;0IL6;;;40;40;CONC;1;0
-9.856.974.446;48.344.463.336;799;352229;0IL7;small_airport;Davis Restricted Landing Area;682;NA;US;US-IL;Hammond;no;0IL7;;0IL7;;;2024;100;Turf;0;0
-98.766.772.166;51.418.998.045;800;7232;0IL8;small_airport;Walter Airport;890;NA;US;US-IL;DeKalb;no;0IL8;;0IL8;;;1600;100;TURF;0;0
-98.836.694.165;51.390.893.943;801;7233;0IL9;small_airport;Jack W Watson Airport;880;NA;US;US-IL;DeKalb;no;0IL9;;0IL9;;;2800;100;TURF;0;0
-97.511.311.493;46.503.018.367;802;7234;0IN1;small_airport;Snider Field;400;NA;US;US-IN;Decker;no;0IN1;;0IN1;;;2000;75;TURF;0;0
-94.717.410.714;49.869.753.972;803;7235;0IN2;small_airport;The Lazy K Airport;835;NA;US;US-IN;Tocsin;no;0IN2;;0IN2;;;1300;60;TURF;0;0
-96.474.995.508;50.290.286.242;804;7236;0IN3;closed;Graves Landing Strip;704;NA;US;US-IN;Winamac;no;;;;;;2200;50;TURF;0;0
-94.569.587.651;50.311.520.737;805;7237;0IN4;small_airport;Air Park Field;750;NA;US;US-IN;New Haven;no;0IN4;;0IN4;;;2440;30;ASPH;0;0
-95.771.977.301;46.260.609.417;806;7238;0IN5;small_airport;Byrne Field;800;NA;US;US-IN;Byrneville;no;0IN5;;0IN5;;;1200;150;TURF;0;0
-95.986.452.111;48.546.867.188;807;7239;0IN7;closed;Roto-Whirl/Holiday Heliport;875;NA;US;US-IN;Indianapolis;no;;;;;;50;50;ASPH;0;0
-95.866.783.659;48.423.271.054;808;7240;0IN8;closed;Roto-Whirl/Vantage Heliport;726;NA;US;US-IN;Indianapolis;no;;;;;;50;50;TURF;0;0
-97.907.051.468;4.578.451.009;809;7241;0IN9;small_airport;Parrish Airport;390;NA;US;US-IN;Mount Vernon;no;0IN9;;0IN9;;;2400;100;TURF;0;0
-100.823.625.184;50.835.646.253;810;7242;0IS0;heliport;Trinity Medical Center West Heliport;664;NA;US;US-IL;Rock Island;no;0IS0;;0IS0;;;40;40;ASPH;0;0
-97.797.067.078;51.749.358.157;811;7243;0IS2;heliport;Evanston/Glenbrook Heliport;678;NA;US;US-IL;Glenview;no;0IS2;;0IS2;;;60;60;CONC;1;0
-99.846.462.708;51.103.037.176;812;7244;0IS3;small_airport;Cady Aerial RLA Restricted Landing Area;630;NA;US;US-IL;Deer Grove;no;0IS3;;0IS3;;;2500;60;TURF-GRVL;0;0
-9.870.866.357;48.314.893.213;813;7245;0IS4;small_airport;Dawson Farms Airport;670;NA;US;US-IL;Lovington;no;0IS4;;0IS4;;;2415;60;TURF;0;0
-99.256.462.272;44.901.900.537;814;7246;0IS6;heliport;Dongola Heliport;383;NA;US;US-IL;Dongola;no;0IS6;;0IS6;;;100;100;CONC;0;0
-99.300.218.225;51.173.988.767;815;7248;0IS9;heliport;Bernardin Heliport;830;NA;US;US-IL;West Brooklyn;no;0IS9;;0IS9;;;500;500;TURF;0;0
-9.488.690.052;3.710.930.337;816;7249;0J0;small_airport;Abbeville Municipal Airport;468;NA;US;US-AL;Abbeville;no;;;0J0;;;2915;80;ASPH-G;1;0
-91.848.261.928;34.545.412.102;817;7250;0J8;small_airport;Flying Ten Airport;85;NA;US;US-FL;Archer;no;0J8;;0J8;;;3200;170;TURF-F;1;0
-93.232.972.299;46.392.659.849;818;345693;0JY9;heliport;Fleming County Hospital Heliport;943;NA;US;US-KY;Flemingsburg;no;0JY9;;0JY9;;;50;40;CON;0;0
-106.399.690.275;4.325.210.024;819;7251;0K6;small_airport;Dobie's Airport;610;NA;US;US-OK;Inola;no;;;0K6;;;1575;150;TURF-G;0;0
-106.783.556.168;46.692.803.458;820;7252;0KS0;small_airport;J V Ranch Airport;1180;NA;US;US-KS;Osage City;no;0KS0;;0KS0;;;2600;100;TURF;0;0
-10.609.760.146;46.588.400.373;821;7253;0KS2;closed;Kellie Mann Airfield;1045;NA;US;US-KS;Ottawa;no;;;;;;2400;150;Turf;0;0
-106.165.460.708;4.694.097.705;822;7255;0KS4;small_airport;Norris Airport;1065;NA;US;US-KS;Lawrence;no;0KS4;;0KS4;;;2000;65;TURF;0;0
-108.333.681.638;45.023.267.546;823;7256;0KS6;closed;Kendrigan Airport;1240;NA;US;US-KS;Peck;no;;;;;;2295;100;TURF;0;0
-10.896.664.016;45.361.189.959;824;7257;0KS7;small_airport;Mono Aircraft Airport;1450;NA;US;US-KS;Cheney;no;0KS7;;0KS7;;;2000;75;TURF;0;0
-106.170.633.117;44.925.572.675;825;7258;0KS8;small_airport;Pearce Field;950;NA;US;US-KS;Parsons;no;0KS8;;0KS8;;;1700;60;TURF;0;0
-107.890.627.621;45.112.625.935;826;7259;0KS9;small_airport;Lmn 120 Airport;1330;NA;US;US-KS;Douglas;no;0KS9;;0KS9;;;3000;150;TURF;0;0
-94.375.439.943;46.677.838.796;827;7260;0KY0;small_airport;Owen Air Park;890;NA;US;US-KY;Owenton;no;0KY0;;0KY0;;;2300;70;TURF;0;0
-96.423.052.043;4.406.484.381;828;7261;0KY1;small_airport;Arnemann Farms Airport;504;NA;US;US-KY;Franklin;no;0KY1;;0KY1;;;3200;75;ASPH;0;0
-96.667.064.516;4.509.817.184;829;7262;0KY2;heliport;Mgt Station 2105 Heliport;540;NA;US;US-KY;Hartford;no;0KY2;;0KY2;;;35;35;CONC;0;0
-93.455.823.901;46.590.397.708;830;7263;0KY3;closed;Tennessee Gas Heliport;604;NA;US;US-KY;Load;no;;;;;;30;30;CONC;0;0
-96.939.129.379;4518071.55;831;7264;0KY4;small_airport;Cambron Field;427;NA;US;US-KY;Owensboro;no;0KY4;;0KY4;;;1675;75;TURF;0;0
-96.154.911.897;44.129.824.175;832;7265;0KY5;small_airport;Boyce Wafer Farm Airport;600;NA;US;US-KY;Alvaton;no;;;0KY5;;;2800;100;TURF;0;0
-91.924.851.397;46.173.971.041;833;7266;0KY6;closed;Tennessee Gas Heliport;560;NA;US;US-KY;Burnaugh;no;;;;;;80;20;ASPH;0;0
-99.072.784.093;43.885.045.823;834;7267;0KY7;small_airport;Clinton-Hickman County Airport;360;NA;US;US-KY;Clinton;no;0KY7;;0KY7;;;2200;60;TURF;0;0
-93.214.599.017;4.455.455.431;835;7268;0KY8;closed;Sky Airport;850;NA;US;US-KY;Manchester;no;;;;;;2300;60;TURF;0;0
-130.456.426.562;45.070.393.455;836;7270;0L4;small_airport;Lida Junction Airport;4684;NA;US;US-NV;Goldfield;no;0L4;;0L4;;;6100;80;DIRT-G;0;0
-103.133.156.741;37.533.154.918;837;7272;0L6;heliport;Winn Parish Medical Center Heliport;140;NA;US;US-LA;Winnfield;no;K0L6;;0L6;;;50;50;CONC-G;1;0
-103.973.523.162;3.504.001.672;838;7273;0LA0;heliport;West Hackberry Heliport;10;NA;US;US-LA;Hackberry;no;0LA0;;0LA0;;;25;25;CONC;0;0
-10.127.112.152;35.330.713.691;839;7274;0LA1;small_airport;Double H Ranch Airport;15;NA;US;US-LA;Gonzales;no;0LA1;;0LA1;;;3000;100;TURF;0;0
-10.449.949.886;38.620.745.616;840;7276;0LA3;small_airport;Belcher Airpatch Airport;280;NA;US;US-LA;Belcher;no;0LA3;;0LA3;;;2700;180;TURF;0;0
-104.628.074.435;38.772.795.597;841;7277;0LA4;heliport;North Caddo Medical Center Heliport;200;NA;US;US-LA;Vivian;no;0LA4;;0LA4;;;40;40;CONC;1;0
-100.148.068.936;34.086.355.702;842;7278;0LA5;heliport;Conoco Inc Heliport;3;NA;US;US-LA;Grand Isle;no;0LA5;;0LA5;;;400;400;CONC;0;0
-100.151.162.504;34.081.085.992;843;7280;0LA7;heliport;Exxon Heliport;6;NA;US;US-LA;Grand Isle;no;0LA7;;0LA7;;;750;25;ASPH;1;0
-103.214.090.464;3.796.559.184;844;7281;0LA8;heliport;Jackson Parish Hospital Heliport;183;NA;US;US-LA;Jonesboro;no;0LA8;;0LA8;;;50;50;CONC;0;0
-101.146.563.136;35.791.380.556;845;7282;0LA9;small_airport;Rebel Field;74;NA;US;US-LA;Watson;no;0LA9;;0LA9;;;2200;100;TURF;0;0
-98.771.283.945;5.200.797.147;846;7283;0LL0;small_airport;Kaufield Airport;783;NA;US;US-IL;Belvidere;no;0LL0;;0LL0;;;2030;70;TURF;1;0
-100.536.417.298;47.351.739.299;847;7284;0LL1;small_airport;Jerseyville Aviation Inc Airport;604;NA;US;US-IL;Jerseyville;no;0LL1;;0LL1;;;2500;120;TURF;0;0
-100.611.334.078;49.739.053.078;848;7285;0LL2;small_airport;Murk's Strip;700;NA;US;US-IL;St. Augustine;no;0LL2;;0LL2;;;2600;75;TURF;0;0
-100.568.367.975;47.295.529.592;849;7286;0LL3;small_airport;Koenig Airport;614;NA;US;US-IL;Jerseyville;no;0LL3;;0LL3;;;2000;100;TURF;0;0
-99.211.381.412;50.743.717.226;850;7287;0LL4;small_airport;Flaherty Field;664;NA;US;US-IL;La Salle;no;0LL4;;0LL4;;;2143;100;TURF;0;0
-98.048.425.998;48.819.401.677;851;7288;0LL5;small_airport;Busboom RLA Restricted Landing Area;675;NA;US;US-IL;St Joseph;no;0LL5;;0LL5;;;2230;70;TURF;0;0
-98.637.526.175;51.159.075.364;852;7289;0LL6;small_airport;Gord Airport;710;NA;US;US-IL;Sandwich;no;0LL6;;0LL6;;;2600;70;TURF;0;0
-98.652.776.555;51.098.854.838;853;7290;0LL7;heliport;Northwestern Medicine Valley West Hospital Heliport;670;NA;US;US-IL;Sandwich;no;0LL7;;0LL7;;;40;40;ASPH;0;0
-100.472.183.426;51.884.914.373;854;7291;0LL9;closed;Savanna Army Depot Helipad;650;NA;US;US-IL;Savanna;no;;;;;;100;100;CONC;1;0
-101.006.632.416;34.714.165.863;855;7292;0LS0;small_airport;Theriot Field;13;NA;US;US-LA;Thibodaux;no;0LS0;;0LS0;;;3000;144;TURF;0;0
-99.491.123.949;34.134.637.076;856;7295;0LS3;heliport;Evergreen Venice Heliport;;NA;US;US-LA;Venice;no;0LS3;;0LS3;;;100;100;TURF;0;0
-102.623.215.512;36.079.301.676;857;7296;0LS4;closed;Buller's Airstrip;47;NA;US;US-LA;Bunkie;no;;;;;;1700;60;TURF-G;0;0
-102.559.255.785;35.426.573.561;858;7297;0LS5;small_airport;Trahan Ultralightport;40;NA;US;US-LA;Carencro;no;0LS5;;0LS5;;;650;250;TURF;0;0
-101.839.745.066;35.825.653.671;859;7299;0LS7;small_airport;Morgan Field;36;NA;US;US-LA;New Roads;no;0LS7;;0LS7;;;3000;100;TURF-G;0;0
-103.461.781.271;35.403.400.433;860;7300;0LS8;small_airport;Lonesome Dove Airfield;34;NA;US;US-LA;Woodlawn;no;0LS8;;0LS8;;;2500;140;TURF;0;0
-102.398.981.322;38.309.194.369;861;7301;0LS9;small_airport;Huenefeld Airport;72;NA;US;US-LA;Monroe;no;0LS9;;0LS9;;;1530;75;TURF-GRVL-P;0;0
-79.113.806.986;52.156.099.685;862;7302;0MA1;heliport;Massachusetts General Hospital Heliport;214;NA;US;US-MA;Boston;no;0MA1;;0MA1;;;60;60;ASPH;0;0
-79.885.985.903;52.423.513.632;863;7303;0MA2;heliport;Healthalliance Hospital-Leominster Heliport;450;NA;US;US-MA;Leominster;no;0MA2;;0MA2;;;60;60;ASPH;0;0
-79.294.472.953;51.290.104.317;864;7304;0MA3;heliport;Reh Heliport;100;NA;US;US-MA;Rehoboth;no;0MA3;;0MA3;;;1600;1600;ASPH;0;0
-79.116.267.146;52.111.135.588;865;7305;0MA4;heliport;Boston Medical Center Hospital Heliport;19;NA;US;US-MA;Boston;no;0MA4;;0MA4;;;40;40;CONC;0;0
-79.099.066.698;51.693.567.604;866;7306;0MA5;heliport;Brockton Usar Center Heliport;85;NA;US;US-MA;Brockton;no;0MA5;;0MA5;;;100;100;SOD;0;0
-79.184.446.858;52.158.276.526;867;7307;0MA6;heliport;Wbz Heliport;9;NA;US;US-MA;Boston;no;0MA6;;0MA6;;;50;50;ASPH;0;0
-80.048.066.375;52.366.420.597;868;7309;0MA9;heliport;Lleia Kyle O'Meara Heliport;1230;NA;US;US-MA;Westminster;no;0MA9;;0MA9;;;25;25;TURF;0;0
-85.296.665.881;47.414.007.935;869;7310;0MD0;heliport;Baltimore Washington Medical Center Heliport;77;NA;US;US-MD;Glen Burnie;no;0MD0;;0MD0;;;79;64;CONC;0;0
-84.372.049.614;4.748.536.547;870;7311;0MD1;small_airport;Taylor Field;75;NA;US;US-MD;Sudlersville;no;0MD1;;0MD1;;;3000;50;TURF;0;0
-85.568.593.075;4.620.159.764;871;7312;0MD2;small_airport;Squier Landing Airport;16;NA;US;US-MD;Newburg;no;0MD2;;0MD2;;;2200;30;TURF;1;0
-85.262.871.905;47.644.082.952;872;7313;0MD3;closed;Johns Hopkins Hospital Heliport;260;NA;US;US-MD;Baltimore;no;;;;;;90;90;CONC;1;0
-84.811.205.821;47.599.607.471;873;7314;0MD4;small_airport;Pond View Private Airport;47;NA;US;US-MD;Chestertown;no;0MD4;;0MD4;;;2600;100;TURF;1;0
-85.584.963.719;47.342.683.179;874;7315;0MD5;heliport;UM Laurel Medical Center Heliport;285;NA;US;US-MD;Laurel;no;0MD5;;0MD5;;;90;90;ASPH;0;0
-85.833.780.385;47.764.230.696;875;7316;0MD6;small_airport;Walters Airport;750;NA;US;US-MD;Mount Airy;no;0MD6;;0MD6;;;1800;60;TURF;0;0
-84.736.059.729;4.708.688.142;876;7317;0MD7;heliport;The Aspen Institute Heliport;20;NA;US;US-MD;Queenstown;no;0MD7;;0MD7;;;100;100;TURF;0;0
-85.266.253.791;46.589.603.325;877;7319;0MD9;heliport;Calvert Memorial Hospital Heliport;143;NA;US;US-MD;Prince Frederick;no;0MD9;;0MD9;;;55;55;CONC;1;0
-76.225.356.743;55.810.692.087;878;45455;0ME4;small_airport;Peasley Field;271;NA;US;US-ME;Otis;no;0ME4;;0ME4;;;2000;110;TURF;0;0
-78.437.957.414;54.406.712.771;879;345496;0ME7;seaplane_base;Sebago Lake Basin Seaplane Base;266;NA;US;US-ME;North Windham;no;0ME7;;0ME7;;;4000;400;Water;0;0
-93.995.395.039;54.871.798.195;880;7321;0MI1;small_airport;Sugar Springs Airpark;940;NA;US;US-MI;Gladwin;no;;;5M6;;;3500;50;TURF;0;0
-94.046.488.946;55.639.912.758;881;7323;0MI3;small_airport;Kelleys Airport;1000;NA;US;US-MI;Grayling;no;0MI3;;0MI3;;;1800;100;TURF;0;0
-97.278.202.369;58.237.548.703;882;7324;0MI4;small_airport;Lesterson-Dempsey Airstrip;1120;NA;US;US-MI;Gwinn;no;0MI4;;0MI4;;;3000;100;TURF;0;0
-94.826.392.931;58.426.654.353;883;7325;0MI6;small_airport;Young's Airport;800;NA;US;US-MI;Hulbert;no;0MI6;;0MI6;;;2200;300;TURF;1;0
-92.794.758.671;51.674.208.647;884;7326;0MI7;heliport;Four Star Heliport;603;NA;US;US-MI;Carleton;no;0MI7;;0MI7;;;35;35;CONC;1;0
-93.839.901.747;56.048.674.345;885;7327;0MI8;small_airport;Twin Lakes Airport;1275;NA;US;US-MI;Lewiston;no;;;MI55;;;1600;100;Torf;0;0
-92.489.126.959;52.161.891.661;886;7328;0MI9;heliport;Henry Ford Hospital Heliport;633;NA;US;US-MI;Detroit;no;0MI9;;0MI9;;;50;50;CONC;1;0
-103.509.427.019;55.896.042.849;887;7329;0MN0;seaplane_base;Winner's Landing Seaplane Base;690;NA;US;US-MN;St Paul Park;no;0MN0;;0MN0;;;5500;700;WATER;0;0
-103.530.464.188;58.017.365.567;888;7331;0MN2;seaplane_base;Grindstone Lake Seaplane Base;1025;NA;US;US-MN;Sandstone;no;0MN2;;0MN2;;;11000;3000;WATER;0;0
-104.965.934.593;58.896.403.696;889;7332;0MN3;seaplane_base;Lower Hay Lake Seaplane Base;1230;NA;US;US-MN;Jenkins;no;0MN3;;0MN3;;;5000;100;WATER;0;0
-104.977.731.375;58.571.533.547;890;7333;0MN4;seaplane_base;Paul's Seaplane Base;1200;NA;US;US-MN;Nisswa;no;0MN4;;0MN4;;;5000;300;WATER;0;0
-10.566.101.087;55.131.059.755;891;7334;0MN5;closed;Pankratz Airport;1033;NA;US;US-MN;Springfield;no;;;;;;2800;60;TURF;0;0
-102.863.992.752;5.413.314.948;892;7335;0MN6;small_airport;Matson Field;1365;NA;US;US-MN;Spring Valley;no;0MN6;;0MN6;;;2500;150;TURF;1;0
-10227255.7;60.900.852.642;893;7336;0MN7;heliport;Ely Bloomenson Community Hospital Heliport;1450;NA;US;US-MN;Ely;no;0MN7;;0MN7;;;120;100;ASPH;0;0
-103.370.609.007;56.429.256.549;894;7337;0MN8;closed;Keller Airport;990;NA;US;US-MN;Stillwater;no;;;;;;1650;50;TURF;0;0
-104.325.952.834;56.709.799.232;895;7338;0MN9;heliport;Triple H Heliport;980;NA;US;US-MN;Big Lake;no;0MN9;;0MN9;;;50;50;CONC;1;0
-104.473.561.229;46.375.508.633;896;7339;0MO0;small_airport;Ferros Ranch-Aero Airport;775;NA;US;US-MO;Clinton;no;0MO0;;0MO0;;;1685;120;TURF;0;0
-104.745.744.993;46.566.333.262;897;7340;0MO1;small_airport;Flying G Airport;920;NA;US;US-MO;Creighton;no;0MO1;;0MO1;;;2100;50;TURF;0;0
-101.055.942.792;45.493.375.124;898;7341;0MO2;small_airport;Short-N-Ruff Airport;950;NA;US;US-MO;Caledonia;no;0MO2;;0MO2;;;1200;40;TURF;0;0
-105.279.071.619;47.338.975.053;899;7343;0MO4;heliport;Bert Walter Berkowitz Heliport;890;NA;US;US-MO;Kansas City;no;0MO4;;0MO4;;;18;18;CONC;0;0
-10.252.547.014;48.853.465.769;900;7344;0MO5;small_airport;Joe D Lewis Airport;780;NA;US;US-MO;Edina;no;0MO5;;0MO5;;;1800;60;TURF;0;0
-101.051.713.277;46.935.348.724;901;7346;0MO7;heliport;St Joseph Hospital West Heliport;531;NA;US;US-MO;Lake Saint Louis;no;0MO7;;0MO7;;;65;65;CONC;1;0
-101.007.744.999;4.741.831.129;902;7347;0MO8;small_airport;Sloan's Airport;437;NA;US;US-MO;Elsberry;no;0MO8;;0MO8;;;2600;130;TURF;0;0
-100.497.451.398;46.829.984.771;903;7348;0MO9;heliport;Emerson Heliport;575;NA;US;US-MO;Ferguson;no;0MO9;;0MO9;;;50;50;CONC;0;0
-98.647.658.328;38.258.243.366;904;7349;0MS0;small_airport;Topton Air Estates Airport;453;NA;US;US-MS;Meridian;no;0MS0;;0MS0;;;3200;100;ASPH;0;0
-99.510.386.081;37.033.138.404;905;7351;0MS2;small_airport;Morgan Field;300;NA;US;US-MS;Seminary;no;0MS2;;0MS2;;;2300;75;TURF;0;0
-99.652.091.837;40.755.993.888;906;7352;0MS3;heliport;Baptist Memorial Hospital-North Ms Heliport;430;NA;US;US-MS;Oxford;no;0MS3;;0MS3;;;30;30;CONC;0;0
-101.208.119.919;39.474.250.821;907;7354;0MS5;closed;Lewis Air Service Airport;120;NA;US;US-MS;Leland;no;;;;;;2700;60;TURF-G;0;0
-9.933.538.775;35.423.382.469;908;7355;0MS6;heliport;Levert Heliport;25;NA;US;US-MS;Pass Christian;no;0MS6;;0MS6;;;240;150;TURF-G;0;0
-99.233.641.658;40.748.984.008;909;7356;0MS7;closed;Hale Field;346;NA;US;US-MS;Pontotoc;no;;;;;;2100;60;TURF-G;0;0
-101.482.726.178;39.879.682.309;910;7357;0MS8;small_airport;Catfish Point Airport;154;NA;US;US-MS;Benoit;no;0MS8;;0MS8;;;4000;75;TURF;0;0
-99.104.734.772;40.020.723.495;911;7358;0MS9;small_airport;Shenandoah Valley Farms Airport;300;NA;US;US-MS;Houston;no;0MS9;;0MS9;;;3200;50;TURF;1;0
-125.113.087.606;60.236.604.212;912;7359;0MT1;small_airport;Williams Field;4070;NA;US;US-MT;Augusta;no;0MT1;;0MT1;;;1500;30;DIRT;0;0
-122.572.779.409;61.368.025.735;913;7360;0MT2;heliport;Big Sandy Medical Center Heliport;2750;NA;US;US-MT;Big Sandy;no;0MT2;;0MT2;;;30;30;CONC;0;0
-126.978.805.058;5.820.631.765;914;7361;0MT3;heliport;Stock Farm Heliport;3920;NA;US;US-MT;Hamilton;no;0MT3;;0MT3;;;40;40;TURF;0;0
-127.061.178.695;58.251.078.272;915;7362;0MT4;small_airport;Kimp Airport;3510;NA;US;US-MT;Hamilton;no;0MT4;;0MT4;;;1000;60;TURF;0;0
-121.170.151.446;57.219.222.111;916;7363;0MT5;small_airport;Cottonwood Airport;3350;NA;US;US-MT;Laurel;no;0MT5;;0MT5;;;750;40;TURF;0;0
-127.655.044.979;61.131.135.816;917;7364;0MT6;small_airport;Hanson Airport;3900;NA;US;US-MT;Marion;no;0MT6;;0MT6;;;2400;50;TURF;0;0
-128.467.144.408;60.506.085.756;918;7365;0MT7;small_airport;Pinehurst Ranch Airport;2460;NA;US;US-MT;Thompson Falls;no;0MT7;;0MT7;;;3800;50;TURF;0;0
-126.901.994.338;61.882.094.052;919;7366;0MT8;heliport;Glacier Heli Tours Heliport;3300;NA;US;US-MT;West Glacier;no;0MT8;;0MT8;;;100;60;ASPH-TURF;0;0
-12.744.039.985;61.872.813.116;920;7367;0MT9;small_airport;Lone Hawk Airport;3284;NA;US;US-MT;White Fish;no;0MT9;;0MT9;;;1700;52;TURF;0;0
-104.833.902.367;44.735.496.392;921;7369;0MU1;small_airport;Sunderland Airport;1027;NA;US;US-MO;Avilla;no;0MU1;;0MU1;;;2000;75;TURF;0;0
-100.456.389.416;46.897.674.646;922;7370;0MU2;heliport;Christian Hospital Northeast Heliport;520;NA;US;US-MO;Saint Louis;no;0MU2;;0MU2;;;20;20;CONC;0;0
-101.803.827.249;48.240.485.045;923;7371;0MU3;heliport;Hannibal Regional Hospital Heliport;744;NA;US;US-MO;Hannibal;no;0MU3;;0MU3;;;60;60;CONC;0;0
-103.378.957.505;48.103.108.475;924;7372;0MU4;small_airport;Slaughter Airport;800;NA;US;US-MO;Marceline;no;0MU4;;0MU4;;;1700;60;TURF;0;0
-104.634.087.481;4.681.600.144;925;7373;0MU5;heliport;Holden Heliport;865;NA;US;US-MO;Holden;no;0MU5;;0MU5;;;30;30;CONC;0;0
-104.346.327.549;47.321.765.291;926;7374;0MU6;heliport;Bradbury-Rolf Memorial Heliport;815;NA;US;US-MO;Higginsville;no;0MU6;;0MU6;;;60;60;CONC;0;0
-104.795.836.726;47.037.821.787;927;7375;0MU7;small_airport;Lambs Field;1070;NA;US;US-MO;Lone Jack;no;0MU7;;0MU7;;;2600;60;TURF;0;0
-99.919.264.731;45.004.338.301;928;7376;0MU8;small_airport;Prince STOLport;582;NA;US;US-MO;Millersville;no;0MU8;;0MU8;;;800;60;TURF;0;0
-103.464.006.439;55.172.602.867;929;7377;0MY0;heliport;Kenyon Heliport;1500;NA;US;US-MN;Kenyon;no;0MY0;;0MY0;;;200;60;GRVL;0;0
-123.585.782.358;57.276.229.851;930;7378;0MY1;heliport;Bozeman Deaconess Hospital Heliport;4925;NA;US;US-MT;Bozeman;no;0MY1;;0MY1;;;30;30;CONC;0;0
-105.132.575.808;47.634.552.779;931;7379;0N0;small_airport;Roosterville Airport;1004;NA;US;US-MO;Liberty;no;0N0;;0N0;;;2780;20;ASPH-G;1;0
-84.030.070.883;47.506.910.214;932;7380;0N4;small_airport;Chandelle Airport;22;NA;US;US-DE;Dover;no;;;0N4;;;2533;28;ASPH-P;1;0
-84.050.057.185;47.429.266.878;933;7381;0N5;heliport;Deldot Helistop;30;NA;US;US-DE;Dover;no;K0N5;;0N5;;;60;60;ASPH-G;1;0
-84.083.508.692;47.234.768.617;934;7382;0N6;small_airport;Albanna Aviation Airport;50;NA;US;US-DE;Felton;no;;;0N6;;;2048;40;TURF-G;0;0
-108.021.759.589;58.197.782.109;935;7383;0NA1;small_airport;Goerger Airport;1045;NA;US;US-ND;Barney;no;0NA1;;0NA1;;;2600;50;TURF;0;0
-110.832.909.658;61.070.376.102;936;7384;0NA5;small_airport;Sorlie Airport;1580;NA;US;US-ND;Maddock;no;0NA5;;0NA5;;;2200;60;TURF;0;0
-115.550.747.424;59.013.627.522;937;7385;0NA9;small_airport;Boyd's Turf Airport;2750;NA;US;US-ND;Golva;no;0NA9;;0NA9;;;2200;50;TURF;0;0
-86.773.208.449;42.182.093.939;938;7386;0NC0;heliport;Wayne Memorial Hospital Inc. Heliport;106;NA;US;US-NC;Goldsboro;no;0NC0;;0NC0;;;50;50;CONC;0;0
-88.452.501.482;41.917.711.618;939;7388;0NC2;heliport;Moore Regional Hospital Heliport;460;NA;US;US-NC;Pinehurst;no;0NC2;;0NC2;;;78;65;CONC;0;0
-85.381.714.814;42.834.624.197;940;7389;0NC3;heliport;Washington County Hospital Heliport;19;NA;US;US-NC;Plymouth;no;0NC3;;0NC3;;;70;70;TURF;0;0
-87.481.312.586;42.713.249.497;941;7390;0NC4;heliport;Wake Medical Center Heliport;245;NA;US;US-NC;Raleigh;no;0NC4;;0NC4;;;70;70;CONC;0;0
-86.594.541.142;42.894.678.037;942;7391;0NC5;heliport;Nash General Hospital Heliport;156;NA;US;US-NC;Rocky Mount;no;0NC5;;0NC5;;;40;40;CONC;1;0
-86.182.324.741;43.187.033.814;943;7392;0NC6;heliport;Our Community Hospital Heliport;113;NA;US;US-NC;Scotland Neck;no;0NC6;;0NC6;;;200;150;TURF;0;0
-89.051.295.702;43.509.354.721;944;7393;0NC7;small_airport;Lindsay Airport;700;NA;US;US-NC;Madison;no;0NC7;;0NC7;;;1700;75;TURF;0;0
-89.874.122.624;42.670.577.906;945;7394;0NC8;small_airport;Flying S Ranch Airport;830;NA;US;US-NC;Cleveland;no;0NC8;;0NC8;;;2300;100;TURF;0;0
-87.329.805.456;43.462.211.128;946;7395;0NC9;heliport;Maria Parham Health DLP Affiliate Heliport;465;NA;US;US-NC;Henderson;no;0NC9;;0NC9;;;60;60;CONC;0;0
-110.652.017.183;60.950.841.798;947;7396;0ND0;small_airport;Gilbertson Field;1550;NA;US;US-ND;Flora;no;0ND0;;0ND0;;;2600;50;TURF;0;0
-111.227.205.821;57.891.674.426;948;7397;0ND6;small_airport;Schumacher Strip;2020;NA;US;US-ND;Hague;no;0ND6;;0ND6;;;1600;25;TURF;0;0
-111.436.379.996;58.552.302.413;949;7398;0ND7;small_airport;Saville Private Airport;1961;NA;US;US-ND;Hazelton;no;0ND7;;0ND7;;;2600;60;TURF;0;0
-113.490.217.466;51.385.363.592;950;7399;0NE0;small_airport;Merrihew Airport;3815;NA;US;US-NE;Ashby;no;0NE0;;0NE0;;;2300;100;TURF;0;0
-113.470.182.473;52.221.725.256;951;7400;0NE1;small_airport;Runner Landing Area Airport;3760;NA;US;US-NE;Ashby;no;0NE1;;0NE1;;;2500;50;TURF;0;0
-113.453.485.432;51.410.176.694;952;7401;0NE2;closed;Merry Airport;3791;NA;US;US-NE;Ashby;no;;;;;;2000;50;TURF;0;0
-107.074.212.214;49.633.767.107;953;7402;0NE3;heliport;Syracuse Hospital Heliport;1120;NA;US;US-NE;Syracuse;no;0NE3;;0NE3;;;40;40;CONC;0;0
-110.151.082.872;4.880.076.968;954;7403;0NE4;heliport;Franklin County Memorial Hospital Heliport;1950;NA;US;US-NE;Franklin;no;0NE4;;0NE4;;;30;30;CONC;0;0
-109.171.695.229;49.291.094.931;955;7405;0NE6;small_airport;Frager Field;1765;NA;US;US-NE;Fairfield;no;0NE6;;0NE6;;;3500;100;ASPH;0;0
-8.286.029.751;47.732.221.996;956;7406;0NJ0;heliport;Atlantic City Medical Center Heliport;82;NA;US;US-NJ;Atlantic City;no;0NJ0;;0NJ0;;;51;44;MATS;1;0
-82.637.914.261;4.852.480.359;957;7407;0NJ1;heliport;Berkeley Township Police Heliport;54;NA;US;US-NJ;Bayville;no;0NJ1;;0NJ1;;;200;200;ASPH-G;0;0
-82.866.121.255;49.759.623.855;958;7408;0NJ2;heliport;Ballymere Heliport;280;NA;US;US-NJ;Morristown;no;0NJ2;;0NJ2;;;200;100;TURF;0;0
-83.266.532.382;48.611.190.184;959;7409;0NJ3;heliport;Mount Holly Heliport;45;NA;US;US-NJ;Mount Holly;no;0NJ3;;0NJ3;;;305;140;ASPH-TURF;0;0
-82.890.164.947;50.035.989.364;960;7410;0NJ4;heliport;Weichert Headquarters Heliport;103;NA;US;US-NJ;Morris Plains;no;0NJ4;;0NJ4;;;40;35;CONC;0;0
-83.080.960.262;47.671.524.619;961;7412;0NJ6;small_airport;Dix Field;8;NA;US;US-NJ;Linwood;no;0NJ6;;0NJ6;;;2950;100;TURF;0;0
-82.508.509.329;49.737.464.554;962;7413;0NJ7;heliport;Essex Generating Station Heliport;8;NA;US;US-NJ;Newark;no;0NJ7;;0NJ7;;;75;75;GRAVEL;0;0
-82.544.185.478;49.685.298.035;963;7414;0NJ8;heliport;Port Newark Helistop;10;NA;US;US-NJ;Newark;no;0NJ8;;0NJ8;;;75;75;ASPH;0;0
-82.830.493.107;49.355.463.907;964;7415;0NJ9;heliport;Jersey Tpke New Brunswick Helistop;70;NA;US;US-NJ;New Brunswick;no;0NJ9;;0NJ9;;;85;85;ASPH;0;0
-87.709.629.989;52.111.430.189;965;7416;0NK0;small_airport;Berdick Field;1690;NA;US;US-NY;Cattaraugus;no;0NK0;;0NK0;;;1400;40;TURF;0;0
-8.484.793.806;53.671.890.473;966;7417;0NK1;small_airport;Spring Brook Airport;450;NA;US;US-NY;Central Square;no;0NK1;;0NK1;;;2100;100;TURF;0;0
-82.394.453.833;53.094.452.611;967;7418;0NK2;small_airport;Westwind Farm Airport;800;NA;US;US-NY;Charlton;no;0NK2;;0NK2;;;3000;100;TURF;0;0
-86.598.160.329;52.657.612.683;968;7419;0NK3;small_airport;Seven Gullies Airport;600;NA;US;US-NY;Groveland;no;0NK3;;0NK3;;;2700;75;TURF;0;0
-81.878.572.368;49.720.811.473;969;7420;0NK4;heliport;Nassau University Medical Center Heliport;80;NA;US;US-NY;Hempstead;no;0NK4;;0NK4;;;40;40;CONC;0;0
-82.184.507.272;51.021.715.822;970;7421;0NK5;closed;Mid-Hudson Helicopter Service Heliport;270;NA;US;US-NY;Hopewell Junction;no;;;;;;50;50;ASPH;0;0
-82.070.391.435;50.275.150.082;971;7423;0NK7;heliport;King Street Heliport;470;NA;US;US-NY;Armonk;no;0NK7;;0NK7;;;50;50;CONC-G;1;0
-82.009.517.485;5.149.137.703;972;7424;0NK8;closed;Rocky Reef Farm Airport;450;NA;US;US-NY;Attlebury;no;;;;;;2500;50;TURF;0;0
-84.409.123.768;53.134.101.917;973;7425;0NK9;closed;Lakeview Airport;1050;NA;US;US-NY;Chittenango;no;;;;;;1700;60;TURF;0;0
-119.813.083.338;37.402.166.365;974;7426;0NM0;small_airport;Columbus Airport;4024;NA;US;US-NM;Columbus;no;0NM0;;0NM0;;;4210;250;GRAVEL;0;0
-120.827.289.615;39.655.854.587;975;7427;0NM7;small_airport;Negrito Airstrip;8143;NA;US;US-NM;Reserve;no;0NM7;;0NM7;;;4000;60;TURF-GRVL-F;0;0
-128.369.707.205;43.256.822.426;976;7428;0NV1;heliport;Summerlin Medical Center Heliport;2745;NA;US;US-NV;Las Vegas;no;0NV1;;0NV1;;;40;40;CONC;1;0
-82.351.947.371;54.180.513.344;977;7429;0NY0;small_airport;Bennetts Airport;1040;NA;US;US-NY;North Creek;no;0NY0;;0NY0;;;3000;150;TURF;0;0
-81.990.365.236;53.331.833.054;978;7430;0NY1;small_airport;Russell Field;260;NA;US;US-NY;Northumberland;no;0NY1;;0NY1;;;1360;125;TURF;0;0
-83.414.030.367;53.598.885.066;979;7431;0NY3;small_airport;Kermizian Airport;1440;NA;US;US-NY;Ohio;no;0NY3;;0NY3;;;1600;100;GRAVEL;0;0
-82.335.464.294;51.583.880.406;980;347051;0NY4;heliport;Bridgeview Heliport;133;NA;US;US-NY;Kingston;no;0NY4;;0NY4;;;35;35;Asph/Conc;0;0
-84.211.781.028;53.236.338.534;981;7432;0NY5;closed;State Police Troop D Heliport;507;NA;US;US-NY;Oneida;no;;;;;;100;75;ASPH;0;0
-85.288.244.956;5301147.29;982;7433;0NY6;heliport;New York State Police Troop E Zone 2 Auburn Heliport;600;NA;US;US-NY;Auburn;no;0NY6;;0NY6;;;25;25;CONC;1;0
-82.573.519.911;53.160.250.173;983;7434;0NY7;small_airport;Murphys Landing Strip;940;NA;US;US-NY;Amsterdam;no;0NY7;;0NY7;;;2000;75;GRAVEL;0;0
-82.649.600.633;53.115.607.658;984;7435;0NY8;small_airport;Wenskoski Field;800;NA;US;US-NY;Perth;no;0NY8;;0NY8;;;1700;100;TURF;0;0
-134.836.845.807;44.472.361.764;985;7436;0O0;seaplane_base;San Luis Reservoir Seaplane Base;544;NA;US;US-CA;Los Banos;no;0O0;;0O0;;;15840;4000;WATER;0;0
-136.000.132.448;48.577.497.234;986;7437;0O4;small_airport;Corning Municipal Airport;292;NA;US;US-CA;Corning;no;0O4;;0O4;;;2702;50;ASPH-F;1;0
-138.019.471.339;51.378.938.992;987;7438;0O9;small_airport;Ward Field;356;NA;US;US-CA;Gasquet;no;0O9;;0O9;;;2990;50;ASPH-G;0;0
-90.533.468.605;50.780.391.072;988;7439;0OH1;heliport;Cirino Heliport;1250;NA;US;US-OH;Chagrin Falls;no;0OH1;;0OH1;;;40;40;TURF;0;0
-9.340.996.361;4.861.671.452;989;7440;0OH2;closed;Jenkins Field;1080;NA;US;US-OH;North Hampton;no;;;;;;2370;80;TURF;0;0
-94.136.990.387;47.617.440.682;990;7441;0OH3;heliport;Hamilton County Sheriff's Patrol Heliport;865;NA;US;US-OH;Forest Park;no;0OH3;;0OH3;;;70;70;CONC;0;0
-93.530.301.201;4.808.071.351;991;7442;0OH6;small_airport;Fry Field;775;NA;US;US-OH;Spring Valley;no;0OH6;;0OH6;;;800;50;TURF;0;0
-9.370.135.017;48.881.601.609;992;7443;0OH7;small_airport;Apple Airport;1000;NA;US;US-OH;Piqua;no;0OH7;;0OH7;;;1300;70;GRAVEL;1;0
-93.793.465.396;48.933.579.818;993;7444;0OH8;small_airport;Fry Airport;900;NA;US;US-OH;Piqua;no;0OH8;;0OH8;;;3000;50;ASPH;0;0
-92.651.097.528;4.876.367.005;994;7445;0OH9;closed;Parknavy Airport;943;NA;US;US-OH;Plain City;no;;;;;;1100;75;TURF;0;0
-90.443.527.702;4.973.464.802;995;7446;0OI0;heliport;Foltz Heliport;1012;NA;US;US-OH;East Canton;no;0OI0;;0OI0;;;12;12;CONC;0;0
-92.857.374.771;50.388.095.152;996;7447;0OI1;closed;Autolite Heliport;759;NA;US;US-OH;Fostoria;no;;;;;;30;30;CONC;0;0
-92.860.160.787;47.733.414.374;997;7448;0OI2;small_airport;Unger Field;940;NA;US;US-OH;Greenfield;no;0OI2;;0OI2;;;2200;80;TURF;0;0
-92.079.144.218;50.688.656.196;998;7449;0OI3;small_airport;Galloway Airport;643;NA;US;US-OH;Sandusky;no;0OI3;;0OI3;;;1900;70;TURF;0;0
-9.034.612.951;50.602.889.742;999;7450;0OI4;closed;Salt Box Airport;1250;NA;US;US-OH;Hiram;no;;;;;;2000;50;Turf;0;0
-89.772.155.803;5.136.758.441;1000;7451;0OI6;small_airport;Victor's Landing Airport;860;NA;US;US-OH;Kingsville;no;0OI6;;0OI6;;;2600;50;TURF;0;0
-92.521.527.766;47.065.709.543;1001;7452;0OI9;small_airport;Hidden Quarry Airport;830;NA;US;US-OH;Lucasville;no;0OI9;;0OI9;;;1100;100;TURF;0;0
-108.462.588.495;42.571.445.561;1002;7453;0OK0;closed;Edmond Airport;1169;NA;US;US-OK;Edmond;no;;;;;;2400;50;TURF;0;0
-108.427.079.671;41.173.661.616;1003;7454;0OK1;small_airport;Mckey Airport;1056;NA;US;US-OK;Elmore City;no;0OK1;;0OK1;;;3200;135;TURF;0;0
-109.075.180.766;42.361.139.731;1004;7455;0OK2;closed;Parkview Hospital Heliport;1349;NA;US;US-OK;El Reno;no;;;;;;100;100;ASPH;0;0
-109.687.995.676;42.477.012.046;1005;7456;0OK3;small_airport;McKinley Ranch Airport;1420;NA;US;US-OK;Geary;no;0OK3;;0OK3;;;5000;30;ASPH;0;0
-107.149.018.586;41.178.529.935;1006;7457;0OK4;small_airport;Rock Creek Farm Airport;730;NA;US;US-OK;Coal Gate;no;0OK4;;0OK4;;;2350;40;GRVL;0;0
-108.425.516.958;42.853.450.361;1007;7458;0OK5;small_airport;Chappell Airport;1070;NA;US;US-OK;Guthrie;no;0OK5;;0OK5;;;2000;100;TURF;0;0
-108.409.711.479;42.733.698.732;1008;7459;0OK6;small_airport;Ellis/Harvey Airport;1220;NA;US;US-OK;Guthrie;no;0OK6;;0OK6;;;2400;90;TURF;0;0
-111.180.783.066;43.350.757.374;1009;7460;0OK7;heliport;Shattuck Hospital Heliport;2200;NA;US;US-OK;Shattuck;no;0OK7;;0OK7;;;50;50;CONC;0;0
-108.640.144.196;4.340.943.922;1010;7461;0OK8;closed;Cade's Airport;1140;NA;US;US-OK;Covington;no;;;;;;2500;100;TURF-G;0;0
-107.575.817.473;43.300.249.997;1011;7462;0OK9;small_airport;Crystal Airport;1016;NA;US;US-OK;Jennings;no;0OK9;;0OK9;;;3000;100;TURF;0;0
-136.769.352.235;52.118.507.653;1012;7463;0OR0;heliport;Providence Hospital Heliport;1350;NA;US;US-OR;Medford;no;0OR0;;0OR0;;;40;40;ASPH;0;0
-137.425.020.571;51.809.533.282;1013;7465;0OR2;heliport;Hendershots Heliport;1200;NA;US;US-OR;Merlin;no;0OR2;;0OR2;;;50;50;TURF;0;0
-135.480.275.724;51.638.261.278;1014;7466;0OR3;small_airport;Long Ranch Airport;4090;NA;US;US-OR;Merrill;no;0OR3;;0OR3;;;1950;100;GRAVEL;0;0
-134.994.917.582;5.561.348.102;1015;7467;0OR4;heliport;Round Butte Heliport;2125;NA;US;US-OR;Metolius;no;0OR4;;0OR4;;;60;60;ASPH;0;0
-136.770.719.782;52.370.128.575;1016;7468;0OR5;closed;East Oregon Cattle Company Airport;1345;NA;US;US-OR;Eagle Point;no;;;;;;1700;100;TURF;0;0
-130.944.001.599;52.867.389.898;1017;7469;0OR6;small_airport;Rome Service Airport;3387;NA;US;US-OR;Jordan Valley;no;0OR6;;0OR6;;;2900;40;DIRT;0;0
-137.216.857.064;55.985.659.989;1018;7470;0OR7;small_airport;Marr Field;275;NA;US;US-OR;Monmouth;no;0OR7;;0OR7;;;1900;50;TURF;0;0
-136.773.802.568;52.338.788.195;1019;7471;0OR8;small_airport;Sutton on Rogue Airport;1260;NA;US;US-OR;White City;no;0OR8;;0OR8;;;2500;75;TURF-F;0;0
-135.307.731.873;57.153.020.032;1020;7472;0OR9;small_airport;Hanel Field;1626;NA;US;US-OR;Mount Hood;no;0OR9;;0OR9;;;1900;25;ASPH;1;0
-110.839.372.833;48.415.877.876;1021;7474;0P1;small_airport;Van Pak Airport;2213;NA;US;US-KS;Prairie View;no;0P1;;0P1;;;2590;128;TURF-P;0;0
-85.323.804.854;48.362.320.106;1022;7475;0P2;small_airport;Shoestring Aviation Airfield;1000;NA;US;US-PA;Stewartstown;no;K0P2;;0P2;;;1000;100;TURF-E;0;0
-83.765.829.581;49.141.926.758;1023;7476;0PA0;small_airport;Philadelphia Gliderport;670;NA;US;US-PA;Hilltown;no;3PA2;;3PA2;;;2450;300;TURF;0;0
-83.936.341.567;48.831.334.438;1024;7477;0PA1;heliport;Phoenix Technologies Heliport;252;NA;US;US-PA;Norristown;no;0PA1;;0PA1;;;80;80;ASPH;0;0
-85.854.826.048;49.120.860.319;1025;7478;0PA2;small_airport;Haunstein Ultralightport;600;NA;US;US-PA;Shermans Dale;no;0PA2;;0PA2;;;500;100;TURF;0;0
-85.449.535.767;5.123.203.885;1026;7479;0PA3;small_airport;Robbins Farm Airport;1207;NA;US;US-PA;Troy;no;0PA3;;0PA3;;;1277;100;TURF;0;0
-85.409.546.386;49.005.297.444;1027;7480;0PA4;small_airport;Ecko Field;380;NA;US;US-PA;Hummelstown;no;0PA4;;0PA4;;;1515;100;TURF;0;0
-88.867.353.713;5.085.556.085;1028;7481;0PA5;small_airport;Fisher Airport;1500;NA;US;US-PA;Franklin;no;0PA5;;0PA5;;;2550;125;TURF-F;0;0
-86.662.561.604;49.580.511.904;1029;7482;0PA6;small_airport;Hostetler Airport;760;NA;US;US-PA;Huntingdon;no;0PA6;;0PA6;;;1800;100;TURF;0;0
-83.951.484.889;4.849.215.969;1030;7483;0PA7;closed;Linvill Airport;180;NA;US;US-PA;Media;no;;;;;;1200;100;TURF-G;0;0
-84.209.501.204;50.715.083.067;1031;7484;0PA8;heliport;Geisinger Community Medical Center Heliport;508;NA;US;US-PA;Scranton;no;0PA8;;0PA8;;;90;90;CONC;0;0
-83.730.403.227;49.145.101.059;1032;7485;0PA9;heliport;Carson Heliport;415;NA;US;US-PA;Perkasie;no;0PA9;;0PA9;;;200;200;ASPH;0;0
-89.228.549.727;50.777.382.329;1033;7486;0PN0;small_airport;Fletcher Airport;1335;NA;US;US-PA;Hadley;no;0PN0;;0PN0;;;2000;200;TURF;0;0
-88.631.350.141;49.681.041.029;1034;7487;0PN1;seaplane_base;Pete's Water Landing Seaplane Base;757;NA;US;US-PA;Freeport;no;0PN1;;0PN1;;;7500;800;WATER;0;0
-84.005.474.612;48.890.308.616;1035;7489;0PN3;heliport;Wyeth-Ayerst Nr Heliport;186;NA;US;US-PA;Collegeville;no;0PN3;;0PN3;;;80;80;CONC;1;0
-85.984.735.023;49.261.263.093;1036;7490;0PN4;small_airport;Kitner Airport;960;NA;US;US-PA;New Bloomfield;no;0PN4;;0PN4;;;500;100;TURF-G;0;0
-88.608.529.442;51.279.620.687;1037;7491;0PN5;small_airport;Nichols Airport;1761;NA;US;US-PA;Spartansburg;no;0PN5;;0PN5;;;2400;100;TURF;0;0
-86.820.854.196;48.905.311.896;1038;7492;0PN6;small_airport;Memmi Airport;1138;NA;US;US-PA;Three Springs;no;0PN6;;0PN6;;;1730;100;TURF;0;0
-86.418.880.358;48.846.039.975;1039;7493;0PN7;small_airport;Drillmore Acres Airport;680;NA;US;US-PA;Newburg;no;0PN7;;0PN7;;;2800;100;TURF-G;0;0
-88.704.024.532;51.022.003.155;1040;7494;0PN8;small_airport;Shriver Airport;1560;NA;US;US-PA;Titusville;no;0PN8;;0PN8;;;2000;100;TURF;0;0
-88.696.924.575;51.190.542.233;1041;7495;0PN9;closed;Paul Personal Use Airport;1645;NA;US;US-PA;Titusville;no;;;;;;1800;75;TURF;0;0
-88.322.773.859;50.672.041.024;1042;7496;0PS0;small_airport;Frederick Airpark;1560;NA;US;US-PA;Tylersburg;no;0PS0;;0PS0;;;2200;100;TURF;0;0
-85.350.214.266;48.632.540.877;1043;7497;0PS1;heliport;Mc Crory Stores Heliport;420;NA;US;US-PA;York;no;0PS1;;0PS1;;;90;90;CONC;0;0
-8.432.595.809;50.107.927.446;1044;7498;0PS2;closed;Marian Heliport;1285;NA;US;US-PA;Weatherly;no;;;;;;70;70;CONC;1;0
-85.456.189.959;49.374.636.529;1045;7499;0PS3;small_airport;Carsonville Airport;800;NA;US;US-PA;Carsonville;no;0PS3;;0PS3;;;1272;100;TURF;0;0
-87.454.638.019;50.137.793.029;1046;7500;0PS4;small_airport;Old Orchard Airport;1980;NA;US;US-PA;Curwensville;no;0PS4;;0PS4;;;2400;100;TURF;0;0
-83.704.134.368;49.945.545.864;1047;7501;0PS5;heliport;Used Parts Heliport;660;NA;US;US-PA;East Bangor;no;0PS5;;0PS5;;;30;30;CONC;0;0
-85.218.742.577;48.586.066.193;1048;7502;0PS6;heliport;Herbst Heliport;485;NA;US;US-PA;East Prospect;no;0PS6;;0PS6;;;120;40;TURF;0;0
-85.544.906.514;49.421.483.816;1049;7503;0PS7;small_airport;Harman Airport;720;NA;US;US-PA;Elizabethville;no;0PS7;;0PS7;;;1900;150;TURF;0;0
-89.151.546.584;51.808.628.542;1050;7504;0PS8;heliport;Bayfront Garage Heliport;1130;NA;US;US-PA;Erie;no;0PS8;;0PS8;;;65;60;CONC;0;0
-83.342.707.537;48.925.323.268;1051;7505;0PS9;heliport;Jefferson Health Bucks County Campus Heliport;141;NA;US;US-PA;Fairless Hills;no;0PS9;;0PS9;;;35;35;ASPH;0;0
-136.310.713.079;46.110.470.577;1052;7506;0Q3;small_airport;Sonoma Valley Airport;10;NA;US;US-CA;Schellville/Sonoma;no;0Q3;;0Q3;;;2700;45;ASPH-G;0;0
-13320267.31;43.809.466.085;1053;7507;0Q4;small_airport;Selma Airport;305;NA;US;US-CA;Selma;no;0Q4;;0Q4;;;2490;50;ASPH-F;1;0
-136.292.903.252;46.158.946.816;1054;7509;0Q9;small_airport;Sonoma Skypark Airport;20;NA;US;US-CA;Sonoma;no;0Q9;;0Q9;;;2480;40;ASPH-F;0;0
-103.897.820.546;46.366.415.371;1055;7510;0R2;small_airport;Lincoln Municipal Airport;940;NA;US;US-MO;Lincoln;no;0R2;;0R2;;;2940;125;TURF-G;0;0
-10.386.932.652;37.620.898.891;1056;7511;0R7;small_airport;The Red River Airport;177;NA;US;US-LA;Coushatta;no;0R7;;0R7;;;5000;75;ASPH-G;1;0
-110.544.036.994;47.495.704.462;1057;7512;0R9;small_airport;Plainville Airpark;2182;NA;US;US-KS;Plainville;no;;;0R9;;;2600;120;TURF-G;0;0
-12.625.495.748;60.815.973.024;1058;7513;0S1;small_airport;Meadow Creek USFS Airport;3984;NA;US;US-MT;Hungry Horse;no;;;0S1;;;2830;100;TURF-P;0;0
-110.534.796.363;47.758.473.088;1059;7514;0S2;closed;Stockton Municipal Airport;1973;NA;US;US-KS;Stockton;no;;;;;;3500;240;TURF-G;1;0
-12.940.111.147;58.184.747.045;1060;7515;0S5;small_airport;Nez Perce Municipal Airport;3201;NA;US;US-ID;Nez Perce;no;0S5;;0S5;;;2400;30;ASPH-G;0;0
-112.312.458.749;56.886.789.186;1061;7516;0SD0;small_airport;Lenling Airport;2142;NA;US;US-SD;Glencross;no;0SD0;;0SD0;;;3000;100;TURF;0;0
-107.957.866.726;5307741.13;1062;7517;0SD1;small_airport;Lodi Airport;1200;NA;US;US-SD;Wakonda;no;0SD1;;0SD1;;;1726;60;TURF;0;0
-108.112.931.978;56.075.366.026;1063;7518;0SD2;heliport;Prairie Lakes West Heliport;1799;NA;US;US-SD;Watertown;no;0SD2;;0SD2;;;40;40;CONC;0;0
-114.900.642.006;56.640.334.263;1064;7519;0SD3;small_airport;Bledsoe Ranch Airport;2872;NA;US;US-SD;Hoover;no;0SD3;;0SD3;;;3700;50;GRAVEL;0;0
-107.717.973.359;55.132.460.823;1065;7520;0SD4;heliport;Brookview Manor Heliport;1670;NA;US;US-SD;Brookings;no;0SD4;;0SD4;;;60;60;ASPH;0;0
-115.368.181.829;54.355.309.009;1066;7521;0SD5;heliport;The Fort Heliport;5800;NA;US;US-SD;Custer;no;0SD5;;0SD5;;;16;16;CONC;0;0
-113.249.772.055;53.921.343.892;1067;7523;0SD7;small_airport;Porch Ranch Airport;2775;NA;US;US-SD;Wanblee;no;0SD7;;0SD7;;;2000;50;TURF;0;0
-115.367.069.245;54.384.004.668;1068;7525;0SD9;heliport;Crazy Horse Heliport;5900;NA;US;US-SD;Custer;no;0SD9;;0SD9;;;20;20;WOOD;0;0
-100.184.534.974;4.482.951.325;1069;7526;0T3;closed;Ira Biffle Airfield;421;NA;US;US-MO;Marble Hill;no;;;;;;2600;70;TURF-F;1;0
-107.627.692.314;39.120.671.737;1070;7527;0T7;closed;Kittyhawk Airport;700;NA;US;US-TX;Allen;no;;;;;;2300;195;TURF-G;1;0
-105.738.326.709;34.260.186.679;1071;7528;0TA0;heliport;HCA Houston Healthcare Mainland Heliport;16;NA;US;US-TX;Texas City;no;0TA0;;0TA0;;;100;100;ASPH;0;0
-113.523.620.051;40.583.138.663;1072;7529;0TA1;closed;Buddy Harmel Airport;3552;NA;US;US-TX;Halfway;no;;;;;;2000;60;TURF;0;0
-113.460.545.314;40.575.332.061;1073;7530;0TA2;small_airport;Smith Farms Airport;3487;NA;US;US-TX;Halfway;no;0TA2;;0TA2;;;2300;60;TURF;0;0
-11.369.950.205;3.542.725.088;1074;7531;0TA3;small_airport;Tate Ranch Airport;2650;NA;US;US-TX;Dryden;no;0TA3;;0TA3;;;2500;130;TURF;0;0
-107.167.830.588;38.288.464.101;1075;7532;0TA4;small_airport;Erco Field;395;NA;US;US-TX;Kaufman;no;0TA4;;0TA4;;;1742;50;TURF;0;0
-10.614.858.528;34.541.186.867;1076;7533;0TA5;heliport;Metro Heli-Pad Heliport;57;NA;US;US-TX;Houston;no;0TA5;;0TA5;;;200;150;TURF;0;0
-108.228.148.534;32.297.982.421;1077;7534;0TA6;closed;Arco Ingleside Shorebase Heliport;20;NA;US;US-TX;Ingleside;no;;;;;;50;50;CONC;0;0
-115.660.706.031;35.232.532.659;1078;7535;0TA7;small_airport;Alta Vista Ranch Airport;4702;NA;US;US-TX;Marfa;no;0TA7;;0TA7;;;5000;100;TURF;0;0
-106.206.813.673;40.085.043.147;1079;7536;0TA8;closed;Womack Plantation Airport;410;NA;US;US-TX;Paris;no;;;;;;2680;45;TURF;0;0
-105.490.912.596;34.255.190.922;1080;7537;0TA9;heliport;Houston Oil & Minerals Port Bolivar Nr 2 Heliport;8;NA;US;US-TX;Port Bolivar;no;0TA9;;0TA9;;;35;35;CONC;0;0
-112.613.026.129;34.641.486.824;1081;7538;0TE0;small_airport;Robertson Ranch Airport;1663;NA;US;US-TX;Comstock;no;0TE0;;0TE0;;;2650;50;GRAVEL;0;0
-108.441.671.562;32.212.737.123;1082;7539;0TE1;heliport;Christus Spohn Hospital Memorial Heliport;38;NA;US;US-TX;Corpus Christi;no;0TE1;;0TE1;;;100;100;DIRT;1;0
-108.165.809.415;38.688.003.321;1083;7540;0TE2;heliport;Bell Helicopter Hurst Heliport;524;NA;US;US-TX;Hurst;no;0TE2;;0TE2;;;800;200;ASPH;0;0
-112.260.898.576;40.196.416.644;1084;7541;0TE3;closed;Buzz Field;2614;NA;US;US-TX;Roaring Springs;no;;;;;;2600;400;TURF;0;0
-109.834.047.558;37.901.581.448;1085;7544;0TE6;small_airport;Gorman Airport;1452;NA;US;US-TX;Gorman;no;0TE6;;0TE6;;;2575;50;DIRT;0;0
-107.114.401.481;35.732.171.344;1086;7546;0TE8;closed;Texas World Speedway Helistop Number 1;270;NA;US;US-TX;College Station;no;;;;;;150;150;TURF;0;0
-107.118.401.191;35.731.006.803;1087;7547;0TE9;closed;Texas World Speedway Helistop Number 2;270;NA;US;US-TX;College Station;no;;;;;;150;150;TURF;0;0
-96.732.961.728;42.562.265.755;1088;7548;0TN0;small_airport;R & S Buzzard Airport;810;NA;US;US-TN;Spring Hill;no;0TN0;;0TN0;;;1750;100;TURF;0;0
-95.979.666.321;41.941.322.142;1089;7549;0TN1;seaplane_base;Tims Ford Seaplane Base;785;NA;US;US-TN;Tullahoma;no;0TN1;;0TN1;;;8000;800;WATER;0;0
-93.714.871.145;42.533.763.275;1090;7550;0TN2;small_airport;Village Airport;920;NA;US;US-TN;Greenback;no;0TN2;;0TN2;;;1200;100;TURF;0;0
-93.619.910.876;42.892.889.992;1091;7551;0TN3;heliport;Park West Heliport;1000;NA;US;US-TN;Knoxville;no;0TN3;;0TN3;;;30;30;CONC;0;0
-93.427.418.506;42.994.118.114;1092;7552;0TN4;heliport;Physicians Medical Regional Center Heliport;790;NA;US;US-TN;Knoxville;no;0TN4;;0TN4;;;50;50;CONC;0;0
-96.289.029.619;42.824.363.166;1093;7553;0TN5;small_airport;McDonald Airport;600;NA;US;US-TN;Murfreesboro;no;0TN5;;0TN5;;;2350;100;TURF;0;0
-93.618.687.885;43.258.862.518;1094;7554;0TN6;small_airport;Riner Farm Airport;1125;NA;US;US-TN;Norris;no;0TN6;;0TN6;;;1050;75;TURF;0;0
-93.609.787.217;42.901.138.316;1095;7555;0TN7;heliport;Horne Properties Heliport;975;NA;US;US-TN;Knoxville;no;0TN7;;0TN7;;;45;45;CONC;1;0
-94.944.946.762;41.705.689.878;1096;7556;0TN8;heliport;Erlanger Medical Center Heliport;745;NA;US;US-TN;Chattanooga;no;0TN8;;0TN8;;;75;75;CONC-G;0;0
-93.439.578.941;42.945.961.834;1097;7557;0TN9;heliport;East Tennessee Children's Hospital Heliport;1003;NA;US;US-TN;Knoxville;no;0TN9;;0TN9;;;46;46;CONC-G;0;0
-108.283.270.606;39.084.163.297;1098;7559;0TS1;small_airport;Dooley Airport;650;NA;US;US-TX;Justin;no;0TS1;;0TS1;;;1750;75;TURF;0;0
-108.346.039.214;38.884.967.243;1099;7560;0TS2;closed;Ultralight International Ultralightport;820;NA;US;US-TX;Haslet;no;;;;;;600;50;TURF;0;0
-106.491.723.664;34.803.383.654;1100;7561;0TS3;closed;Houston Heliport;100;NA;US;US-TX;Houston;no;;;;;;20;20;CONC;0;0
-107.750.674.748;35.153.390.039;1101;7562;0TS4;small_airport;Ullrich Airport;410;NA;US;US-TX;Ledbetter;no;0TS4;;0TS4;;;1800;60;TURF;0;0
-105.960.906.897;35.604.794.103;1102;7563;0TS5;small_airport;Lake Bay Gall Airport;230;NA;US;US-TX;Cleveland;no;0TS5;;0TS5;;;3200;180;TURF;0;0
-106.284.396.894;34.671.091.848;1103;7564;0TS6;heliport;Harris County Courthouse Heliport;105;NA;US;US-TX;Houston;no;0TS6;;0TS6;;;20;20;TURF;0;0
-109.233.003.974;38.733.674.876;1104;7565;0TS7;small_airport;Flying U Airport;978;NA;US;US-TX;Mineral Wells;no;0TS7;;0TS7;;;2800;100;TURF;0;0
-108.963.523.229;30.177.206.035;1105;7566;0TS8;small_airport;Flying 'K' Ranch Ultralightport;81;NA;US;US-TX;Mercedes;no;0TS8;;0TS8;;;910;910;TURF-DIRT;0;0
-108.800.550.016;35.055.422.511;1106;7567;0TS9;closed;Jim Roach Field;600;NA;US;US-TX;Niederwald;no;;;;;;1260;70;TURF;0;0
-108.773.390.367;38.185.167.438;1107;7568;0TX0;small_airport;Nassau Bay Airport;714;NA;US;US-TX;Granbury;no;0TX0;;0TX0;;;2800;200;TURF;0;0
-108.045.140.826;38.638.353.051;1108;7570;0TX2;heliport;Heliport-Facility 5a Heliport;546;NA;US;US-TX;Grand Prairie;no;0TX2;;0TX2;;;100;100;ASPH;0;0
-105.025.595.877;37.851.769.009;1109;7571;0TX3;heliport;UT Health East Texas Carthage Hospital Heliport;296;NA;US;US-TX;Carthage;no;0TX3;;0TX3;;;20;20;CONC;0;0
-108.010.183.626;38.570.992.439;1110;7572;0TX4;heliport;Aerospatiale Helicopter Corp Heliport;535;NA;US;US-TX;Grand Prairie;no;0TX4;;0TX4;;;50;50;CONC;0;0
-10.811.414.513;38.984.079.442;1111;7573;0TX5;heliport;Shiloh Heliport;635;NA;US;US-TX;Flower Mound;no;0TX5;;0TX5;;;1800;50;TURF;0;0
-109.089.652.818;34.401.050.911;1112;7574;0TX6;small_airport;Elm Creek Airpark;550;NA;US;US-TX;Seguin;no;0TX6;;0TX6;;;2283;80;TURF;0;0
-108.147.215.925;38.886.827.098;1113;7575;0TX7;closed;Lazy K Acres Airport;700;NA;US;US-TX;Grapevine;no;;;;;;2250;50;TURF;0;0
-106.914.909.161;39.192.737.326;1114;7576;0TX8;closed;Jacobia Field;570;NA;US;US-TX;Greenville;no;;;;;;1800;55;TURF;0;0
-106.996.840.956;39.285.476.927;1115;7577;0TX9;small_airport;Card Aerodrome;540;NA;US;US-TX;Greenville;no;0TX9;;0TX9;;;2300;100;TURF;0;0
-128.610.744.104;55.653.990.948;1116;7578;0U0;small_airport;Landmark US Forest Service Airport;6662;NA;US;US-ID;Landmark;no;0U0;;0U0;;;4000;100;TURF-DIRT-F;0;0
-128.366.960.943;54.874.590.837;1117;7579;0U1;small_airport;Warm Springs Creek Airport;4831;NA;US;US-ID;Lowman;no;0U1;;0U1;;;2850;135;TURF-G;0;0
-126.716.090.992;54.348.212.978;1118;7580;0U2;small_airport;Copper Basin Airport;7920;NA;US;US-ID;Mackay;no;0U2;;0U2;;;4700;100;TURF-F;0;0
-127.929.469.788;55.814.028.859;1119;7581;0U3;small_airport;Mahoney Creek US Forest Service Airport;4618;NA;US;US-ID;Challis;no;;;0U3;;;2150;15;DIRT-F;0;0
-126.445.580.349;53.615.566.628;1120;7582;0U7;small_airport;Hollow Top Airport;5359;NA;US;US-ID;Martin;no;0U7;;0U7;;;2500;140;TURF-F;0;0
-126.788.451.378;55.603.626.279;1121;7583;0U8;small_airport;May Airport;5324;NA;US;US-ID;May;no;0U8;;0U8;;;4950;200;TURF-F;0;0
-129.974.370.985;55.371.024.561;1122;7584;0U9;small_airport;Lee Williams Memorial Airport;2617;NA;US;US-ID;Midvale;no;K0U9;;0U9;;;2875;60;ASPH-E;0;0
-88.593.946.956;44.717.040.451;1123;7586;0VA1;small_airport;Johnson Fox Field;900;NA;US;US-VA;Bedford;no;0VA1;;0VA1;;;2000;50;TURF;0;0
-88.795.885.092;45.507.180.039;1124;7587;0VA2;small_airport;Riverwood Airport;1020;NA;US;US-VA;Iron Gate;no;0VA2;;0VA2;;;2000;70;TURF;0;0
-85.822.094.272;45.369.631.593;1125;7588;0VA3;small_airport;Hunt Airport;150;NA;US;US-VA;King William;no;0VA3;;0VA3;;;2200;70;TURF;0;0
-88.921.454.143;44.321.536.436;1126;7589;0VA4;small_airport;Worley Field;1219;NA;US;US-VA;Rocky Mount;no;0VA4;;0VA4;;;2100;90;TURF;0;0
-86.451.711.746;45.363.082.653;1127;7590;0VA5;closed;Coffman Field;280;NA;US;US-VA;Richmond;no;;;;;;3900;60;ASPH;0;0
-86.230.522.534;45.084.699.206;1128;7591;0VA6;heliport;Mc Guire Va Medical Center Pad Heliport;178;NA;US;US-VA;Richmond;no;0VA6;;0VA6;;;100;100;ASPH;0;0
-86.596.766.609;44.790.189.858;1129;7593;0VA8;small_airport;Jayarz Airport;210;NA;US;US-VA;Amelia Court House;no;0VA8;;0VA8;;;1800;80;TURF;0;0
-8.510.797.683;45.016.532.929;1130;7594;0VA9;small_airport;Handy Strip;8;NA;US;US-VA;Gloucester Court House;no;0VA9;;0VA9;;;1000;30;TURF;0;0
-85.828.888.101;45.355.705.563;1131;7595;0VI1;small_airport;Brooklyn Airport;145;NA;US;US-VA;King William;no;0VI1;;0VI1;;;3000;60;TURF;0;0
-136.179.360.292;60.451.231.188;1132;7596;0W0;seaplane_base;Seattle Seaplanes Seaplane Base;14;NA;US;US-WA;Seattle;no;0W0;;0W0;;;9500;300;WATER-E;0;0
-136.183.810.626;6.228.867.663;1133;7597;0W7;seaplane_base;Floathaven Seaplane Base;307;NA;US;US-WA;Bellingham;no;0W7;;0W7;;;10000;4000;WATER;0;0
-135.852.082.416;61.040.102.613;1134;7598;0WA0;heliport;Streamline Heliport;116;NA;US;US-WA;Machias;no;0WA0;;0WA0;;;48;16;CONC;0;0
-136.729.273.753;58.797.974.324;1135;7599;0WA1;small_airport;Dwight Field;350;NA;US;US-WA;Chehalis;no;0WA1;;0WA1;;;2000;50;TURF;0;0
-137.039.862.878;58.754.714.445;1136;7600;0WA2;small_airport;Curtis Airport;254;NA;US;US-WA;Curtis;no;0WA2;;0WA2;;;2364;60;TURF;0;0
-135.698.461.503;57.296.305.641;1137;7601;0WA3;closed;Air Columbia Heliport;149;NA;US;US-WA;Stevenson;no;;;;;;40;40;ASPH;0;0
-133.894.543.627;60.135.721.919;1138;7602;0WA4;heliport;Macon Heliport;1250;NA;US;US-WA;East Wenatchee;no;0WA4;;0WA4;;;100;50;ASPH;1;0
-136.130.381.143;61.701.902.805;1139;7603;0WA5;heliport;Ware Mountain Heliport;750;NA;US;US-WA;Mount Vernon;no;0WA5;;0WA5;;;24;12;CONC;0;0
-13.618.158.546;60.742.593.359;1140;7604;0WA6;heliport;Stevens Memorial Hospital Heliport;370;NA;US;US-WA;Edmonds;no;0WA6;;0WA6;;;70;70;ASPH;0;0
-130.337.312.193;60.698.190.811;1141;7605;0WA7;heliport;Shamrock Port Heliport;2172;NA;US;US-WA;Newman Lake;no;0WA7;;0WA7;;;20;20;CONC;0;0
-136.122.584.567;60.511.375.773;1142;7606;0WA8;heliport;Childrens Hospital Emergency Heliport;125;NA;US;US-WA;Seattle;no;0WA8;;0WA8;;;40;40;CONC;0;0
-136.059.462.974;61.046.026.568;1143;7607;0WA9;heliport;Naval Station Everett Heliport;5;NA;US;US-WA;Everett;no;0WA9;;0WA9;;;100;100;CONC-G;0;0
-97.907.161.877;53.102.823.493;1144;7608;0WI0;heliport;Aurora St Luke's Medical Center Heliport;761;NA;US;US-WI;Milwaukee;no;0WI0;;0WI0;;;43;44;ALUM;1;0
-102.571.892.895;5.701.726.056;1145;7609;0WI1;small_airport;Mort's Landing Airport;1255;NA;US;US-WI;Comstock;no;0WI1;;0WI1;;;10000;4000;WATER;0;0
-98.332.287.643;53.426.775.115;1146;7610;0WI2;small_airport;Doering Farms Airfield;910;NA;US;US-WI;Monches;no;0WI2;;0WI2;;;2600;60;TURF;0;0
-98.515.368.228;52.605.581.672;1147;7611;0WI3;heliport;Aurora Lakeland Medical Center Heliport;1040;NA;US;US-WI;Elkhorn;no;0WI3;;0WI3;;;60;60;CONC;0;0
-9.946.685.944;54.390.791.474;1148;7612;0WI4;small_airport;Snow Crest Ranch Airport;810;NA;US;US-WI;Montello;no;0WI4;;0WI4;;;3200;40;ASPH;0;0
-97.839.370.726;52.805.778.753;1149;7613;0WI5;small_airport;Crash In International Airport;755;NA;US;US-WI;Husher;no;0WI5;;0WI5;;;2000;100;TURF;0;0
-98.136.923.091;52.927.522.261;1150;7614;0WI6;small_airport;Simandl Field/Private Airport;805;NA;US;US-WI;Muskego;no;0WI6;;0WI6;;;1300;60;TURF;0;0
-98.516.967.996;54.861.401.629;1151;7615;0WI7;small_airport;With Wings And A Halo Airport;760;NA;US;US-WI;Neenah;no;0WI7;;0WI7;;;2100;150;TURF;0;0
-98.486.911.257;5.333.137.913;1152;7616;0WI8;small_airport;Oconomowoc Airport;885;NA;US;US-WI;Oconomowoc;no;0WI8;;0WI8;;;1200;100;TURF;0;0
-99.451.385.188;53.015.360.951;1153;7617;0WI9;small_airport;Mc Manus Hoonch-Na-Shee-Kaw Airport;931;NA;US;US-WI;Oregon;no;0WI9;;0WI9;;;2600;70;TURF;0;0
-137.048.763.545;61.297.268.981;1154;7618;0WN0;small_airport;Rucilla's Roost Airport;15;NA;US;US-WA;Sequim;no;0WN0;;0WN0;;;1050;28;TURF;0;0
-134.253.529.364;59.016.713.989;1155;7619;0WN1;small_airport;Shangri-La Airport;1500;NA;US;US-WA;Selah;no;0WN1;;0WN1;;;1800;40;DIRT;0;0
-132.486.082.675;58.008.165.044;1156;45908;0WN2;small_airport;Coopers Landing Airport;435;NA;US;US-WA;Kennewick;no;0WN2;;0WN2;;;1200;50;TURF-F;0;0
-136.802.746.723;5.936.200.049;1157;7621;0WN4;heliport;Olympia Heliport;200;NA;US;US-WA;Olympia;no;0WN4;;0WN4;;;100;100;CONC;1;0
-98.015.362.737;52.815.339.261;1158;7622;0WN5;small_airport;Potts Field;815;NA;US;US-WI;North Cape;no;0WN5;;0WN5;;;150;50;TURF;0;0
-136.720.523.597;62.668.092.071;1159;7623;0WN6;heliport;L-Z Blue Thunder Heliport;75;NA;US;US-WA;Blaine;no;0WN6;;0WN6;;;12;12;TURF;0;0
-135.796.115.413;59.763.287.418;1160;7624;0WN7;heliport;St Elizabeth Hospital Heliport;700;NA;US;US-WA;Enumclaw;no;0WN7;;0WN7;;;40;40;ASPH;0;0
-13.007.904.846;59.831.565.044;1161;7625;0WN8;heliport;Sheldon Heliport;2129;NA;US;US-ID;Coeur D'Alene;no;0WN8;;0WN8;;;38;10;MATS;0;0
-133.011.271.335;61.787.698.345;1162;45906;0WN9;small_airport;Wings For Christ Airport;1000;NA;US;US-WA;Omak;no;0WN9;;0WN9;;;1055;100;DIRT;0;0
-99.106.052.823;53.075.555.975;1163;346234;0WS7;small_airport;Rockdale Airport;825;NA;US;US-WI;Rockdale;no;0WS7;;0WS7;;;1400;130;Turf;0;0
-123.606.998.526;53.180.198.961;1164;45936;0WY0;small_airport;Freedom Air Ranch Airport;5698;NA;US;US-WY;Freedom;no;0WY0;;0WY0;;;2000;30;TURF;0;0
-120.406.871.521;55.292.845.459;1165;45935;0WY1;small_airport;Dorsey Creek Ranch Airport;4017;NA;US;US-WY;Basin;no;0WY1;;0WY1;;;3400;70;DIRT;0;0
-107.800.654.973;38.703.152.868;1166;7626;0XA0;heliport;Parkland Hospital Nr 2 Heliport;548;NA;US;US-TX;Dallas;no;;;;;;61;54;CONC;1;0
-111.464.409.846;35.911.261.872;1167;337658;0XA1;heliport;Kothmann Ranch Heliport;2347;NA;US;US-TX;Fort McKavett;no;0XA1;;0XA1;;;30;30;CON;0;0
-111.825.691.687;33.392.806.708;1168;7628;0XA2;heliport;Fort Duncan Medical Center Heliport;884;NA;US;US-TX;Eagle Pass;no;0XA2;;0XA2;;;40;40;CONC;1;0
-106.068.657.628;33.720.446.569;1169;7629;0XA3;heliport;Midstream Freeport Heliport;6;NA;US;US-TX;Freeport;no;0XA3;;0XA3;;;27;27;CONC;0;0
-110.075.163.752;32.485.830.823;1170;7630;0XA4;small_airport;Seven Cs Ranch Airport;331;NA;US;US-TX;Encinal;no;0XA4;;0XA4;;;5000;75;ASPH-G;0;0
-109.519.228.917;33.356.017.053;1171;7631;0XA5;small_airport;74 Ranch Airport;320;NA;US;US-TX;Campbellton;no;0XA5;;0XA5;;;3800;75;ASPH;1;0
-113.477.979.049;39.551.875.012;1172;7632;0XA6;heliport;Jaxon Landing Heliport;3270;NA;US;US-TX;Lubbock;no;0XA6;;0XA6;;;50;50;TURF;0;0
-10.867.315.933;35.889.754.164;1173;7633;0XA7;small_airport;Bar 3 Ranch Airport;744;NA;US;US-TX;Georgetown;no;0XA7;;0XA7;;;2400;100;TURF;0;0
-109.213.658.873;3.538.303.253;1174;7634;0XA8;closed;Ohho Airport;1340;NA;US;US-TX;Dripping Springs;no;;;;;;1000;130;TURF;0;0
-10.808.632.305;38.379.999.407;1175;7635;0XA9;heliport;Methodist Mansfield Medical Center Heliport;633;NA;US;US-TX;Mansfield;no;0XA9;;0XA9;;;46;46;CONC;1;0
-110.828.238.506;32.995.367.301;1176;7636;0XS0;small_airport;Diamond H Ranch Airport;511;NA;US;US-TX;Catarina;no;0XS0;;0XS0;;;3300;150;TURF;0;0
-107.255.996.454;34.123.277.501;1177;7637;0XS1;small_airport;Rodgers Roost Airport;129;NA;US;US-TX;El Campo;no;0XS1;;0XS1;;;1500;60;TURF;0;0
-111.910.419.178;35.751.785.328;1178;7638;0XS2;small_airport;John Fields Ranch Airport;2342;NA;US;US-TX;Sonora;no;0XS2;;0XS2;;;3700;30;GRAVEL;0;0
-106.913.348.462;33.492.358.022;1179;7639;0XS3;heliport;South Texas Project East Heliport;32;NA;US;US-TX;Sargent;no;0XS3;;0XS3;;;30;30;CONC;0;0
-107.630.469.948;3907482.14;1180;7640;0XS4;heliport;Eds Heliport;602;NA;US;US-TX;Allen;no;0XS4;;0XS4;;;50;50;CONC;0;0
-108.170.673.168;3.017.141.576;1181;7641;0XS5;closed;Southeastern Helicopters Heliport;5;NA;US;US-TX;South Padre Island;no;;;;;;26;26;CONC;0;0
-10.925.723.934;35.680.921.107;1182;7642;0XS6;small_airport;Lakeside Beach Airport;800;NA;US;US-TX;Spicewood;no;0XS6;;0XS6;;;3000;75;TURF;0;0
-111.631.215.424;34.003.202.026;1183;7643;0XS7;small_airport;Anacacho Ranch Airport;1067;NA;US;US-TX;Brackettville;no;0XS7;;0XS7;;;6000;60;ASPH;0;0
-11.173.316.404;3.385.443.696;1184;7644;0XS8;small_airport;Dunbar Ranch Airport;958;NA;US;US-TX;Brackettville;no;0XS8;;0XS8;;;3200;30;GRVL;0;0
-106.131.546.112;37.806.094.266;1185;45852;0XS9;small_airport;French Field;540;NA;US;US-TX;Bullard;no;0XS9;;0XS9;;;1200;100;TURF;0;0
-10.627.671.922;5.336.998.225;1186;7645;0Y4;small_airport;Lambert Fechter Municipal Airport;1452;NA;US;US-IA;Hartley;no;0Y4;;0Y4;;;2500;90;ASPH-TURF-P;0;0
-104.093.185.098;53.755.990.176;1187;7646;0Y6;small_airport;Lake Mills Municipal Airport;1260;NA;US;US-IA;Lake Mills;no;0Y6;;0Y6;;;3380;100;TURF-G;1;0
-164.243.389.385;91.265.579.111;1188;7647;0Z2;closed;Road Commission Nr 1 Airport;2525;NA;US;US-AK;Denali;no;;;;;;1000;22;GRVL-DIRT-P;0;0
-176.532.320.894;81.911.810.983;1189;7648;0Z3;seaplane_base;Shannons Pond Seaplane Base;80;NA;US;US-AK;Dillingham;no;AA15;;AA15;;;1400;100;WATER;0;0
-166.620.339.925;87.630.526.946;1190;7649;10AK;small_airport;Hunt Strip;200;NA;US;US-AK;Wasilla;no;10AK;;10AK;;;800;80;GRVL;0;0
-95.479.725.691;41.522.004.193;1191;7650;10AL;heliport;North Jackson Hospital Heliport;650;NA;US;US-AL;Bridgeport;no;10AL;;10AL;;;65;65;CONC;1;0
-125.365.779.929;39.440.392.564;1192;7652;10AZ;small_airport;Pierce Airport;860;NA;US;US-AZ;Buckeye;no;10AZ;;10AZ;;;3407;150;ASPH-DIRT;1;0
-130.435.788.048;41.099.647.038;1193;7653;10CA;heliport;William E Poole Heliport;3120;NA;US;US-CA;Apple Valley;no;;;;;;30;30;CONC;0;0
-132.687.267.051;42.140.040.126;1194;7654;10CL;closed;Joe Gottlieb Field;347;NA;US;US-CA;Bakersfield;no;;;;;;2300;40;TRTD-DIRT;0;0
-136.338.546.349;46.564.674.504;1195;322689;10CN;heliport;Adventist Health St Helena Heliport;581;NA;US;US-CA;St Helena;no;10CN;;10CN;;;60;60;ASP;0;0
-104.714.796.491;56.136.535.611;1196;7656;10D;small_airport;Winsted Municipal Airport;1030;NA;US;US-MN;Winsted;no;10D;;10D;;;3248;200;TURF-G;1;0
-10.978.996.099;38.973.482.343;1197;7657;10F;small_airport;Rosser Ranch Airport;1112;NA;US;US-TX;Graham;no;10TT;;10TT;;;3600;200;TURF-G;0;0
-91.210.624.238;3349897.56;1198;7658;10FA;small_airport;Flying Baron Estates Airport;75;NA;US;US-FL;Leesburg;no;10FA;;10FA;;;2575;30;ASPH;0;0
-91.732.383.393;33.764.860.208;1199;7659;10FD;small_airport;Seven Feathers Airport;68;NA;US;US-FL;Dunnellon;no;10FD;;10FD;;;1500;100;TURF;0;0
-9.027.398.188;28.402.154.464;1200;7660;10FL;heliport;Fishermen's Hospital Emergency Helistop;5;NA;US;US-FL;Marathon;no;10FL;;10FL;;;100;100;ASPH;0;0
-93.840.440.196;39.385.354.742;1201;7661;10GA;small_airport;Beaverbrook Aerodrome;910;NA;US;US-GA;Griffin;no;10GA;;10GA;;;2100;150;TURF-G;0;0
-102.692.451.075;52.236.046.776;1202;7662;10IA;small_airport;Flyers Airport;830;NA;US;US-IA;Waterloo;no;10IA;;10IA;;;2405;85;TURF-G;1;0
-12.681.738.704;5.387.529.913;1203;7663;10ID;small_airport;Flat Top Airstrip;5841;NA;US;US-ID;Muldoon;no;10ID;;10ID;;;3000;40;GRAVEL;0;0
-97.001.754.885;50.027.584.589;1204;7664;10II;heliport;Franciscan Health Rensselaer Heliport;660;NA;US;US-IN;Rensselaer;no;10II;;10II;;;40;40;ASPH;0;0
-97.833.468.089;50.305.897.659;1205;7665;10IL;heliport;Riverside Medical Center Heliport;620;NA;US;US-IL;Kankakee;no;10IL;;10IL;;;300;200;CONC;0;0
-94.675.999.066;48.251.047.758;1206;7666;10IN;closed;Squires Airport;1000;NA;US;US-IN;Connersville;no;;;;;;2600;100;TURF;0;0
-10.531.813.682;47.297.359.788;1207;7667;10KS;heliport;University of Kansas Hospital Heliport;958;NA;US;US-KS;Kansas City;no;10KS;;10KS;;;64;64;ASPH-CONC;0;0
-95.553.198.661;46.004.109.275;1208;7668;10KY;heliport;Southwest Government Center Heliport;480;NA;US;US-KY;Louisville;no;10KY;;10KY;;;30;30;CONC;0;0
-102.520.495.452;35.358.190.884;1209;7669;10LA;small_airport;Industrial Helicopters Inc. Airport;35;NA;US;US-LA;Scott;no;10LA;;10LA;;;2144;150;TURF;0;0
-80.491.783.325;52.003.971.703;1210;7671;10MA;seaplane_base;Beaver Lake Seaplane Base;384;NA;US;US-MA;Ware;no;10MA;;10MA;;;4000;800;WATER;0;0
-93.440.863.674;53.770.350.706;1211;7672;10MI;heliport;Ascension St Mary's Hospital Heliport;595;NA;US;US-MI;Saginaw;no;10MI;;10MI;;;100;100;CONC;0;0
-104.591.452.606;58.507.382.427;1212;7673;10MN;seaplane_base;Lookout Lake Seaplane Base;1200;NA;US;US-MN;Ironton;no;10MN;;10MN;;;4000;500;WATER;0;0
-98.583.218.571;3.571.894.585;1213;7675;10MS;closed;Daniel Emergency Response Team Heliport;20;NA;US;US-MS;Moss Point;no;;;;;;50;50;CONC;0;0
-118.537.447.868;6.079.166.822;1214;7676;10MT;small_airport;Hoolie Airport;2526;NA;US;US-MT;Haxby;no;10MT;;10MT;;;1500;60;TURF;0;0
-105.052.034.256;44.204.234.924;1215;7677;10MU;heliport;Freeman Neosho Hospital Heliport;1110;NA;US;US-MO;Neosho;no;10MU;;10MU;;;65;65;ASPH;1;0
-86.282.595.176;43.476.045.238;1216;7678;10NC;small_airport;Johnston Farm Airport;60;NA;US;US-NC;Jackson;no;10NC;;10NC;;;2450;80;TURF;0;0
-113.948.856.623;59.727.327.265;1217;7679;10ND;small_airport;Smith Strip;2200;NA;US;US-ND;Halliday;no;10ND;;10ND;;;1300;50;TURF;0;0
-106.816.058.567;50.515.965.936;1218;7680;10NE;closed;St Joseph Hospital Heliport;1130;NA;US;US-NE;Omaha;no;;;;;;67;60;CONC;0;0
-79.236.882.659;52.928.281.337;1219;7681;10NH;heliport;Clark Heliport;320;NA;US;US-NH;Hampstead;no;10NH;;10NH;;;45;12;TURF;0;0
-83.203.055.009;48.975.127.137;1220;7682;10NJ;closed;St Francis Medical Center Helistop;55;NA;US;US-NJ;Trenton;no;;;;;;75;75;TURF;0;0
-81.982.587.074;53.588.691.341;1221;346195;10NK;heliport;Glens Falls Hospital Heliport;328;NA;US;US-NY;Glens Falls;no;10NK;;10NK;;;40;40;ASP;1;0
-83.667.282.889;53.683.069.811;1222;7683;10NY;closed;Beaver Meadow Heliport;1195;NA;US;US-NY;Remsen;no;;;;;;50;30;ASPH;0;0
-91.982.552.741;50.718.953.516;1223;7684;10OH;small_airport;Zoellner Airport;617;NA;US;US-OH;Huron;no;10OH;;10OH;;;1400;100;TURF-GRVL;0;0
-108.221.472.558;41.865.579.369;1224;7685;10OK;small_airport;Hickory Hills Airport;1175;NA;US;US-OK;Norman;no;10OK;;10OK;;;2600;150;TURF;0;0
-137.169.671.026;57.453.619.717;1225;7686;10OR;closed;Stevens Mountain Airport;1000;NA;US;US-OR;Vernonia;no;;;;;;1000;100;TURF;0;0
-83.835.266.337;48.459.954.994;1226;7687;10PA;heliport;Piac Heliport;8;NA;US;US-PA;Essington;no;10PA;;10PA;;;30;30;TURF;0;0
-8.376.135.173;48.558.766.637;1227;7688;10PN;heliport;One Meridian Plaza Heliport;560;NA;US;US-PA;Philadelphia;no;10PN;;10PN;;;200;75;CONC;0;0
-91.563.539.499;41.421.607.484;1228;351171;10SC;heliport;Hartness Heliport;890;NA;US;US-SC;Greenville;no;10SC;;10SC;;;200;200;ASP;0;0
-106.460.286.989;34.768.669.703;1229;7689;10TA;heliport;Bear Creek Heliport;100;NA;US;US-TX;Houston;no;10TA;;10TA;;;300;200;TURF;0;0
-108.536.806.312;34.608.040.177;1230;7690;10TE;small_airport;Gottwald Field;440;NA;US;US-TX;Harwood;no;10TE;;10TE;;;1975;50;TURF;0;0
-96.129.279.064;43.105.191.358;1231;7691;10TN;small_airport;Flatwood Field;600;NA;US;US-TN;Lebanon;no;10TN;;10TN;;;1200;120;DIRT;0;0
-109.207.875.825;3.446.156.613;1232;7692;10TS;closed;Saint's Strip Ultralightport;980;NA;US;US-TX;Marion;no;;;;;;900;60;TURF;0;0
-108.229.150.409;32.294.080.844;1233;7693;10TX;heliport;SMC Aerospace Heliport;15;NA;US;US-TX;Ingleside;no;10TX;;10TX;;;50;50;CONC;0;0
-126.274.645.445;44.632.172.533;1234;45863;10UT;heliport;Gilbert Development Corp Heliport;3300;NA;US;US-UT;Hurricane;no;10UT;;10UT;;;100;30;ASPH;0;0
-87.734.344.629;44.930.895.632;1235;7694;10VA;small_airport;Nashs Airport;785;NA;US;US-VA;Appomattox;no;10VA;;10VA;;;1800;20;ASPH;0;0
-84.934.928.025;44.153.959.507;1236;328506;10VG;heliport;WAVY TV Heliport;20;NA;US;US-VA;Portsmouth;no;10VG;;10VG;;;30;30;ASP;1;0
-130.703.554.838;60.330.734.455;1237;7695;10WA;closed;Mullan Hill Airport;2310;NA;US;US-WA;Spokane;no;;;;;;2200;60;TURF;0;0
-9.817.210.111;56.397.701.204;1238;7696;10WI;small_airport;Buds Landing Airport;850;NA;US;US-WI;Pound;no;10WI;;10WI;;;2100;200;TURF;0;0
-118.915.499.812;53.766.310.411;1239;45941;10WY;small_airport;Willow Creek Ranch Airport;5521;NA;US;US-WY;Kaycee;no;10WY;;10WY;;;4500;100;GRASS;0;0
-107.603.253.233;33.350.806.581;1240;345772;10XA;small_airport;Sterling Airport;30;NA;US;US-TX;Port Lavaca;no;10XA;;10XA;;;2300;20;ASP;0;0
-110.105.331.064;37.344.011.269;1241;7697;10XS;small_airport;Flying S Air Ranch Airport;1447;NA;US;US-TX;Brownwood;no;10XS;;10XS;;;3000;75;TURF;0;0
-161.971.623.518;93.502.548.011;1242;7698;11AK;small_airport;Rocking T Ranch Airport;1190;NA;US;US-AK;Delta Junction;no;11AK;;11AK;;;2400;30;GRVL-P;0;0
-95.458.136.477;36.839.847.823;1243;7699;11AL;heliport;Ech Stagefield Army Heliport;268;NA;US;US-AL;Fort Rucker/Ozark;no;11AL;;11AL;;;1600;75;ASPH;0;0
-103.600.336.814;40.919.316.754;1244;7700;11AR;heliport;CHI St. Vincent Hospital Hot Springs Heliport;558;NA;US;US-AR;Hot Springs;no;11AR;;11AR;;;60;60;ASPH;1;0
-122.774.325.395;37.218.479.234;1245;7701;11AZ;small_airport;Whetstone Airport;4250;NA;US;US-AZ;Huachuca City;no;11AZ;;11AZ;;;3850;150;TURF-DIRT-P;0;0
-133.273.920.903;43.936.665.635;1246;7702;11CA;small_airport;Turner Field;300;NA;US;US-CA;Fowler;no;11CA;;11CA;;;1800;40;TRTD-DIRT;0;0
-130.970.720.367;41.137.127.575;1247;7703;11CL;small_airport;Hansen Airport;2885;NA;US;US-CA;Adelanto;no;11CL;;11CL;;;5875;80;DIRT;0;0
-89.611.069.101;29.475.113.753;1248;7705;11FA;small_airport;B & L Farms Airport;9;NA;US;US-FL;Homestead;no;11FA;;11FA;;;2465;130;TURF;0;0
-96.360.703.787;35.983.565.932;1249;7706;11FD;heliport;North Okaloosa Medical Center Heliport;230;NA;US;US-FL;Crestview;no;11FD;;11FD;;;30;22;ASPH-G;0;0
-91.154.206.599;35.091.713.951;1250;7707;11FL;small_airport;Williams Field;88;NA;US;US-FL;Middleburg;no;11FL;;11FL;;;3000;200;TURF;0;0
-91.933.759.182;52.999.703.149;1251;7708;11G;closed;Johnson Field;630;NA;US;US-MI;Smiths Creek;no;;;;;;2530;60;TURF-F;0;0
-93.822.520.322;40.005.987.085;1252;7709;11GA;closed;De Kalb General Hospital Heliport;1012;NA;US;US-GA;Decatur;no;;;;;;24;24;CONC;0;0
-93.582.286.873;40.638.076.966;1253;7710;11GE;heliport;Apple 1 Heliport;1273;NA;US;US-GA;Cumming;no;11GE;;11GE;;;50;50;ASPH;0;0
-102.985.352.287;52.134.979.625;1254;345652;11IA;small_airport;Koch Field;988;NA;US;US-IA;Hudson;no;11IA;;11IA;;;1320;100;TURF-G;0;0
-97.819.859.634;50.301.638.804;1255;7713;11IL;heliport;Presence St Mary's Hospital - Kankakee Heliport;610;NA;US;US-IL;Kankakee;no;11IL;;11IL;;;44;44;ASPH;1;0
-96.333.773.594;48.396.602.689;1256;7714;11IN;small_airport;Jr's Airport;950;NA;US;US-IN;Danville;no;11IN;;11IN;;;2700;90;GRAVEL;0;0
-98.574.074.949;47.395.925.992;1257;7715;11IS;heliport;St Anthony Memorial Hospital Heliport;593;NA;US;US-IL;Effingham;no;11IS;;11IS;;;40;40;CONC;0;0
-105.919.275.428;47.384.009.413;1258;7716;11KS;closed;Sheller's Airport;1090;NA;US;US-KS;Tonganoxie;no;;;;;;1600;70;TURF;0;0
-95.552.306.895;45.958.112.942;1259;7717;11KY;heliport;Southwest Hospital Heliport;500;NA;US;US-KY;Louisville;no;11KY;;11KY;;;85;85;CONC;0;0
-99.467.301.075;34.086.269.582;1260;7718;11LA;seaplane_base;Tiger Pass Seaplane Base;;NA;US;US-LA;Venice;no;11LA;;11LA;;;2000;100;WATER;0;0
-98.817.319.007;49.714.982.977;1261;7719;11LL;small_airport;Thacker Airport;720;NA;US;US-IL;Chenoa;no;11LL;;11LL;;;2250;100;TURF;1;0
-103.047.205.849;36.296.743.562;1262;7720;11LS;small_airport;Jasmine Hill Airport;120;NA;US;US-LA;Glenmora;no;11LS;;11LS;;;1800;90;TURF;0;0
-98.381.156.383;4.076.165.687;1263;7721;11M;small_airport;Fulton-Itawamba County Airport;450;NA;US;US-MS;Fulton;no;11M;;11M;;;3000;60;ASPH-P;0;0
-78.767.890.532;51.321.575.677;1264;7722;11MA;small_airport;Bulljump Airport;60;NA;US;US-MA;Wareham;no;11MA;;11MA;;;1200;42;TURF;0;0
-84.192.801.054;46.389.316.557;1265;7723;11MD;small_airport;Tim's Airport;42;NA;US;US-MD;Salisbury;no;11MD;;11MD;;;2500;75;TURF;0;0
-92.882.089.722;52.722.379.733;1266;7724;11MI;heliport;Wagner's Landing Heliport;975;NA;US;US-MI;Clarkston;no;11MI;;11MI;;;50;50;TURF;0;0
-102.007.838.584;47.076.005.727;1267;7726;11MO;small_airport;Redgate Ranch Airport;820;NA;US;US-MO;Williamsburg;no;11MO;;11MO;;;2100;70;TURF;0;0
-121.884.328.293;58.548.222.511;1268;326133;11MT;small_airport;Lammers Airport;4098;NA;US;US-MT;Shawmut;no;11MT;;11MT;;;1257;30;GVL;0;0
-81.782.201.729;50.963.073.317;1269;7727;11N;small_airport;Candlelight Farms Airport;675;NA;US;US-CT;New Milford;no;11N;;11N;;;2900;50;TURF-G;0;0
-87.406.837.441;43.035.800.919;1270;7728;11NC;heliport;Sprint/Midatlantic Telecom Heliport;427;NA;US;US-NC;Youngsville;no;11NC;;11NC;;;40;40;CONC;0;0
-11.567.876.246;52.274.961.651;1271;7729;11NE;small_airport;Kaan Airport;4650;NA;US;US-NE;Harrison;no;11NE;;11NE;;;2500;100;TURF;0;0
-83.115.807.055;49.594.887.674;1272;7730;11NJ;heliport;Southdown Heliport;128;NA;US;US-NJ;Pluckemin;no;11NJ;;11NJ;;;100;100;TURF;0;0
-8305736.67;5.298.875.485;1273;7731;11NK;small_airport;Hop House Airpark;530;NA;US;US-NY;Fort Plain;no;11NK;;11NK;;;2400;50;TURF;0;0
-85.102.614.139;51.923.625.733;1274;7732;11NY;closed;Saikkonen Airport;969;NA;US;US-NY;Spencer;no;;;;;;1600;50;TURF;0;0
-91.801.618.355;48.142.133.885;1275;7733;11OA;small_airport;Hide-A-Way Hills Resort Airport;780;NA;US;US-OH;Bremen;no;11OA;;11OA;;;2300;100;TURF;0;0
-131.565.162.643;55.355.498.419;1276;7734;11OG;small_airport;Unity Airport;3975;NA;US;US-OR;Unity;no;11OG;;11OG;;;2400;60;DIRT-F;0;0
-137.240.238.301;53.720.598.479;1277;7736;11OR;small_airport;Holiday Sky Ranch Airport;510;NA;US;US-OR;Sutherlin;no;11OR;;11OR;;;2225;40;TURF-F;0;0
-88.758.122.465;5.064.475.195;1278;45744;11PN;small_airport;Eakin Airport;1489;NA;US;US-PA;Cranberry;no;11PN;;11PN;;;2500;100;TURF;0;0
-138.385.715.114;6.151.239.427;1279;7738;11S;small_airport;Sekiu Airport;355;NA;US;US-WA;Sekiu;no;11S;;11S;;;2997;50;ASPH-P;1;0
-106.433.788.549;34.765.077.997;1280;7739;11TA;closed;Conoco Heliport;91;NA;US;US-TX;Houston;no;;;;;;180;90;CONC;0;0
-108.207.552.526;38.027.679.935;1281;7740;11TE;small_airport;Flying M Ranch Airport;700;NA;US;US-TX;Grandview;no;11TE;;11TE;;;1900;50;TURF-F;0;0
-9.725.616.445;43.661.787.491;1282;7741;11TN;closed;Salem Field;425;NA;US;US-TN;Clarksville;no;;;;;;2800;75;TURF;0;0
-107.324.679.547;37.184.879.837;1283;7742;11TS;small_airport;PT Enterprise D&W Ranch Airport;526;NA;US;US-TX;Mexia;no;11TS;;11TS;;;2370;50;TURF;0;0
-107.637.009.755;39.842.841.689;1284;7743;11TX;small_airport;Butler Airport;840;NA;US;US-TX;Sherman;no;11TX;;11TX;;;2000;80;TURF;0;0
-84.874.546.638;44.031.776.634;1285;7744;11VA;heliport;Chesapeake General Hospital Heliport;21;NA;US;US-VA;Chesapeake;no;11VA;;11VA;;;45;45;CONC;0;0
-85.716.678.858;46.090.494.144;1286;7745;11VG;small_airport;Devil's Reach Landing Airport;28;NA;US;US-VA;Oak Grove;no;11VG;;11VG;;;1800;70;TURF;0;0
-13.076.650.935;60.279.769.837;1287;7746;11WA;small_airport;Homeport Airport;2320;NA;US;US-WA;Cheney;no;11WA;;11WA;;;2400;50;TURF;0;0
-101.227.044.232;56.157.455.142;1288;7747;11WI;closed;Victory Memorial Hospital Heliport;1140;NA;US;US-WI;Stanley;no;;;;;;100;100;ASPH;0;0
-99.710.200.966;53.660.408.055;1289;7748;11WN;seaplane_base;Diedrich Seaplane Base;774;NA;US;US-WI;Lodi;no;11WN;;11WN;;;3000;350;WATER;0;0
-98.178.150.321;54.749.152.805;1290;45923;11Y;small_airport;Flying Feathers Airport;940;NA;US;US-WI;Chilton;no;11Y;;11Y;;;500;20;TURF;0;0
-102.787.300.931;41.881.512.429;1291;7750;12A;small_airport;Arkavalley Airport;329;NA;US;US-AR;Conway;no;12A;;12A;;;3133;40;ASPH-G;1;0
-95.137.634.315;36.869.016.773;1292;7749;12AL;heliport;Goldberg Stagefield Army Heliport;362;NA;US;US-AL;Midland City;no;12AL;;12AL;;;1600;75;ASPH;0;0
-101.271.484.086;40.982.253.441;1293;45301;12AR;small_airport;Gibbons Airport;178;NA;US;US-AR;Marvell;no;12AR;;12AR;;;2600;100;TURF;0;0
-125.404.747.077;40.092.013.299;1294;7751;12AZ;small_airport;Ranta Strip;1840;NA;US;US-AZ;Morristown;no;12AZ;;12AZ;;;2400;100;GRAVEL;0;0
-134.884.712.372;45.949.202.171;1295;7752;12CA;small_airport;Faber Vineyards Airport;70;NA;US;US-CA;Lodi;no;12CA;;12CA;;;1800;100;TRTD-DIRT;0;0
-133.416.408.017;43.222.318.954;1296;7753;12CL;small_airport;Newton Field;194;NA;US;US-CA;Stratford;no;12CL;;12CL;;;2790;40;ASPH-G;1;0
-120.019.111.716;46.981.355.059;1297;7754;12CO;small_airport;Omega 1 STOLport;6409;NA;US;US-CO;Hotchkiss;no;12CO;;12CO;;;1400;50;DIRT;0;0
-90.964.165.304;33.094.494.032;1298;7755;12FA;closed;Hi-Acres Airport;105;NA;US;US-FL;Clermont;no;;;;;;1800;80;TURF;0;0
-90.625.054.966;32.867.049.587;1299;7756;12FD;heliport;Osceola Regional Medical Center Heliport;59;NA;US;US-FL;Kissimmee;no;12FD;;12FD;;;40;40;CONC;0;0
-90.618.407.128;33.239.200.016;1300;7757;12FL;seaplane_base;Timberlachen Seaplane Base;89;NA;US;US-FL;Orlando;no;12FL;;12FL;;;2463;200;WATER;0;0
-93.530.443.582;4012333.06;1301;7758;12GA;heliport;Eastside Medical Center Heliport;1065;NA;US;US-GA;Snellville;no;12GA;;12GA;;;50;50;CONC;0;0
-90.569.207.162;37.280.256.679;1302;7759;12GE;seaplane_base;Harvest Lake Seaplane Base;4;NA;US;US-GA;Riceboro;no;12GE;;12GE;;;2100;75;WATER;0;0
-94.621.567.174;47.950.334.673;1303;7760;12I;seaplane_base;Brookville Reservoir Seaplane Base;748;NA;US;US-IN;Brookville;no;12I;;12I;;;16000;2000;WATER;0;0
-107.020.111.784;5.281.654.886;1304;7761;12IA;small_airport;Plueger Airfield;1245;NA;US;US-IA;Lemars;no;12IA;;12IA;;;1350;200;TURF;0;0
-127.720.193.274;56.164.849.119;1305;7762;12ID;small_airport;Flying B Ranch Landing Strip;3647;NA;US;US-ID;Salmon;no;12ID;;12ID;;;2000;100;TURF;0;0
-94.592.027.434;48.450.780.473;1306;7763;12II;small_airport;Pentecost Airport;1020;NA;US;US-IN;Richmond;no;12II;;12II;;;2500;75;TURF;0;0
-97.979.743.082;5.041.886.639;1307;7764;12IL;small_airport;Hawker Airport;620;NA;US;US-IL;Kankakee;no;12IL;;12IL;;;1300;100;TURF;0;0
-97.568.749.673;45.961.934.393;1308;7765;12IN;small_airport;J & S Field;465;NA;US;US-IN;Darmstadt;no;12IN;;12IN;;;1930;50;TURF;0;0
-101.032.923.078;50.427.866.934;1309;7766;12IS;heliport;Mercer County Hospital Heliport;729;NA;US;US-IL;Aledo;no;12IS;;12IS;;;50;50;CONC;0;0
-83.402.274.596;49.541.921.264;1310;7767;12JY;balloonport;Clinton Elks Lodge Balloonport;37;NA;US;US-NJ;Pittstown;no;12JY;;12JY;;;320;220;TURF;0;0
-108.522.923.211;45.702.897.479;1311;7768;12KS;small_airport;Sooter Airport;1420;NA;US;US-KS;Sedgwick;no;12KS;;12KS;;;2600;50;TURF;0;0
-94.809.254.051;4.644.656.461;1312;7769;12KY;small_airport;John M. Foree Airport;853;NA;US;US-KY;New Castle;no;12KY;;12KY;;;2500;100;TURF;1;0
-10.392.498.117;35.390.637.287;1313;7770;12LA;small_airport;Kml Airport;20;NA;US;US-LA;Sulphur;no;12LA;;12LA;;;3500;85;TURF;0;0
-99.615.579.944;45.146.873.397;1314;7771;12LL;closed;Lambdins Field;350;NA;US;US-IL;Wolf Lake;no;;;;;;2200;120;TURF;0;0
-102.731.196.155;35.265.279.685;1315;7772;12LS;small_airport;Hains Airstrip;20;NA;US;US-LA;Rayne;no;12LS;;12LS;;;2100;70;TURF-G;0;0
-79.529.653.464;51.920.526.672;1316;7773;12MA;heliport;Mellen Street Heliport;275;NA;US;US-MA;Holliston;no;12MA;;12MA;;;400;200;TURF;0;0
-85.352.953.863;47.604.993.912;1317;7774;12MD;heliport;Ascension Saint Agnes Hospital Heliport;141;NA;US;US-MD;Baltimore;no;12MD;;12MD;;;40;40;CONC;0;0
-77.041.212.036;55.154.550.711;1318;7775;12ME;small_airport;Ridgeview Airport;240;NA;US;US-ME;Searsmont;no;12ME;;12ME;;;1500;50;TURF;0;0
-92.940.386.828;53.199.740.687;1319;7776;12MI;small_airport;John's Airport;820;NA;US;US-MI;Davison;no;12MI;;12MI;;;1852;100;TURF;0;0
-104.189.147.902;46.617.730.806;1320;7778;12MO;closed;Ferguson Farms Airport;990;NA;US;US-MO;Windsor;no;;;;;;3000;50;TURF;0;0
-101.654.798.281;36.442.813.019;1321;7779;12MS;closed;Green Acres Airport;300;NA;US;US-MS;Woodville;no;;;;;;1100;75;TURF;0;0
-122.943.473.517;62.366.344.204;1322;7780;12MT;small_airport;Lincolns Field;2931;NA;US;US-MT;Hingham;no;12MT;;12MT;;;1780;55;TURF-P;0;0
-112.908.022.101;6.156.123.516;1323;7782;12ND;small_airport;Pietschtree Airstrip;1566;NA;US;US-ND;Burlington;no;12ND;;12ND;;;2000;100;TURF;0;0
-115.438.308.555;5.146.998.971;1324;7783;12NE;small_airport;Reisig Brothers Airport;3985;NA;US;US-NE;Scottsbluff;no;12NE;;12NE;;;2000;40;TURF;0;0
-79.765.362.192;5387664.64;1325;45523;12NH;small_airport;Gile Pond Airport;485;NA;US;US-NH;Sanbornton;no;12NH;;12NH;;;1800;200;TURF;0;0
-8.174.512.977;54.899.879.903;1326;7785;12NK;small_airport;Westport Airport;276;NA;US;US-NY;Westport;no;12NK;;12NK;;;2600;125;TURF-G;0;0
-119.845.896.984;3.738.179.794;1327;7786;12NM;closed;Columbus Stockyards Airport;4017;NA;US;US-NM;Columbus;no;;;;;;5000;60;DIRT;0;0
-83.679.972.198;52.927.221.494;1328;7787;12NY;closed;TGP-245 Heliport;1440;NA;US;US-NY;West Winfield;no;;;;;;300;150;TURF;0;0
-93.928.477.553;5.056.425.947;1329;45951;12OA;heliport;ProMedica Defiance Regional Hospital Heliport;709;NA;US;US-OH;Defiance;no;12OA;;12OA;;;60;60;CONC-G;1;0
-93.879.607.183;48.419.609.118;1330;7788;12OH;small_airport;McGregor Airfield;940;NA;US;US-OH;Brookville;no;12OH;;12OH;;;1030;100;TURF;0;0
-130.557.722.966;53.045.624.498;1331;7790;12OR;small_airport;Skinner Ranch Airport;4273;NA;US;US-OR;Jordan Valley;no;12OR;;12OR;;;2200;75;DIRT;0;0
-85.921.021.677;48.440.960.711;1332;7791;12PA;heliport;Helicopter Applicators Inc Heliport;612;NA;US;US-PA;Gettysburg;yes;12PA;;12PA;;;180;150;CONC;1;0
-83.730.287.494;48.669.758.298;1333;7792;12PN;heliport;WCAU Heliport;230;NA;US;US-PA;Philadelphia;no;12PN;;12PN;;;60;60;ASPH;0;0
-84.470.789.269;48.258.865.463;1334;7794;12PS;heliport;Siple Heliport;419;NA;US;US-PA;Lewisville;no;12PS;;12PS;;;65;65;TURF;0;0
-132.948.868.194;55.950.803.651;1335;7795;12S;small_airport;Monument Municipal Airport;2323;NA;US;US-OR;Monument;no;12S;;12S;;;2104;29;GRVL-TRTD-F;0;0
-89.886.811.345;40.478.043.481;1336;7796;12SC;small_airport;Over the Hill Airport;250;NA;US;US-SC;Elgin;no;12SC;;12SC;;;2400;100;TURF;0;0
-107.680.592.449;38.330.665.142;1337;7797;12T;heliport;Ferris Red Oak Municipal Heliport;510;NA;US;US-TX;Ferris;no;;;12T;;;40;40;CONC-E;0;0
-106.340.951.802;34.637.898.801;1338;7798;12TA;heliport;Channel Two Heliport;72;NA;US;US-TX;Houston;no;12TA;;12TA;;;20;20;CONC;0;0
-110.473.996.997;36.734.448.881;1339;7799;12TE;closed;Curtis Ranch Field;1740;NA;US;US-TX;Rochelle;no;;;;;;2300;200;TURF;0;0
-94.108.165.135;42.763.897.947;1340;7800;12TN;small_airport;Riley Creek Airport;750;NA;US;US-TN;Kingston;no;12TN;;12TN;;;2600;40;ASPH-G;1;0
-109.067.834.793;38.831.652.896;1341;7801;12TS;small_airport;Blo Airport;1050;NA;US;US-TX;Mineral Wells;no;12TS;;12TS;;;1600;50;ASPH;0;0
-108.092.133.927;39.743.845.558;1342;347056;12TT;small_airport;D An P Farm Airport;771;NA;US;US-TX;Gainesville;no;12TT;;12TT;;;2480;50;Turf;0;0
-109.183.296.482;36.095.571.354;1343;7802;12TX;small_airport;Griffin Airport;1235;NA;US;US-TX;Bertram;no;12TX;;12TX;;;2000;100;TURF;0;0
-88.797.108.083;45.495.347.142;1344;7803;12VA;small_airport;Hop-Along Airport;1060;NA;US;US-VA;Clifton Forge;no;12VA;;12VA;;;2150;50;TURF;0;0
-130.759.020.888;60.274.633.322;1345;7804;12WA;small_airport;Fowlers Northwest 40 Airport;2313;NA;US;US-WA;Spokane;no;12WA;;12WA;;;1550;200;TURF;0;0
-100.584.173.454;56.429.413.707;1346;7805;12WI;heliport;Memorial Hospital of Taylor County Heliport;1435;NA;US;US-WI;Medford;no;12WI;;12WI;;;60;50;ASPH;0;0
-130.487.223.219;59.275.590.872;1347;45905;12WT;closed;Walker Airport;2450;NA;US;US-WA;Palouse;no;;;;;;2200;80;TURF-G;0;0
-91.406.826.146;4.628.036.891;1348;321472;12WV;small_airport;Crazy Horse Airport;603;NA;US;US-WV;Hamlin;no;12WV;;12WV;;;1292;40;Turf;0;0
-120.653.259.402;55.353.468.723;1349;45934;12WY;small_airport;Black Diamond Airport;4400;NA;US;US-WY;Burlington;no;12WY;;12WY;;;2500;50;TURF;0;0
-102.233.583.936;4.157.692.531;1350;7806;12XS;small_airport;Mc Croskey Field;253;NA;US;US-AR;Butlerville;no;12XS;;12XS;;;2450;40;TURF;0;0
-166.867.909.904;87.777.267.805;1351;7807;13AK;small_airport;Satterbergs Airport;350;NA;US;US-AK;Houston;no;13AK;;13AK;;;980;45;TURF;0;0
-9.531.230.312;36.794.603.209;1352;7808;13AL;heliport;Hatch Stagefield Army Heliport;225;NA;US;US-AL;Fort Rucker/Ozark;no;13AL;;13AL;;;1600;50;ASPH;0;0
-102.433.856.116;40.540.199.149;1353;7809;13AR;heliport;Jrmc Heliport;227;NA;US;US-AR;Pine Bluff;no;13AR;;13AR;;;40;40;CONC;0;0
-12.562.791.062;39.665.334.835;1354;7810;13AZ;small_airport;Waltenberry Field Ultralightport;1213;NA;US;US-AZ;Tonopah;no;13AZ;;13AZ;;;1100;75;DIRT;0;0
-130.416.125.687;40.604.290.134;1355;7811;13CA;heliport;MH15 Heaps Peak US Forest Service Heliport;6266;NA;US;US-CA;Lake Arrowhead;no;13CA;;13CA;;;20;20;ASPH-CONC;0;0
-135.613.853.679;46.334.319.019;1356;7812;13CL;small_airport;Maine Prairie Airport;40;NA;US;US-CA;Dixon;no;13CL;;13CL;;;1950;50;GRAVEL;0;0
-118.938.198.714;49.470.119.884;1357;7813;13CO;heliport;Mann Heliport;7500;NA;US;US-CO;Steamboat Springs;no;13CO;;13CO;;;15;15;CONC-G;0;0
-93.155.562.034;52.556.894.377;1358;22103;13D;heliport;Ponderosa Heliport;1017;NA;US;US-MI;Highland;no;13D;;13D;;;18;18;CONC-G;1;0
-90.733.054.909;34.636.718.862;1359;7814;13FA;small_airport;Earle Airpark;25;NA;US;US-FL;Hastings;no;13FA;;13FA;;;2300;100;TURF-G;0;0
-90.595.254.738;33.145.161.237;1360;7815;13FD;closed;Yelvington Heliport;110;NA;US;US-FL;Orlando;no;;;;;;40;40;CONC;0;0
-91.638.705.759;32.840.466.622;1361;7816;13FL;heliport;Gator Lake Heliport;110;NA;US;US-FL;Wesley Chapel;no;13FL;;13FL;;;500;200;CONC;0;0
-93.235.525.968;36.804.512.126;1362;7817;13GA;small_airport;Oak Ridge Plantation Airport;350;NA;US;US-GA;Sumner;no;13GA;;13GA;;;3400;150;TURF;0;0
-91.636.089.724;38.107.651.966;1363;7818;13GE;small_airport;Holt Airpark;280;NA;US;US-GA;Oak Park;no;13GE;;13GE;;;2600;60;TURF;0;0
-100.400.274.456;51.678.275.535;1364;7819;13IA;small_airport;Hillside Stables Airport;760;NA;US;US-IA;Sabula;no;13IA;;13IA;;;850;60;TURF;0;0
-128.018.526.996;55.067.925.104;1365;7820;13ID;small_airport;Silva Ranch Airport;6400;NA;US;US-ID;Stanley;no;13ID;;13ID;;;1600;100;TURF;0;0
-94.788.208.389;50.239.569.858;1366;7821;13II;heliport;St Joseph Medical Center Heliport;845;NA;US;US-IN;Fort Wayne;no;13II;;13II;;;50;50;CONC;0;0
-94.541.197.842;49.850.164.856;1367;7822;13IN;small_airport;Gage Airport;814;NA;US;US-IN;Decatur;no;13IN;;13IN;;;2200;60;TURF-P;1;0
-82.649.490.224;49.600.316.209;1368;7823;13JY;heliport;Hess Port Reading Heliport;70;NA;US;US-NJ;Port Reading;no;13JY;;13JY;;;50;50;ASPH;0;0
-108.102.689.416;45.368.225.658;1369;7824;13KS;small_airport;Daniel's Landing Airport;1325;NA;US;US-KS;Andover;no;13KS;;13KS;;;2000;75;TURF;0;0
-97.024.494.118;4.537.809.166;1370;7825;13KY;small_airport;Miles Airport;407;NA;US;US-KY;Owensboro;no;13KY;;13KY;;;2000;100;TURF;0;0
-10.375.923.172;34.757.638.404;1371;7826;13LA;heliport;Evergreen Heliport;10;NA;US;US-LA;Cameron;no;13LA;;13LA;;;50;20;CONC;0;0
-97.820.981.152;51.473.412.191;1372;7827;13LL;heliport;Henry Valve Company Heliport;640;NA;US;US-IL;Melrose Park;no;13LL;;13LL;;;25;25;CONC;0;0
-102.843.176.402;35.027.658.079;1373;7828;13LS;small_airport;Tee Brad's Airport;12;NA;US;US-LA;Kaplan;no;13LS;;13LS;;;2200;40;ASPH-TURF;0;0
-93.350.962.946;52.519.195.562;1374;7829;13M;balloonport;Aeronut Park Balloonport;980;NA;US;US-MI;Howell;no;13M;;13M;;;900;250;TURF;0;0
-80.496.683.379;51.944.877.636;1375;7830;13MA;closed;Metropolitan Airport;418;NA;US;US-MA;Palmer;no;;;;;;2475;55;ASPH-P;1;0
-77.711.360.942;57.445.895.237;1376;7831;13ME;small_airport;Socatean Bay Airport;1179;NA;US;US-ME;Rockwood;no;13ME;;13ME;;;2100;100;ASPH;0;0
-95.863.668.884;51.585.380.656;1377;7832;13MI;heliport;Lee Memorial Hospital Heliport;748;NA;US;US-MI;Dowagiac;no;13MI;;13MI;;;60;60;TURF;0;0
-106.679.024.274;57.965.172.312;1378;7833;13MN;closed;Melby Airport;1250;NA;US;US-MN;Ashby;no;;;;;;1600;80;TURF;0;0
-102.087.205.698;4.533.812.199;1379;7834;13MO;small_airport;Domeyer Airport;1260;NA;US;US-MO;Lenox;no;13MO;;13MO;;;2000;100;TURF;0;0
-99.813.399.447;35.852.172.804;1380;7835;13MS;small_airport;Greener Pastures Airpark;180;NA;US;US-MS;Carriere;no;13MS;;13MS;;;3000;100;TURF;0;0
-122.577.229.742;61.939.391.646;1381;7836;13MT;small_airport;Sorenson Airport;2873;NA;US;US-MT;Kremlin;no;13MT;;13MT;;;2300;60;TURF;0;0
-83.244.934.515;50.074.460.515;1382;7837;13N;closed;Trinca Airport;600;NA;US;US-NJ;Andover;no;;;;;;1924;135;TURF-G;0;0
-112.220.063.368;49.120.715.516;1383;7839;13NE;small_airport;Hock Airport;2777;NA;US;US-NE;Culbertson;no;13NE;;13NE;;;2600;200;TURF;0;0
-79.313.714.527;53.767.162.598;1384;346084;13NH;heliport;Coffin Brook Landing Heliport;705;NA;US;US-NH;Alton;no;13NH;;13NH;;;33;33;Turf;1;0
-83.025.305.613;49.191.404.524;1385;7840;13NJ;heliport;Wyeth-Ayerst Research Heliport;117;NA;US;US-NJ;Princeton;no;13NJ;;13NJ;;;50;50;ASPH;0;0
-81.854.893.343;5.100.876.265;1386;7841;13NK;heliport;Quaker Valley Farm Heliport;1100;NA;US;US-NY;Pawling;no;13NK;;13NK;;;75;75;TURF;0;0
-120.383.364.184;39.511.104.671;1387;7842;13NM;small_airport;Beaverhead Airstrip;7378;NA;US;US-NM;Magdalena;no;13NM;;13NM;;;3840;50;DIRT-G;0;0
-89.236.008.133;43.416.530.151;1388;346550;13NR;small_airport;Dusenbury Field;646;NA;US;US-NC;Walnut Cove;no;13NR;;13NR;;;1900;50;Turf;0;0
-81.390.856.075;49.990.587.947;1389;7843;13NY;heliport;Stony Brook University Hospital Heliport;190;NA;US;US-NY;Stony Brook;no;13NY;;13NY;;;60;60;CONC;0;0
-93.840.439.421;50.611.834.439;1390;7844;13OH;closed;Rose Field;728;NA;US;US-OH;Jewell;no;;;;;;2250;90;TURF;0;0
-90.677.407.409;49.411.457.326;1391;7845;13OI;heliport;Cleveland Clinic, Union Hospital Heliport;926;NA;US;US-OH;Dover;no;13OI;;13OI;;;25;25;TURF;0;0
-106.587.189.033;41.552.142.196;1392;7846;13OK;heliport;McAlester Regional Health Center Heliport;705;NA;US;US-OK;McAlester;no;13OK;;13OK;;;40;40;CONC;0;0
-136.284.002.584;54.254.021.698;1393;7847;13OR;small_airport;Aubrey Mountain Airstrip;1680;NA;US;US-OR;Oakridge;no;13OR;;13OR;;;1950;40;TURF;0;0
-88.445.565.698;51.135.521.236;1394;7848;13PA;small_airport;Rigrtona Airport;1703;NA;US;US-PA;Tidioute;no;13PA;;13PA;;;2075;50;ASPH;1;0
-83.828.701.246;49.321.811.991;1395;7849;13PN;small_airport;Richland Acres Ultralightport;550;NA;US;US-PA;Quakertown;no;13PN;;13PN;;;880;100;TURF;0;0
-83.861.314.378;49.739.495.837;1396;7850;13PS;heliport;St. Luke's/Pennstar Flight Center Heliport;488;NA;US;US-PA;Nazareth;no;13PS;;13PS;;;80;80;CONC;1;0
-120.981.933.539;40.293.698.916;1397;7851;13Q;small_airport;Jewett Mesa Airport;7681;NA;US;US-NM;Quemado;no;;;13Q;;;5200;45;DIRT-P;0;0
-16.310.420.159;89.265.371.793;1398;7852;13S;seaplane_base;Lake Louise Seaplane Base;2362;NA;US;US-AK;Lake Louise;no;13S;;13S;;;5000;4000;WATER;0;0
-90.944.020.929;41.828.137.228;1399;7853;13SC;closed;Grassy Pond Heliport;840;NA;US;US-SC;Gaffney;no;;;;;;20;20;CONC;0;0
-104.789.263.485;35.129.751.017;1400;7854;13TA;closed;KBMT-TV Heliport;32;NA;US;US-TX;Beaumont;no;;;;;;35;35;CONC;0;0
-107.465.943.492;35.881.543.354;1401;7855;13TE;small_airport;Varisco Airport;240;NA;US;US-TX;Bryan;no;13TE;;13TE;;;2330;100;ASPH-TURF;0;0
-93.806.153.942;42.454.880.482;1402;7856;13TN;heliport;Bear Mountain Heliport;930;NA;US;US-TN;Vonore;no;13TN;;13TN;;;37;37;CONC;0;0
-110.124.363.884;31.804.714.621;1403;7857;13TS;small_airport;Van Es Ranch Airport;830;NA;US;US-TX;Oilton;no;13TS;;13TS;;;3000;30;DIRT;0;0
